unitid,instnm,addr,city,stabbr,zip,longitud,latitude
100654,Alabama A & M University,4900 Meridian Street,Normal,AL,35762,-86.568502,34.783368
100663,University of Alabama at Birmingham,Administration Bldg Suite 1070,Birmingham,AL,35294-0110,-86.799345,33.505697
100706,University of Alabama in Huntsville,301 Sparkman Dr,Huntsville,AL,35899,-86.640449,34.724557
100724,Alabama State University,915 S Jackson Street,Montgomery,AL,36104-0271,-86.295677,32.364317
100751,The University of Alabama,739 University Blvd,Tuscaloosa,AL,35487-0100,-87.545978,33.211875
100760,Central Alabama Community College,1675 Cherokee Rd,Alexander City,AL,35010,-85.945266,32.92478
100812,Athens State University,300 N Beaty St,Athens,AL,35611,-86.964698,34.806793
100830,Auburn University at Montgomery,7440 East Drive,Montgomery,AL,36117-3596,-86.177544,32.36736
100858,Auburn University, ,Auburn,AL,36849,-85.488258,32.599378
101028,Chattahoochee Valley Community College,2602 College Drive,Phenix City,AL,36869,-85.031485,32.42391
101143,Enterprise State Community College,600 Plaza Drive,Enterprise,AL,36330-1300,-85.836956,31.297496
101161,Coastal Alabama Community College,1900 U S Highway 31 South,Bay Minette,AL,36507-2698,-87.778193,30.851343
101240,Gadsden State Community College,1001 George Wallace Dr,Gadsden,AL,35903,-85.991438,33.994001
101286,George C Wallace Community College-Dothan,1141 Wallace Drive,Dothan,AL,36303-9234,-85.465836,31.315274
101295,George C Wallace State Community College-Hanceville,801 Main St NW,Hanceville,AL,35077-2000,-86.781935,34.072439
101301,George C Wallace State Community College-Selma,3000 Earl Goodwin Parkway,Selma,AL,36703-2808,-87.013294,32.445917
101462,J. F. Drake State Community and Technical College,3421 Meridian St N,Huntsville,AL,35811,-86.572885,34.771858
101471,J F Ingram State Technical College,5375 Ingram Rd,Deatsville,AL,36022,-86.392369,32.582312
101480,Jacksonville State University,700 Pelham Road North,Jacksonville,AL,36265,-85.765321,33.822938
101505,Jefferson State Community College,2601 Carson Rd,Birmingham,AL,35215-3098,-86.707233,33.652535
101514,John C Calhoun State Community College,6250 U S Highway 31 N,Tanner,AL,35671,-86.949674,34.645844
101569,Lawson State Community College,3060 Wilson Rd SW,Birmingham,AL,35221-1717,-86.888844,33.450814
101587,University of West Alabama,Station One,Livingston,AL,35470,-88.186329,32.588132
101602,Lurleen B Wallace Community College,1000 Dannelly Blvd.,Andalusia,AL,36420-1418,-86.452262,31.322947
101648,Marion Military Institute,1101 Washington St,Marion,AL,36756-3207,-87.322041,32.623734
101709,University of Montevallo,Station 6001,Montevallo,AL,35115-6000,-86.865099,33.10625
101736,Northwest-Shoals Community College,800 George Wallace Blvd,Muscle Shoals,AL,35661,-87.678089,34.739788
101879,University of North Alabama,One Harrison Plaza,Florence,AL,35632-0001,-87.681361,34.806738
101897,Northeast Alabama Community College,138  Highway 35,Rainsville,AL,35986,-85.911664,34.545471
101994,Reid State Technical College,100 and Hwy 83,Evergreen,AL,36401,-86.964797,31.460265
102030,Bishop State Community College,351 North Broad Street,Mobile,AL,36603-5898,-88.056982,30.693972
102067,Shelton State Community College,9500 Old Greensboro Rd,Tuscaloosa,AL,35405-8522,-87.56148,33.120531
102076,Snead State Community College,102 Elder Street,Boaz,AL,35957-0734,-86.169897,34.201495
102094,University of South Alabama,307 N University Blvd,Mobile,AL,36688-0002,-88.178711,30.696033
102313,H Councill Trenholm State Community College,1225 Air Base Blvd,Montgomery,AL,36108-3199,-86.343057,32.350109
102368,Troy University,University Avenue,Troy,AL,36082-0001,-85.957094,31.800672
102429,Bevill State Community College,1411 Indiana Avenue,Jasper,AL,35501,-87.266406,33.836929
102553,University of Alaska Anchorage,3211 Providence Drive,Anchorage,AK,99508,-149.82619,61.190163
102614,University of Alaska Fairbanks,1731 South Chandalar Drive,Fairbanks,AK,99775,-147.823146,64.85756
102632,University of Alaska Southeast,11066 Auke Lake Way,Juneau,AK,99801-8697,-134.638255,58.384846
104151,Arizona State University-Tempe,University Drive and Mill Avenue,Tempe,AZ,85287,-111.934383,33.417721
104160,Arizona Western College,2020 S. Avenue 8E,Yuma,AZ,85365-8834,-114.495968,32.689306
104179,University of Arizona,1401 E University,Tucson,AZ,85721-0066,-110.950815,32.232672
104346,Central Arizona College,8470 N Overfield Rd,Coolidge,AZ,85128-9030,-111.652501,32.957092
104425,Cochise County Community College District,901 N Colombo Ave,Sierra Vista,AZ,85635-2317,-110.246946,31.564597
104577,Eastern Arizona College,615 N. Stadium Ave.,Thatcher,AZ,85552-0769,-109.76234,32.843664
104708,Glendale Community College,6000 W Olive Ave,Glendale,AZ,85302,-112.190735,33.570226
105145,GateWay Community College,108 N. 40th Street,Phoenix,AZ,85034,-111.997077,33.449686
105154,Mesa Community College,1833 W Southern Ave,Mesa,AZ,85202,-111.871255,33.390323
105206,Mohave Community College,1971 Jagerson Ave,Kingman,AZ,86409-1238,-114.029838,35.270996
105297,Dine College,"Route 12, One Circle Drive",Tsaile,AZ,86556,-109.21684,36.293328
105330,Northern Arizona University,"1900 S Knoles Dr, Babbitt Administrative Center, Room 200",Flagstaff,AZ,86011-4092,-111.653724,35.188449
105349,Northland Pioneer College,2251 E. Navajo Blvd.,Holbrook,AZ,86025-0610,-110.142199,34.93031
105428,Phoenix College,1202 W Thomas Rd,Phoenix,AZ,85013,-112.088293,33.481361
105525,Pima Community College,4905C East  Broadway Blvd.,Tucson,AZ,85709-1275,-110.886659,32.222125
105668,Rio Salado College,2323 W 14th St,Tempe,AZ,85281,-111.97417,33.413309
105747,Scottsdale Community College,9000 E Chaparral Rd,Scottsdale,AZ,85256,-111.885186,33.51135
105792,South Mountain Community College,7050 S 24th St,Phoenix,AZ,85042,-112.032635,33.382406
106148,Yavapai College,1100 E Sheldon St,Prescott,AZ,86301,-112.453395,34.547495
106245,University of Arkansas at Little Rock,2801 S University Ave,Little Rock,AR,72204,-92.339778,34.723254
106263,University of Arkansas for Medical Sciences,4301 W Markham,Little Rock,AR,72205-7199,-92.320046,34.749048
106397,University of Arkansas,Administration Bldg 425,Fayetteville,AR,72701,-94.176981,36.070009
106412,University of Arkansas at Pine Bluff,1200 N University Mail Slot 4789,Pine Bluff,AR,71601,-92.018683,34.244031
106449,Arkansas State University-Beebe,1000 Iowa Street,Beebe,AR,72012-1000,-91.895351,35.074176
106458,Arkansas State University-Main Campus,2105 E. Aggie Road,Jonesboro,AR,72401,-90.679988,35.842388
106467,Arkansas Tech University,Administration Bldg 200; 1509 N Boulder Ave,Russellville,AR,72801-2222,-93.13562,35.293237
106485,University of Arkansas at Monticello,Highway 425 South,Monticello,AR,71656,-91.811153,33.590909
106625,Black River Technical College,1410 Hwy 304 East,Pocahontas,AR,72455,-90.951033,36.239793
106704,University of Central Arkansas,201 Donaghey Ave,Conway,AR,72035-0001,-92.457672,35.077945
106795,Cossatot Community College of the University of Arkansas,183 College Drive,De Queen,AR,71832,-94.3673,34.043389
106883,East Arkansas Community College,1700 Newcastle Rd,Forrest City,AR,72335-2204,-90.767726,35.041655
106980,National Park College,101 College Dr,Hot Springs,AR,71913,-93.119248,34.512687
106999,University of Arkansas Community College-Batesville,2005 White Drive,Batesville,AR,72503-3350,-91.615852,35.792923
107071,Henderson State University,1100 Henderson Street,Arkadelphia,AR,71999-0001,-93.059703,34.128155
107318,Arkansas State University Mid-South,2000 W.  Broadway,West Memphis,AR,72301-3829,-90.22285,35.145736
107327,Arkansas Northeastern College,2501 S Division,Blytheville,AR,72316-1109,-89.921005,35.898597
107460,North Arkansas College,1515 Pioneer Dr,Harrison,AR,72601-5508,-93.08844,36.219909
107521,Arkansas State University Three Rivers,One College Circle,Malvern,AR,72104-0816,-92.821416,34.378745
107549,Ozarka College,218 College Dr,Melbourne,AR,72556-0010,-91.896355,36.053031
107585,University of Arkansas Community College-Morrilton,1537 University Blvd.,Morrilton,AR,72110,-92.728507,35.172136
107619,Phillips Community College of the University of Arkansas,1000 Campus Drive,Helena,AR,72342-0785,-90.616884,34.546155
107637,Southeast Arkansas College,1900 S Hazel Street,Pine Bluff,AR,71603,-92.025936,34.210309
107664,University of Arkansas-Pulaski Technical College,3000 W Scenic Dr,North Little Rock,AR,72118-3347,-92.299184,34.782783
107725,University of Arkansas Hope-Texarkana,2500 S Main,Hope,AR,71801,-93.596762,33.641665
107743,University of Arkansas Community College Rich Mountain,1100 College Dr,Mena,AR,71953,-94.219799,34.591449
107974,South Arkansas Community College,300 S West Ave,El Dorado,AR,71731-7010,-92.666087,33.209446
107983,Southern Arkansas University Main Campus,100 E. University,Magnolia,AR,71753,-93.235922,33.291618
107992,Southern Arkansas University Tech,6415 Spellman Road,Camden,AR,71701-1906,-92.721629,33.628367
108092,University of Arkansas-Fort Smith,5210 Grand Ave,Fort Smith,AR,72913-3649,-94.373729,35.384184
108667,College of Alameda,555 Ralph Appezzato Memorial Pky,Alameda,CA,94501,-122.279303,37.781017
108807,Allan Hancock College,800 South College Drive,Santa Maria,CA,93454-6399,-120.421144,34.943716
109208,American River College,4700 College Oak Dr,Sacramento,CA,95841-4286,-121.349672,38.65085
109350,Antelope Valley College,3041 West  Ave K,Lancaster,CA,93536-5426,-118.186166,34.676207
109819,Bakersfield College,1801 Panorama Dr,Bakersfield,CA,93305-1299,-118.973753,35.40911
109907,Barstow Community College,2700 Barstow Road,Barstow,CA,92311,-117.023412,34.870285
110246,Butte College,3536 Butte Campus Drive,Oroville,CA,95965-8399,-121.644831,39.649782
110334,Cabrillo College,6500 Soquel Dr,Aptos,CA,95003,-121.924797,36.989448
110398,University of California-Hastings College of Law,200 McAllister Street,San Francisco,CA,94102-4978,-122.4157,37.781137
110422,California Polytechnic State University-San Luis Obispo,1 Grand Ave.,San Luis Obispo,CA,93407,-120.65731100000001,35.299513
110486,California State University-Bakersfield,9001 Stockdale Hwy,Bakersfield,CA,93311-1099,-119.104711,35.350005
110495,California State University-Stanislaus,One University Circle,Turlock,CA,95382-0299,-120.852511,37.52577
110510,California State University-San Bernardino,5500 University Parkway,San Bernardino,CA,92407-2393,-117.323801,34.182622
110529,California State Polytechnic University-Pomona,3801 West Temple Avenue,Pomona,CA,91768,-117.821476,34.057912
110538,California State University-Chico,First and Normal Sts,Chico,CA,95929-0150,-121.844859,39.729712
110547,California State University-Dominguez Hills,1000 E Victoria St,Carson,CA,90747-0005,-118.255917,33.864766
110556,California State University-Fresno,5241 N Maple Ave,Fresno,CA,93740,-119.744569,36.811154
110565,California State University-Fullerton,800 N State College Blvd,Fullerton,CA,92831-3599,-117.885446,33.881506
110574,California State University-East Bay,25800 Carlos Bee Blvd,Hayward,CA,94542,-122.054135,37.657694
110583,California State University-Long Beach,1250 Bellflower Blvd,Long Beach,CA,90840-0115,-118.11204,33.782818
110592,California State University-Los Angeles,5151 State University Dr,Los Angeles,CA,90032-8506,-118.168965,34.066927
110608,California State University-Northridge,18111 Nordhoff St,Northridge,CA,91330,-118.529319,34.240126
110617,California State University-Sacramento,6000 J St,Sacramento,CA,95819-2694,-121.423549,38.559415
110635,University of California-Berkeley,200 California Hall,Berkeley,CA,94720,-122.260463,37.871918
110644,University of California-Davis,One Shields Avenue,Davis,CA,95616-8678,-121.749567,38.539667
110653,University of California-Irvine,501 Aldrich Hall,Irvine,CA,92697,-117.841248,33.648434
110662,University of California-Los Angeles,405 Hilgard Ave,Los Angeles,CA,90095-1405,-118.443901,34.068892
110671,University of California-Riverside,900 University Ave,Riverside,CA,92521,-117.32741,33.97246
110680,University of California-San Diego,9500 Gilman Dr,La Jolla,CA,92093,-117.235866,32.877749
110699,University of California-San Francisco,500 Parnassus Ave,San Francisco,CA,94143-0244,-122.458489,37.763737
110705,University of California-Santa Barbara,5221 Cheadle Hall,Santa Barbara,CA,93106,-119.846426,34.416297
110714,University of California-Santa Cruz,1156 High St,Santa Cruz,CA,95064-1011,-122.058801,36.995584
111188,California State University Maritime Academy,200 Maritime Academy Dr,Vallejo,CA,94590-8181,-122.231551,38.069061
111434,Canada College,4200 Farm Hill Blvd.,Redwood City,CA,94061-1099,-122.265398,37.44877
111461,College of the Canyons,26455 Rockwell Canyon Rd,Santa Clarita,CA,91355-1899,-118.568698,34.403993
111887,Cerritos College,11110 Alondra Blvd,Norwalk,CA,90650-6298,-118.097337,33.886874
111896,Cerro Coso Community College,3000 College Heights Blvd,Ridgecrest,CA,93555-9571,-117.66767,35.567525
111920,Chabot College,25555 Hesperian Blvd,Hayward,CA,94545,-122.105636,37.642458
111939,Chaffey College,5885 Haven Ave,Rancho Cucamonga,CA,91737-3002,-117.573932,34.147663
112172,Citrus College,1000 W Foothill Blvd,Glendora,CA,91741-1899,-117.885266,34.135487
112190,City College of San Francisco,50 Frida Kahlo Drive,San Francisco,CA,94112-1898,-122.451155,37.725953
112385,Coastline Community College,11460 Warner Ave.,Fountain Valley,CA,92708-2597,-117.929143,33.715634
112561,Columbia College,11600 Columbia College Dr,Sonora,CA,95370,-120.388385,38.030367
112686,Compton College,1111 East Artesia Blvd.,Compton,CA,90221-5393,-118.209463,33.878226
112826,Contra Costa College,2600 Mission Bell Dr,San Pablo,CA,94806-3195,-122.337377,37.969381
113096,Cosumnes River College,8401 Center Parkway,Sacramento,CA,95823-5799,-121.423108,38.45295
113111,Crafton Hills College,11711 Sand Canyon Road,Yucaipa,CA,92339-1799,-117.101173,34.039178
113193,Cuesta College,Highway 1,San Luis Obispo,CA,93403-8106,-120.742235,35.331276
113218,Cuyamaca College,900 Rancho San Diego Pky,El Cajon,CA,92019,-116.943507,32.744954
113236,Cypress College,9200 Valley View,Cypress,CA,90630-5897,-118.025143,33.82833
113333,De Anza College,21250 Stevens Creek Blvd.,Cupertino,CA,95014,-122.045558,37.320788
113573,College of the Desert,43-500 Monterey Ave,Palm Desert,CA,92260,-116.388271,33.732108
113634,Diablo Valley College,321 Golf Club Rd,Pleasant Hill,CA,94523,-122.073142,37.968516
113856,East Los Angeles College,1301 Avenida Cesar Chavez,Monterey Park,CA,91754-6099,-118.148785,34.040531
113980,El Camino Community College District,16007 Crenshaw Blvd,Torrance,CA,90506,-118.329913,33.885229
114266,Evergreen Valley College,3095 Yerba Buena Rd,San Jose,CA,95135-1598,-121.76561,37.30167
114433,Feather River Community College District,570 Golden Eagle Ave,Quincy,CA,95971-9124,-120.973067,39.953101
114716,Foothill College,12345 El Monte Rd,Los Altos Hills,CA,94022,-122.127964,37.361655
114789,Fresno City College,1101 E. University Ave,Fresno,CA,93741,-119.796096,36.768164
114859,Fullerton College,321 E Chapman Avenue,Fullerton,CA,92832-2095,-117.918255,33.875514
114938,Gavilan College,5055 Santa Teresa Blvd,Gilroy,CA,95020,-121.569842,36.972627
115001,Glendale Community College,1500 N Verdugo Rd,Glendale,CA,91208-2894,-118.227666,34.16745
115126,Golden West College,15744 Goldenwest St.,Huntington Beach,CA,92647-2710,-118.002568,33.732531
115296,Grossmont College,8800 Grossmont College Dr,El Cajon,CA,92020-1799,-117.006277,32.815246
115393,Hartnell College,411 Central Avenue,Salinas,CA,93901,-121.666054,36.675091
115755,Humboldt State University,1 Harpst Street,Arcata,CA,95521-8299,-124.078293,40.877481
115861,Imperial Valley College,380 E. Aten Road,Imperial,CA,92251-0158,-115.503563,32.827209
116439,Irvine Valley College,5500 Irvine Center Drive,Irvine,CA,92618-0301,-117.777539,33.675381
117052,Reedley College,995 N Reed Ave,Reedley,CA,93654,-119.458555,36.605428
117195,Lake Tahoe Community College,One College Drive,South Lake Tahoe,CA,96150,-119.972574,38.926797
117247,Laney College,900 Fallon Sreet,Oakland,CA,94607,-122.26283,37.797257
117274,Lassen Community College,478-200 Hwy 139,Susanville,CA,96130,-120.633271,40.432053
117645,Long Beach City College,4901 E. Carson St.,Long Beach,CA,90808-1706,-118.135633,33.833593
117690,Los Angeles Harbor College,1111 Figueroa Place,Wilmington,CA,90744-2397,-118.28186,33.784201
117706,Los Angeles Pierce College,6201 Winnetka Ave,Woodland Hills,CA,91371-0002,-118.575071,34.183949
117715,Los Angeles Southwest College,1600 W. Imperial Hwy.,Los Angeles,CA,90047-4899,-118.304674,33.929586
117724,Los Angeles Trade Technical College,400 W Washington Blvd,Los Angeles,CA,90015-4181,-118.269447,34.031907
117733,Los Angeles Valley College,5800 Fulton Avenue,Valley Glen,CA,91401-4096,-118.421734,34.175165
117788,Los Angeles City College,855 N Vermont Ave,Los Angeles,CA,90029,-118.292169,34.087301
117803,Los Angeles County College of Nursing and Allied Health,1237 N. Mission Rd.,Los Angeles,CA,90033-1084,-118.211852,34.062647
117867,Los Angeles Mission College,13356 Eldridge Avenue,Sylmar,CA,91342-3200,-118.4195,34.314668
117894,Los Medanos College,2700 East Leland Road,Pittsburg,CA,94565,-121.860967,38.006474
118347,College of Marin,835 College Ave,Kentfield,CA,94904-2590,-122.549149,37.954897
118684,Mendocino College,1000 Hensley Creek Road,Ukiah,CA,95482,-123.228809,39.188989
118718,Merced College,3600 M St,Merced,CA,95348-2898,-120.47646399999999,37.3353
118772,Merritt College,12500 Campus Dr,Oakland,CA,94619-3196,-122.167335,37.789088
118912,MiraCosta College,One Barnard Drive,Oceanside,CA,92056-3899,-117.302606,33.190483
118930,Mission College,3000 Mission College Blvd,Santa Clara,CA,95054-1897,-121.980783,37.391935
118976,Modesto Junior College,435 College Ave,Modesto,CA,95350-5800,-121.009792,37.651056
119067,Monterey Peninsula College,980 Fremont St,Monterey,CA,93940-4799,-121.884931,36.590558
119137,Moorpark College,7075 Campus Rd,Moorpark,CA,93021-1695,-118.834528,34.301146
119164,Mt San Antonio College,1100 N Grand Ave,Walnut,CA,91789-1399,-117.846629,34.047764
119216,Mt San Jacinto Community College District,1499 N. State St.,San Jacinto,CA,92583-2399,-116.971169,33.806748
119331,Napa Valley College,2277 Napa-Vallejo Hwy,Napa,CA,94558-6236,-122.274381,38.274081
119678,Naval Postgraduate School,1 University Circle,Monterey,CA,93943,-121.874248,36.597159
120290,Ohlone College,43600 Mission Blvd,Fremont,CA,94539-0390,-121.916339,37.52773
120342,Orange Coast College,2701 Fairview Road,Costa Mesa,CA,92626,-117.909086,33.66927
120421,Oxnard College,4000 S Rose Ave,Oxnard,CA,93033-6699,-119.157604,34.166104
120953,Palo Verde College,One College Drive,Blythe,CA,92225,-114.651698,33.661538
120971,Palomar College,1140 W. Mission,San Marcos,CA,92069-1487,-117.183978,33.149483
121044,Pasadena City College,1570 E Colorado Blvd.,Pasadena,CA,91106-2003,-118.118196,34.144552
121363,Porterville College,100 E College Ave,Porterville,CA,93257,-119.014368,36.049256
121619,Santa Ana College,1530 W. 17th Street,Santa Ana,CA,92706-3398,-117.887558,33.759309
121707,College of the Redwoods,7351 Tompkins Hill Rd,Eureka,CA,95501-9300,-124.195293,40.698427
121886,Rio Hondo College,3600 Workman Mill Rd,Whittier,CA,90601-1616,-118.033506,34.019821
121901,Riverside City College,4800 Magnolia Avenue,Riverside,CA,92506,-117.384323,33.970918
122180,Sacramento City College,3835 Freeport Blvd,Sacramento,CA,95822-1386,-121.491139,38.541096
122205,Saddleback College,28000 Marguerite Pky,Mission Viejo,CA,92692-3635,-117.665584,33.553346
122339,San Diego City College,1313 Park Boulevard,San Diego,CA,92101-4787,-117.152733,32.717403
122375,San Diego Mesa College,7250 Mesa College Dr,San Diego,CA,92111-4998,-117.169165,32.803825
122384,San Diego Miramar College,10440 Black Mountain Rd,San Diego,CA,92126-2999,-117.120261,32.909757
122409,San Diego State University,5500 Campanile Dr,San Diego,CA,92182-0001,-117.071228,32.77525
122597,San Francisco State University,1600 Holloway Ave,San Francisco,CA,94132,-122.476799,37.721224
122658,San Joaquin Delta College,5151 Pacific Ave,Stockton,CA,95207,-121.318266,37.995129
122746,San Jose City College,2100 Moorpark Ave,San Jose,CA,95128-2798,-121.926185,37.315827
122755,San Jose State University,One Washington Square,San Jose,CA,95192-0001,-121.880621,37.336569
122791,College of San Mateo,1700 W Hillsdale Blvd,San Mateo,CA,94402-3784,-122.334801,37.535698
122889,Santa Barbara City College,721 Cliff Drive,Santa Barbara,CA,93109-2394,-119.698045,34.406788
122977,Santa Monica College,1900 Pico Blvd,Santa Monica,CA,90405-1628,-118.469765,34.017022
123013,Santa Rosa Junior College,1501 Mendocino Avenue,Santa Rosa,CA,95401-4395,-122.718974,38.45709
123217,College of the Sequoias,915 S. Mooney Blvd,Visalia,CA,93277-2214,-119.315182,36.323877
123299,Shasta College,11555 Old Oregon Trail,Redding,CA,96003,-122.317982,40.625731
123341,Sierra College,5100 Sierra College Blvd,Rocklin,CA,95677-3397,-121.211688,38.790773
123484,College of the Siskiyous,800 College Ave,Weed,CA,96094-2899,-122.38909,41.413005
123493,Charles A Jones Career and Education Center,5451 Lemon Hill Ave,Sacramento,CA,95824-1529,-121.440796,38.516233
123509,Skyline College,3300 College Dr,San Bruno,CA,94066-1698,-122.467335,37.63042
123527,San Bernardino Valley College,701 South Mount Vernon Avenue,San Bernardino,CA,92410-2798,-117.313248,34.086353
123563,Solano Community College,4000 Suisun Valley Rd,Fairfield,CA,94534-3197,-122.122368,38.235881
123572,Sonoma State University,1801 E Cotati Ave,Rohnert Park,CA,94928-3609,-122.677066,38.340274
123800,Southwestern College,900 Otay Lakes Rd.,Chula Vista,CA,91910-7299,-116.996803,32.640281
124113,Taft College,29 Cougar Court,Taft,CA,93268,-119.459751,35.149343
125028,Ventura College,4667 Telegraph Rd,Ventura,CA,93003-3872,-119.230604,34.277393000000004
125091,Victor Valley College,18422 Bear Valley Rd,Victorville,CA,92395-5850,-117.261456,34.472231
125170,Berkeley City College,2050 Center Sreet,Berkeley,CA,94704,-122.269877,37.869769
125462,West Hills College-Coalinga,300 Cherry Lane,Coalinga,CA,93210,-120.356747,36.147891
125471,West Los Angeles College,9000 Overland Avenue,Culver City,CA,90230-3519,-118.386664,34.004512
125499,West Valley College,14000 Fruitvale Ave,Saratoga,CA,95070-5698,-122.008324,37.26398
126119,Yuba College,2088 N Beale Rd,Marysville,CA,95901,-121.53964,39.126536
126182,Adams State University,208 Edgemont Blvd,Alamosa,CO,81101,-105.879642,37.473636
126207,Aims Community College,5401 W. 20th St.,Greeley,CO,80634,-104.763415,40.409559
126289,Arapahoe Community College,5900 S. Santa Fe Dr.,Littleton,CO,80160-9002,-105.018631,39.607505
126562,University of Colorado Denver/Anschutz Medical Campus,"1380 Lawrence Street, Lawrence Street Center, Suite 1400",Denver,CO,80217-3364,-104.837722,39.745149
126580,University of Colorado Colorado Springs,1420 Austin Bluffs Parkway,Colorado Springs,CO,80918,-104.800296,38.892735
126614,University of Colorado Boulder,Regent Drive at Broadway,Boulder,CO,80309-0017,-105.270823,40.008781
126711,Colorado Mountain College,802 Grand Ave.,Glenwood Springs,CO,81601-0233,-107.324441,39.54636
126748,Colorado Northwestern Community College,500 Kennedy Drive,Rangely,CO,81648-3598,-108.790048,40.081112
126775,Colorado School of Mines,1500 Illinois St,Golden,CO,80401,-105.223364,39.751443
126818,Colorado State University-Fort Collins,102 Administration Building,Fort Collins,CO,80523-0100,-105.080732,40.574805
126863,Community College of Aurora,16000 E CentreTech Pky,Aurora,CO,80011-9036,-104.802673,39.71788
126942,Community College of Denver,1111 W. Colfax Ave.,Denver,CO,80204-2026,-105.001044,39.741413
127185,Fort Lewis College,1000 Rim Drive,Durango,CO,81301-3999,-107.867422,37.275939
127200,Front Range Community College,3645 W 112th Ave,Westminster,CO,80031,-105.038068,39.901452
127389,Lamar Community College,2401 S Main St,Lamar,CO,81052-3999,-102.616144,38.068886
127556,Colorado Mesa University,1100 North Avenue,Grand Junction,CO,81501-3122,-108.553275,39.080643
127565,Metropolitan State University of Denver,Speer Blvd and Colfax Ave,Denver,CO,80217-3362,-105.00504,39.744202
127617,Morgan Community College,920 Barlow Road,Fort  Morgan,CO,80701,-103.771822,40.258792
127732,Northeastern Junior College,100 College Avenue,Sterling,CO,80751-2944,-103.197329,40.637215
127741,University of Northern Colorado,Carter Hall - Rm 4000,Greeley,CO,80639,-104.692777,40.410855
127778,Otero Junior College,1802 Colorado Ave,La Junta,CO,81050,-103.544874,37.969984
127820,Pikes Peak Community College,5675 S Academy Blvd,Colorado Springs,CO,80906-5498,-104.787261,38.764287
127884,Pueblo Community College,900 W Orman Ave,Pueblo,CO,81004-1499,-104.636258,38.262124
127909,Red Rocks Community College,13300 W Sixth Ave,Lakewood,CO,80228-1255,-105.150094,39.720277
128106,Colorado State University-Pueblo,2200 Bonforte Blvd,Pueblo,CO,81001-4901,-104.579033,38.30859
128151,Pickens Technical College,500 Airport Blvd,Aurora,CO,80011-9307,-104.789683,39.723705
128258,Trinidad State Junior College,600 Prospect Street,Trinidad,CO,81082,-104.513451,37.172059
128328,United States Air Force Academy,"2304 Cadet Drive, Suite 3800",USAF Academy,CO,80840-5002,-104.891358,39.010957
128391,Western Colorado University,1 Western Way,Gunnison,CO,81231,-106.919132,38.549936
128577,Asnuntuck Community College,170 Elm St,Enfield,CT,06082,-72.570177,41.998409
128771,Central Connecticut State University,1615 Stanley St,New Britain,CT,06050,-72.765991,41.692502
128780,Charter Oak State College,55 Paul Manafort Drive,New Britain,CT,06053,-72.767972,41.688246
129020,University of Connecticut,352 Mansfield Road,Storrs,CT,06269,-72.249948,41.809098
129215,Eastern Connecticut State University,83 Windham St,Willimantic,CT,06226,-72.218753,41.721673
129367,Capital Community College,950 Main Street,Hartford,CT,06103,-72.672734,41.768397
129543,Housatonic Community College,900 Lafayette Blvd,Bridgeport,CT,06604-4704,-73.191003,41.175228
129695,Manchester Community College,Great Path,Manchester,CT,06040,-72.561939,41.761625
129729,Naugatuck Valley Community College,750 Chase Parkway,Waterbury,CT,06708-3089,-73.072963,41.549749
129756,Middlesex Community College,100 Training Hill Rd,Middletown,CT,06457-4829,-72.611838,41.539516
129808,Three Rivers Community College,574 New London Turnpike,Norwich,CT,06360,-72.103039,41.509945
130004,Norwalk Community College,188 Richards Avenue,Norwalk,CT,06854,-73.450965,41.102574
130040,Northwestern Connecticut Community College,Park Pl E,Winsted,CT,06098,-73.058734,41.920668
130217,Quinebaug Valley Community College,742 Upper Maple St,Danielson,CT,06239-1436,-71.889673,41.82623
130396,Gateway Community College,20 Church Street,New Haven,CT,06510,-72.927682,41.303785
130493,Southern Connecticut State University,501 Crescent Street,New Haven,CT,06515-1355,-72.947897,41.333225
130606,Tunxis Community College,271 Scott Swamp Road,Farmington,CT,06032-3187,-72.87754,41.705498
130624,United States Coast Guard Academy,15 Mohegan Avenue,New London,CT,06320-4195,-72.101583,41.375823
130776,Western Connecticut State University,181 White Street,Danbury,CT,06810-6826,-73.444264,41.400365
130907,Delaware Technical Community College-Terry,100 Campus Drive,Dover,DE,19901,-75.56012,39.198371
130934,Delaware State University,1200 N. Dupont Highway,Dover,DE,19901,-75.54053,39.187173
130943,University of Delaware,104 Hullihen Hall,Newark,DE,19716,-75.752822,39.679577
131399,University of the District of Columbia,4200 Connecticut Ave NW,Washington,DC,20008,-77.066247,38.943819
132374,Atlantic Technical College,4700 Coconut Creek Parkway,Coconut Creek,FL,33063-3902,-80.192271,26.24278
132693,Eastern Florida State College,1519 Clearlake Rd,Cocoa,FL,32922,-80.756474,28.38361
132709,Broward College,111 East Las Olas Blvd,Fort Lauderdale,FL,33301,-80.14183,26.119422
132851,College of Central Florida,3001 SW College Rd,Ocala,FL,34474,-82.175692,29.166079
132903,University of Central Florida,4000 Central Florida Blvd,Orlando,FL,32816,-81.200889,28.602159
132976,Charlotte Technical College,18150 Murdock Circle,Port Charlotte,FL,33948-3399,-82.147238,27.005558
133021,Chipola College,3094 Indian Circle,Marianna,FL,32446-2053,-85.23139,30.789228
133155,Lorenzo Walker Technical College,3702 Estey Avenue,Naples,FL,34104-4405,-81.763568,26.141141
133386,Daytona State College,1200 W. International Speedway Blvd.,Daytona Beach,FL,32114,-81.049685,29.203275
133508,Florida SouthWestern State College,8099 College Parkway,Fort Myers,FL,33919,-81.887102,26.552403
133650,Florida Agricultural and Mechanical University,1500 S Martin Luther King Jr Blvd,Tallahassee,FL,32307,-84.290226,30.428504
133669,Florida Atlantic University,"777 Glades Rd, Administration Bldg., Room 339",Boca Raton,FL,33431-0991,-80.102978,26.372421
133702,Florida State College at Jacksonville,501 W State St,Jacksonville,FL,32202,-81.659901,30.334918
133951,Florida International University,11200 S. W. 8 Street,Miami,FL,33199,-80.373928,25.75732
133960,The College of the Florida Keys,5901 College Rd,Key West,FL,33040,-81.74446,24.582748
134097,Florida State University,222 S. Copeland Street,Tallahassee,FL,32306-1037,-84.291921,30.440756
134130,University of Florida,Tigert Hall,Gainesville,FL,32611,-82.347911,29.64629
134291,George Stone Technical College,2400 Longleaf Dr,Pensacola,FL,32526-8922,-87.290659,30.487547
134307,George T Baker Aviation Technical College,3275 NW 42nd Ave,Miami,FL,33142,-80.263591,25.804092
134343,Gulf Coast State College,5230 West U.S. Highway 98,Panama City,FL,32401,-85.727918,30.185542
134495,Hillsborough Community College,39 Columbia Drive,Tampa,FL,33606-3584,-82.456253,27.934888
134608,Indian River State College,3209 Virginia Ave,Fort Pierce,FL,34981-5596,-80.358682,27.42416
135160,Florida Gateway College,Highway 90 East,Lake City,FL,32025-2007,-82.5679,30.175298
135188,Lake-Sumter State College,9501 US Hwy 441,Leesburg,FL,34788-8751,-81.797193,28.828649
135267,Fort Myers Technical College,3800 Michigan Ave,Fort Myers,FL,33916-2204,-81.836596,26.647517
135294,Lindsey Hopkins Technical College,750 NW 20 Street,Miami,FL,33127,-80.208154,25.794676
135391,State College of Florida-Manatee-Sarasota,5840 26th St W,Bradenton,FL,34207,-82.590887,27.43804
135407,Manatee Technical College,6305 State Rd 70 East,Bradenton,FL,34203,-82.481088,27.447894
135647,Miami Lakes Educational Center and Technical College,5780 NW 158th Street,Miami Lakes,FL,33014,-80.29513,25.916128
135717,Miami Dade College,300 NE 2nd Avenue,Miami,FL,33132-2204,-80.190856,25.777717
135735,Orange Technical College-Mid Florida Campus,2900 West Oak Ridge Road,Orlando,FL,32809,-81.415996,28.471695
136145,North Florida College,325 NW Turner Davis Dr,Madison,FL,32340,-83.420732,30.473841
136172,University of North Florida,1 UNF Drive,Jacksonville,FL,32224-7699,-81.509144,30.27194
136233,Northwest Florida State College,100 College Boulevard,Niceville,FL,32578-1295,-86.47456,30.540017
136303,Orange Technical College-Orlando Campus,301 W Amelia Street,Orlando,FL,32801-1197,-81.383783,28.550422
136358,Palm Beach State College,4200 Congress Ave,Lake Worth,FL,33461-4796,-80.08653,26.61256
136400,Pasco-Hernando State College,10230 Ridge Road,New Port Richey,FL,34654-5199,-82.646727,28.2751
136473,Pensacola State College,1000 College Blvd,Pensacola,FL,32504-8998,-87.200265,30.479267
136491,Pinellas Technical College-Clearwater,6100 154th Avenue North,Clearwater,FL,33760-2140,-82.719064,27.911922
136516,Polk State College,999 Avenue H NE,Winter Haven,FL,33881-4299,-81.711873,28.032411
136659,Radford M Locklin Technical College,5330 Berryhill Rd,Milton,FL,32570-8188,-87.09971,30.648077
136826,Robert Morgan Educational Center and Technical College,18180 SW 122nd Ave,Miami,FL,33177-2407,-80.390054,25.599247
137078,St Petersburg College,6021 142nd  Ave N,Clearwater,FL,33760-2822,-82.717331,27.90242
137087,Pinellas Technical College-St. Petersburg,901 34th St S,Saint Petersburg,FL,33711-2209,-82.681534,27.761183
137096,Santa Fe College,3000 Northwest 83rd Street,Gainesville,FL,32606-6210,-82.433143,29.681037
137120,Suncoast Technical College,4748 Beneva Rd,Sarasota,FL,34233-1798,-82.500827,27.285486
137209,Seminole State College of Florida,100 Weldon Blvd,Sanford,FL,32773-6199,-81.308003,28.745482
137245,Sheridan Technical College,5400 Sheridan St,Hollywood,FL,33021,-80.198024,26.031736
137281,Saint Johns River State College,5001 Saint Johns Ave,Palatka,FL,32177,-81.681387,29.647516
137315,South Florida State College,600 W College Dr,Avon Park,FL,33825-9356,-81.508667,27.56974
137351,University of South Florida-Main Campus,4202 East Fowler Ave,Tampa,FL,33620-9951,-82.413232,28.061458
137713,Riveroak Technical College,415 SW Pinewood Dr,Live Oak,FL,32064,-82.992512,30.281999
137759,Tallahassee Community College,444 Appleyard Dr,Tallahassee,FL,32304-2895,-84.339,30.443866
138187,Valencia College,1768 Park Center Drive,Orlando,FL,32835,-81.471466,28.520898
138284,Florida Panhandle Technical College,757 Hoyt Street,Chipley,FL,32428-1618,-85.553345,30.77449
138354,The University of West Florida,11000 University Parkway,Pensacola,FL,32514-5750,-87.218511,30.549076
138372,Orange Technical College-Westside Campus,955 E Story Rd,Winter Garden,FL,34787-3733,-81.571532,28.559574
138479,William T McFatter Technical College,6500 Nova Drive,Davie,FL,33317,-80.232201,26.085022
138497,Withlacoochee Technical College,1201 W Main St,Inverness,FL,34450-4696,-82.345563,28.834861
138558,Abraham Baldwin Agricultural College,2802 Moore Hwy,Tifton,GA,31793-2601,-83.528281,31.481889
138682,Albany Technical College,1704 South Slappey Boulevard,Albany,GA,31701,-84.174284,31.55434
138716,Albany State University,504 College Drive,Albany,GA,31705,-84.141825,31.56928
138840,Atlanta Technical College,1560 Metropolitan Pkwy SW,Atlanta,GA,30310-4446,-84.404995,33.712009
138901,Atlanta Metropolitan State College,"1630 Metropolitan Parkway, SW",Atlanta,GA,30310-4448,-84.404659,33.70893
138956,Augusta Technical College,3200 Augusta Tech Drive,Augusta,GA,30906,-82.048439,33.418992
139250,College of Coastal Georgia,One College Drive,Brunswick,GA,31520-3644,-81.485973,31.182745
139278,West Georgia Technical College,176 Murphy Campus Blvd.,Waco,GA,30182,-85.183666,33.691657
139311,Clayton  State University,2000 Clayton State Boulevard,Morrow,GA,30260-0285,-84.328174,33.594079
139357,Columbus Technical College,928 Manchester Expy,Columbus,GA,31904-6572,-84.978551,32.508076
139366,Columbus State University,4225 University Ave,Columbus,GA,31907-5645,-84.94106,32.50096
139384,Georgia Northwestern Technical College,One Maurice Culberson Drive,Rome,GA,30161,-85.171361,34.224673
139463,Dalton State College,650 College Drive,Dalton,GA,30720-3797,-85.002775,34.774221
139621,East Georgia State College,131 College Cir,Swainsboro,GA,30401,-82.309021,32.594944
139700,Georgia Highlands College,"3175 Cedartown Highway, S.E.",Rome,GA,30161-3897,-85.207356,34.169791
139719,Fort Valley State University,1005 State University Dr,Fort Valley,GA,31030-4313,-83.89537,32.537595
139746,Grady Health System Professional Schools,"80 Jesse Hill Jr Drive, SE",Atlanta,GA,30303-3050,-84.381561,33.751852
139755,Georgia Institute of Technology-Main Campus,225 North Ave,Atlanta,GA,30332-0530,-84.394832,33.77242
139764,Georgia Southwestern State University,800 Georgia Southwestern State University Dr.,Americus,GA,31709-4693,-84.217738,32.054662
139861,Georgia College & State University,231 W Hancock Street,Milledgeville,GA,31061,-83.231962,33.082787
139931,Georgia Southern University,1332 Southern Drive,Statesboro,GA,30460-8126,-81.784045,32.426153
139940,Georgia State University,33 gilmer st,Atlanta,GA,30303-3083,-84.38667,33.7527
139959,University of Georgia,Administration Building,Athens,GA,30602,-83.374039,33.956262
139968,Gordon State College,419 College Dr,Barnesville,GA,30204,-84.154508,33.04571
139986,Southern Crescent Technical College,501 Varsity Rd,Griffin,GA,30223-2042,-84.291662,33.255438
140012,Gwinnett Technical College,5150 Sugarloaf Parkway,Lawrenceville,GA,30043-5702,-84.066224,33.962763
140243,Lanier Technical College,2535 Lanier Tech Drive,Gainesville,GA,30507,-83.778107,34.330323
140331,Chattahoochee Technical College,980 S Cobb Drive Dr SE,Marietta,GA,30060,-84.553722,33.929092
140678,North Georgia Technical College,1500 Georgia Hwy 197 N,Clarkesville,GA,30523,-83.530118,34.639721
140942,Savannah Technical College,5717 White Bluff Rd,Savannah,GA,31405-5594,-81.114753,32.023211
140960,Savannah State University,3219 College Street,Savannah,GA,31404-5310,-81.063377,32.024781
141006,South Georgia Technical College,900 South GA Tech Parkway,Americus,GA,31709,-84.188321,32.116663
141255,Wiregrass Georgia Technical College,4089 Val Tech Rd,Valdosta,GA,31602-0929,-83.35381,30.889221
141264,Valdosta State University,1500 N Patterson St,Valdosta,GA,31698,-83.289282,30.847402
141334,University of West Georgia,1601 Maple St,Carrollton,GA,30118-0001,-85.097762,33.573621
141565,University of Hawaii at Hilo,200 W Kawili St,Hilo,HI,96720-4091,-155.080847,19.701189
141574,University of Hawaii at Manoa,2500 Campus Road,Honolulu,HI,96822-2217,-157.818979,21.298598
141680,Honolulu Community College,874 Dillingham Blvd,Honolulu,HI,96817-4505,-157.87,21.321785
141796,Kapiolani Community College,4303 Diamond Head Road,Honolulu,HI,96816-4421,-157.800213,21.27148
141802,Kauai Community College,3-1901 Kaumualii Highway,Lihue,HI,96766-9500,-159.395883,21.968887
141811,Leeward Community College,96-045 Ala Ike,Pearl City,HI,96782-3366,-157.983771,21.39267
141839,University of Hawaii Maui College,310 W Kaahumanu Ave,Kahului,HI,96732-1617,-156.477252,20.88956
141981,University of Hawaii-West Oahu,91-1001 Farrington Highway,Kapolei,HI,96707-4507,-158.056403,21.35531
141990,Windward Community College,45-720 Keaahala Rd,Kaneohe,HI,96744-3528,-157.813307,21.407051
142115,Boise State University,1910 University Dr,Boise,ID,83725,-116.203301,43.604284
142179,College of Eastern Idaho,1600 S 25th E,Idaho Falls,ID,83404-5788,-111.985519,43.486041
142276,Idaho State University,921 S 8th Ave,Pocatello,ID,83209,-112.432312,42.863832
142285,University of Idaho,875 Perimeter Drive MS 2282,Moscow,ID,83844-2282,-117.014167,46.727406
142328,Lewis-Clark State College,500 8th Ave,Lewiston,ID,83501-2698,-117.024875,46.412199
142443,North Idaho College,1000 West Garden Avenue,Coeur d'Alene,ID,83814-2199,-116.798905,47.67569
142559,College of Southern Idaho,315 Falls Ave.,Twin Falls,ID,83301,-114.473901,42.579837
143215,Southwestern Illinois College,2500 Carlyle Ave,Belleville,IL,62221-5899,-89.924466,38.516406
143279,Black Hawk College,6600-34th Avenue,Moline,IL,61265-5899,-90.447799,41.477283
143613,Carl Sandburg College,2400 Tom L. Wilson Boulevard,Galesburg,IL,61401,-90.408203,40.98128
144005,Chicago State University,9501 S. King Drive,Chicago,IL,60628-1598,-87.609384,41.718446
144157,City Colleges of Chicago-Kennedy-King College,6301 S Halsted St,Chicago,IL,60621-2709,-87.643425,41.780253
144166,City Colleges of Chicago-Malcolm X College,1900 W Jackson Blvd,Chicago,IL,60612-3197,-87.675321,41.878092
144175,City Colleges of Chicago-Olive-Harvey College,10001 S Woodlawn Ave,Chicago,IL,60628-1696,-87.589249,41.709997
144184,City Colleges of Chicago-Harry S Truman College,1145 W Wilson Ave.,Chicago,IL,60640-6063,-87.659107,41.964502
144193,City Colleges of Chicago-Richard J Daley College,7500 S Pulaski Rd,Chicago,IL,60652-1299,-87.723981,41.755955
144209,City Colleges of Chicago-Harold Washington College,30 E Lake St,Chicago,IL,60601-2449,-87.626596,41.886067
144218,City Colleges of Chicago-Wilbur Wright College,4300 N Narragansett,Chicago,IL,60634-1500,-87.787868,41.958774
144564,Danville Area Community College,2000 E Main St,Danville,IL,61832-5118,-87.587884,40.127539
144865,College of DuPage,425 Fawell Blvd.,Glen Ellyn,IL,60137-6599,-88.071635,41.841577
144892,Eastern Illinois University,600 Lincoln Avenue,Charleston,IL,61920,-88.175658,39.479843
144944,Elgin Community College,1700 Spartan Drive,Elgin,IL,60123-7193,-88.32194,42.018066
145336,Governors State University,1 University Pky,University Park,IL,60484,-87.716441,41.449103
145521,Highland Community College,2998 W Pearl City Rd,Freeport,IL,61032-9341,-89.67342,42.283344
145600,University of Illinois at Chicago,601 S Morgan,Chicago,IL,60607,-87.650503,41.871837
145637,University of Illinois at Urbana-Champaign,601 E John Street,Champaign,IL,61820-5711,-88.229114,40.104718
145682,Illinois Central College,1 College Drive,East Peoria,IL,61635-0001,-89.52485,40.707235
145707,Olney Central College,305 N West Street,Olney,IL,62450,-88.099589,38.735913
145813,Illinois State University,North and School Streets,Normal,IL,61790-1000,-88.990058,40.509403
145831,Illinois Valley Community College,815 N Orlando Smith Road,Oglesby,IL,61348-9692,-89.100887,41.30744
146205,John A Logan College,700 Logan College Drive,Carterville,IL,62918-2500,-89.09021,37.747453
146278,John Wood Community College,1301 S 48th Street,Quincy,IL,62305-8736,-91.335828,39.913741
146296,Joliet Junior College,1215 Houbolt Rd,Joliet,IL,60431-8938,-88.180985,41.500535
146348,Kankakee Community College,100 College Drive,Kankakee,IL,60901,-87.851047,41.098178
146366,Kaskaskia College,27210 College Rd,Centralia,IL,62801,-89.191974,38.562112
146418,Kishwaukee College,21193 Malta Rd,Malta,IL,60150-9699,-88.880524,41.938234
146472,College of Lake County,19351 W Washington St.,Grayslake,IL,60030-1198,-88.012291,42.354164
146506,Lake Land College,5001 Lake Land Blvd,Mattoon,IL,61938,-88.380835,39.416969
146603,Lewis and Clark Community College,5800 Godfrey Rd,Godfrey,IL,62035,-90.194405,38.951624
146685,Lincoln Land Community College,5250 Shepherd Rd,Springfield,IL,62794-9256,-89.611249,39.721211
147004,McHenry County College,8900 US Hwy 14,Crystal Lake,IL,60012-2761,-88.368956,42.259111
147378,Moraine Valley Community College,9000 W. College Parkway,Palos Hills,IL,60465-0937,-87.836915,41.694613
147411,Morton College,3801 S Central Ave,Cicero,IL,60804-4398,-87.762306,41.824303
147703,Northern Illinois University,1425 W. Lincoln Hwy.,Dekalb,IL,60115-2828,-88.766428,41.933869
147776,Northeastern Illinois University,5500 N Saint Louis Ave,Chicago,IL,60625-4699,-87.718983,41.980399
147800,Oakton Community College,1600 E Golf Rd.,Des Plaines,IL,60016-1268,-87.880644,42.061893
147916,Parkland College,2400 W Bradley Ave,Champaign,IL,61821-1899,-88.290359,40.131963
148007,Prairie State College,202 South Halsted Street,Chicago Heights,IL,60411-8226,-87.638943,41.525316
148256,Rend Lake College,468 N Ken Gray Pkwy,Ina,IL,62846,-88.918283,38.131481
148292,Richland Community College,One College Park,Decatur,IL,62521-8512,-88.894125,39.883887
148380,Rock Valley College,3301 N Mulford Rd,Rockford,IL,61114-5699,-88.993544,42.306174
148654,University of Illinois at Springfield,One University Plaza,Springfield,IL,62703-5407,-89.616796,39.729524
148672,Sauk Valley Community College,173 Illinois Rt 2,Dixon,IL,61021-9112,-89.596483,41.817659
148821,Shawnee Community College,8364 Shawnee College Rd,Ullin,IL,62992,-89.03352,37.270198
148937,Southeastern Illinois College,3575 College Road,Harrisburg,IL,62946,-88.436631,37.75174
148991,Spoon River College,23235 North County 22,Canton,IL,61520-8622,-90.07233,40.527991
149222,Southern Illinois University-Carbondale,Lincoln Drive,Carbondale,IL,62901-4512,-89.217273,37.714193
149231,Southern Illinois University-Edwardsville,Il State Rte 157,Edwardsville,IL,62026-1259,-89.997779,38.793949
149365,South Suburban College,15800 South State Street,South Holland,IL,60473-1200,-87.619123,41.606427
149532,Triton College,2000 5th Ave,River Grove,IL,60171-1995,-87.841056,41.916082
149727,Waubonsee Community College,Rte 47 at Waubonsee Drive,Sugar Grove,IL,60554-9454,-88.459925,41.795955
149772,Western Illinois University,1 University Circle,Macomb,IL,61455,-90.686899,40.468086
149842,William Rainey Harper College,1200 W Algonquin Rd,Palatine,IL,60067-7398,-88.072811,42.081829
150136,Ball State University,2000 University Ave,Muncie,IN,47306,-85.409043,40.203431
150987,Ivy Tech Community College,50 W. Fall Creek Parkway N. Drive,Indianapolis,IN,46208-5752,-86.158213,39.803753
151102,Purdue University Fort Wayne,2101 E Coliseum Blvd,Fort Wayne,IN,46805-1499,-85.108962,41.117278
151111,Indiana University-Purdue University-Indianapolis,420 University Blvd,Indianapolis,IN,46202-5143,-86.172217,39.772948
151306,University of Southern Indiana,8600 University Blvd,Evansville,IN,47712,-87.677214,37.962374
151324,Indiana State University,210 N 7th St,Terre Haute,IN,47809,-87.407846,39.469073
151333,Indiana University-Kokomo,2300 S Washington St,Kokomo,IN,46902-9003,-86.132048,40.460062
151342,Indiana University-South Bend,1700 Mishawaka Ave,South Bend,IN,46615-7111,-86.221991,41.665324
151351,Indiana University-Bloomington,107 South Indiana Ave.,Bloomington,IN,47405-7000,-86.526559,39.16609
151360,Indiana University-Northwest,3400 Broadway,Gary,IN,46408-1197,-87.337249,41.557324
151379,Indiana University-Southeast,4201 Grant Line Rd,New Albany,IN,47150,-85.819985,38.345191
151388,Indiana University-East,2325 Chester Blvd,Richmond,IN,47374-1289,-84.881923,39.868707
152637,Vincennes University,1002 N First St,Vincennes,IN,47591,-87.519939,38.687766
153214,Des Moines Area Community College,2006 Ankeny Blvd,Ankeny,IA,50023-3993,-93.611597,41.707348
153296,Ellsworth Community College,1100 College Ave,Iowa Falls,IA,50126,-93.265853,42.527524
153311,Eastern Iowa Community College District,101 W Third Street,Davenport,IA,52801-1221,-90.574459,41.522179
153409,Purdue University Global-Mason City,2570 4th Street SW,Mason City,IA,50401,-93.238946,43.149615
153418,Purdue University Global-Cedar Rapids,3165 Edgewood Parkway SW,Cedar Rapids,IA,52404,-91.713507,41.949597
153445,Hawkeye Community College,1501 E Orange Rd,Waterloo,IA,50701,-92.330633,42.430003
153472,Indian Hills Community College,525 Grandview Ave,Ottumwa,IA,52501,-92.394736,41.045105
153524,Iowa Central Community College,One Triton Circle,Fort Dodge,IA,50501,-94.20299,42.490067
153533,Iowa Lakes Community College,19 S 7th St,Estherville,IA,51334-2295,-94.835661,43.401376
153603,Iowa State University,1750 Beardshear Hall,Ames,IA,50011-2103,-93.648504,42.026212
153630,Iowa Western Community College,2700 College Rd,Council Bluffs,IA,51503-1057,-95.797975,41.272168
153658,University of Iowa,101 Jessup Hall,Iowa City,IA,52242-1316,-91.536425,41.661935
153737,Kirkwood Community College,6301 Kirkwood Blvd SW,Cedar Rapids,IA,52406-2068,-91.651172,41.911268
153922,Marshalltown Community College,3700 S Center St,Marshalltown,IA,50158,-92.909411,42.00065
154059,North Iowa Area Community College,500 College Dr,Mason City,IA,50401,-93.13126,43.157169
154095,University of Northern Iowa,1227 W 27th St,Cedar Falls,IA,50614-0005,-92.459703,42.514923
154110,Northeast Iowa Community College,1625 Hwy 150,Calmar,IA,52132-0400,-91.867105,43.17523
154129,Northwest Iowa Community College,603 W Park St,Sheldon,IA,51201,-95.880639,43.184701
154378,Southeastern Community College,1500 West Agency Road,West Burlington,IA,52655-0180,-91.171881,40.814496
154396,Southwestern Community College,1501 West Townline Street,Creston,IA,50801,-94.380906,41.073437
154572,Western Iowa Tech Community College,4647 Stone Ave,Sioux City,IA,51102-5199,-96.348874,42.482953
154642,Allen County Community College,1801 N Cottonwood,Iola,KS,66749,-95.396377,37.938038
154697,Barton County Community College,245 NE 30th Road,Great Bend,KS,67530,-98.731648,38.403529
154800,Butler Community College,901 S Haverhill Rd,El Dorado,KS,67042-3280,-96.882987,37.806699
154907,Cloud County Community College,2221 Campus Dr,Concordia,KS,66901-1002,-97.664147,39.554199
154925,Coffeyville Community College,400 W 11th St,Coffeyville,KS,67337-5064,-95.621374,37.033814
154934,Colby Community College,1255 S Range,Colby,KS,67701,-101.052744,39.377601
154952,Cowley County Community College,125 S 2nd St,Arkansas City,KS,67005,-97.043075,37.061668
154998,Dodge City Community College,2501 N 14th Ave,Dodge City,KS,67801-2399,-100.037481,37.776891
155025,Emporia State University,1 Kellogg Circle,Emporia,KS,66801-5415,-96.179021,38.414784
155052,Flint Hills Technical College,3301 W 18th St,Emporia,KS,66801-5957,-96.224141,38.41888
155061,Fort Hays State University,600 Park St,Hays,KS,67601-4099,-99.342503,38.872156
155098,Fort Scott Community College,2108 S Horton,Fort Scott,KS,66701,-94.715334,37.816206
155104,Garden City Community College,801 Campus Dr,Garden City,KS,67846-6333,-100.848082,37.970151
155140,Haskell Indian Nations University,155 Indian Ave,Lawrence,KS,66046-4800,-95.232879,38.938834
155186,Highland Community College,606 W Main,Highland,KS,66035-4165,-95.271539,39.859987
155195,Hutchinson Community College,1300 N Plum St,Hutchinson,KS,67501,-97.92135,38.068035
155201,Independence Community College,1057 West College Avenue,Independence,KS,67301-0708,-95.720518,37.195614
155210,Johnson County Community College,12345 College Blvd,Overland Park,KS,66210-1299,-94.727798,38.924125
155292,Kansas City Kansas Community College,7250 State Ave,Kansas City,KS,66112,-94.748061,39.121911
155317,University of Kansas,"Strong Hall, 1450 Jayhawk Blvd, Room 230",Lawrence,KS,66045,-95.247567,38.958549
155399,Kansas State University,"919 Mid-Campus Drive, Anderson Hall",Manhattan,KS,66506,-96.581077,39.188648
155450,Labette Community College,200 S 14th,Parsons,KS,67357-4201,-95.255368,37.339062
155487,Manhattan Area Technical College,3136 Dickens Ave,Manhattan,KS,66503-2499,-96.615672,39.197774
155566,Neosho County Community College,800 W 14th St,Chanute,KS,66720,-95.464976,37.670672
155593,North Central Kansas Technical College,3033 US Highway 24,Beloit,KS,67420,-98.110826,39.482419
155618,Northwest Kansas Technical College,1209 Harrison St,Goodland,KS,67735,-101.70022,39.346424
155681,Pittsburg State University,1701 S Broadway,Pittsburg,KS,66762,-94.702473,37.392071
155715,Pratt Community College,348 NE SR 61,Pratt,KS,67124,-98.714538,37.654451
155830,Salina Area Technical College,2562 Centennial Road,Salina,KS,67401,-97.636892,38.793582
155858,Seward County Community College,1801 N. Kansas Ave.,Liberal,KS,67901,-100.917695,37.059807
156082,Washburn University,1700 SW College Avenue,Topeka,KS,66621-0001,-95.702222,39.033778
156107,Wichita State University-Campus of Applied Sciences and Technology,4004 N Webb Rd. Bldg 100,Wichita,KS,67226,-97.224151,37.75764
156125,Wichita State University,1845 N. Fairmount,Wichita,KS,67260-0124,-97.292361,37.718882
156231,Ashland Community and Technical College,1400 College Drive,Ashland,KY,41101-3683,-82.650664,38.469201
156338,Southcentral Kentucky Community and Technical College,1845 Loop Dr,Bowling Green,KY,42101-3601,-86.476717,36.984827
156392,Bluegrass Community and Technical College,470 Cooper Drive,Lexington,KY,40506,-84.503665,38.024808
156620,Eastern Kentucky University,521 Lancaster Ave,Richmond,KY,40475-3102,-84.300796,37.740845
156648,Elizabethtown Community and Technical College,600 College Street Rd,Elizabethtown,KY,42701-3081,-85.879927,37.692858
156790,Hazard Community and Technical College,One Community College Drive,Hazard,KY,41701-2402,-83.175644,37.234897
156851,Henderson Community College,2660 S Green St,Henderson,KY,42420-4699,-87.650091,37.797687
156860,Hopkinsville Community College,720 North Dr.,Hopkinsville,KY,42240,-87.488297,36.882654
156921,Jefferson Community and Technical College,101 W Broadway,Louisville,KY,40202-2005,-85.753615,38.246027
157058,Kentucky State University,400 East Main Street,Frankfort,KY,40601-2355,-84.855402,38.201427
157085,University of Kentucky,South Limestone,Lexington,KY,40506-0032,-84.504747,38.038911
157289,University of Louisville,2301 S 3rd St,Louisville,KY,40292-0001,-85.760412,38.216862
157304,Madisonville Community College,2000 College Drive,Madisonville,KY,42431,-87.512137,37.362661
157331,Maysville Community and Technical College,1755 U.S. Hwy 68,Maysville,KY,41056,-83.806786,38.626607
157386,Morehead State University,University Blvd,Morehead,KY,40351,-83.434021,38.186768
157401,Murray State University,218 Wells Hall,Murray,KY,42071-3318,-88.323629,36.612419
157438,Gateway Community and Technical College,500 Technology Way,Florence,KY,41042,-84.633478,38.960638
157447,Northern Kentucky University,Nunn Drive,Highland Heights,KY,41099,-84.463483,39.029714
157483,West Kentucky Community and Technical College,4810 Alben Barkley Drive,Paducah,KY,42002-7380,-88.658762,37.054081
157553,Big Sandy Community and Technical College,1 Bert Combs Dr,Prestonsburg,KY,41653,-82.778847,37.688248
157711,Somerset Community College,808 Monticello Street,Somerset,KY,42501-2973,-84.617546,37.059599
157739,Southeast Kentucky Community and Technical College,700 College Rd,Cumberland,KY,40823,-82.997661,36.966051
157951,Western Kentucky University,1906 College Heights Blvd,Bowling Green,KY,42101-1000,-86.456828,36.985035
158088,Central Louisiana Technical Community College,516 Murray Street,Alexandria,LA,71301,-92.446384,31.310253
158431,Bossier Parish Community College,6220 East Texas,Bossier City,LA,71111-6922,-93.646881,32.539551
158662,Delgado Community College,615 City Park Avenue,New Orleans,LA,70119,-90.103962,29.985149
158884,Nunez Community College,3710 Paris Rd,Chalmette,LA,70043,-89.95888,29.95419
159009,Grambling State University,403 Main Street,Grambling,LA,71245,-92.713245,32.523797
159373,Louisiana State University Health Sciences Center-New Orleans,433 Bolivar St,New Orleans,LA,70112-2223,-90.083145,29.957272
159382,Louisiana State University-Alexandria,8100 Hwy 71 South,Alexandria,LA,71302-9121,-92.414409,31.178616
159391,Louisiana State University and Agricultural & Mechanical College,156 Thomas Boyd Hall,Baton Rouge,LA,70803-2750,-91.178921,30.414986
159407,Louisiana State University-Eunice,2048 Johnson Hwy,Eunice,LA,70535,-92.434523,30.473292
159416,Louisiana State University-Shreveport,One University Place,Shreveport,LA,71115-2399,-93.70561,32.428465
159647,Louisiana Tech University,1310 West Railroad Avenue,Ruston,LA,71272,-92.649963,32.528297
159717,McNeese State University,4205 Ryan St,Lake Charles,LA,70605,-93.217222,30.178187
159939,University of New Orleans,2000 Lakeshore Drive,New Orleans,LA,70148,-90.067142,30.027704
159966,Nicholls State University,University Station  La Hwy 1,Thibodaux,LA,70310,-90.801571,29.794486
159993,University of Louisiana at Monroe,700 University Avenue,Monroe,LA,71209-0000,-92.07374,32.527748
160010,Northwest Louisiana Technical College,9500 Industrial Drive,Minden,LA,71055-0000,-93.26302,32.586037
160038,Northwestern State University of Louisiana,175 Sam Sibley Drive,Natchitoches,LA,71497-0002,-93.097797,31.750666
160481,Fletcher Technical Community College,1407 Highway 311,Schriever,LA,70395,-90.811707,29.690884
160579,SOWELA Technical Community College,3820 Senator J. Bennett Johnston Ave,Lake Charles,LA,70615,-93.16252,30.217331
160612,Southeastern Louisiana University,548 Ned McGehee Ave.,Hammond,LA,70402,-90.468676,30.514652
160621,Southern University and A & M College,"3rd Floor, J.S. Clark Adm. Building, P.O. Box 9374",Baton Rouge,LA,70813,-91.190105,30.524558
160630,Southern University at New Orleans,6400 Press Drive,New Orleans,LA,70126,-90.044912,30.026162
160649,Southern University at Shreveport,3050 Martin Luther King Dr,Shreveport,LA,71107,-93.834559,32.545632
160658,University of Louisiana at Lafayette,104 University Circle,Lafayette,LA,70503,-92.020165,30.212191
160667,Northshore Technical Community College,65556 Centerpoint Blvd.,Lacombe,LA,70445,-89.899196,30.379147
160913,South Central Louisiana Technical College,900 Youngs Road,Morgan City,LA,70380,-91.197848,29.690728
160940,Purdue University Global-Lewiston,475 Lisbon Street,Lewiston,ME,04240-0000,-70.214094,44.09104
161077,Central Maine Community College,1250 Turner Street,Auburn,ME,04210-6498,-70.235498,44.134346
161138,Eastern Maine Community College,354 Hogan Rd,Bangor,ME,04401,-68.74445,44.826048
161192,Kennebec Valley Community College,92 Western Ave,Fairfield,ME,04937-1367,-69.61157,44.594149
161217,University of Maine at Augusta,46 University Dr,Augusta,ME,04330-9410,-69.796396,44.337746
161226,University of Maine at Farmington,224 Main St.,Farmington,ME,04938-9978,-70.147121,44.666911
161235,University of Maine at Fort Kent,23 University Drive,Fort Kent,ME,04743-1292,-68.589319,47.250389
161244,University of Maine at Machias,116 O'Brien Ave,Machias,ME,04654-1397,-67.458025,44.708803
161253,University of Maine,168 College Avenue,Orono,ME,04469,-68.669332,44.899257
161299,Maine Maritime Academy,1 Pleasant Street,Castine,ME,04420-0001,-68.804347,44.389654
161341,University of Maine at Presque Isle,181 Main St,Presque Isle,ME,04769-2888,-68.016343,46.672285
161484,Northern Maine Community College,33 Edgemont Dr,Presque Isle,ME,04769-2016,-68.034796,46.694668
161545,Southern Maine Community College,2 Fort Road,South Portland,ME,04106-1698,-70.229182,43.646649
161554,University of Southern Maine,96 Falmouth St,Portland,ME,04103,-70.274247,43.662863
161581,Washington County Community College,One College Drive,Calais,ME,04619,-67.243306,45.165537
161688,Allegany College of Maryland,12401 Willowbrook Rd SE,Cumberland,MD,21502-2596,-78.730398,39.652152
161767,Anne Arundel Community College,101 College Pky,Arnold,MD,21012-1895,-76.512223,39.049813
161864,Baltimore City Community College,2901 Liberty Heights Avenue,Baltimore,MD,21215-7893,-76.662878,39.319978
161873,University of Baltimore,Charles at Mount Royal,Baltimore,MD,21201-5720,-76.616591,39.305834
162007,Bowie State University,14000 Jericho Park Rd,Bowie,MD,20715-9465,-76.759721,39.018185
162104,Cecil College,One Seahawk Drive,North East,MD,21901-1900,-75.955949,39.642225
162122,College of Southern Maryland,8730 Mitchell Rd,La Plata,MD,20646-0910,-77.009245,38.55895
162168,Chesapeake College,1000 College Circle,Wye Mills,MD,21679-0008,-76.083668,38.952193
162283,Coppin State University,2500 West North Avenue,Baltimore,MD,21216-3698,-76.658687,39.311258
162557,Frederick Community College,7932 Opossumtown Pike,Frederick,MD,21702-2964,-77.417849,39.452241
162584,Frostburg State University,101 Braddock Road,Frostburg,MD,21532-1099,-78.934293,39.650918
162609,Garrett College,687 Mosser Road,McHenry,MD,21541,-79.342923,39.560493
162681,Purdue University Global-Hagerstown,18618 Crestwood Drive,Hagerstown,MD,21742,-77.722799,39.6729
162690,Hagerstown Community College,11400 Robinwood Dr,Hagerstown,MD,21742-6514,-77.667379,39.631009
162706,Harford Community College,401 Thomas Run Rd,Bel Air,MD,21015-1698,-76.282845,39.56131
162779,Howard Community College,10901 Little Patuxent Pkwy,Columbia,MD,21044-3197,-76.877964,39.213636
163204,University of Maryland Global Campus,3501 University Blvd East,Adelphi,MD,20783-8010,-76.847584,38.912706
163259,"University of Maryland, Baltimore",620 West Lexington St,Baltimore,MD,21201-1627,-76.623983,39.286864
163268,University of Maryland-Baltimore County,1000 Hilltop Circle,Baltimore,MD,21250,-76.711607,39.256686
163286,University of Maryland-College Park, ,College Park,MD,20742,-76.944721,38.988178
163338,University of Maryland Eastern Shore,J.T. Williams Hall,Princess Anne,MD,21853-1299,-75.686852,38.207386
163426,Montgomery College,51 Mannakee Street,Rockville,MD,20850,-77.15929,39.098656
163453,Morgan State University,1700 East Cold Spring Lane,Baltimore,MD,21251-0001,-76.585565,39.344161
163657,Prince George's Community College,301 Largo Rd,Largo,MD,20774-2199,-76.824623,38.888689
163851,Salisbury University,1101 Camden Ave,Salisbury,MD,21801-6862,-75.604815,38.34648
163912,St. Mary's College of Maryland,47645 College Drive,St. Mary's City,MD,20686,-76.429097,38.190904
164076,Towson University,8000 York Rd,Towson,MD,21252-0001,-76.611164,39.393622
164155,United States Naval Academy,121 Blake Road,Annapolis,MD,21402-5000,-76.481692,38.980507
164313,Wor-Wic Community College,32000 Campus Drive,Salisbury,MD,21804-7131,-75.499659,38.373723
164775,Berkshire Community College,1350 West Street,Pittsfield,MA,01201-5786,-73.314704,42.45975
165024,Bridgewater State University,131 Summer Street,Bridgewater,MA,02325,-70.974553,41.98749
165033,Bristol Community College,777 Elsbree St,Fall River,MA,02720-7395,-71.119133,41.721994
165112,Bunker Hill Community College,250 New Rutherford Ave,Boston,MA,02129-2925,-71.069263,42.374806
165194,Cape Cod Community College,2240 Iyannough Rd,West Barnstable,MA,02668-1599,-70.337334,41.691911
165820,Fitchburg State University,160 Pearl St,Fitchburg,MA,01420-2697,-71.789666,42.588298
165866,Framingham State University,100 State Street,Framingham,MA,01701-9101,-71.437565,42.297116
165981,Greenfield Community College,One College Dr,Greenfield,MA,01301-9739,-72.630977,42.599512
166133,Holyoke Community College,303 Homestead Ave,Holyoke,MA,01040,-72.651252,42.194781
166513,University of Massachusetts-Lowell,1 University Ave,Lowell,MA,01854-5104,-71.326809,42.652864
166629,University of Massachusetts-Amherst,374 Whitmore Building 181 Presidents Drive,Amherst,MA,01003,-72.526728,42.385999
166638,University of Massachusetts-Boston,100 Morrissey Boulevard,Boston,MA,02125-3393,-71.036865,42.312881
166647,Massachusetts Bay Community College,50 Oakland St,Wellesley Hills,MA,02481-5399,-71.263821,42.312292
166674,Massachusetts College of Art and Design,621 Huntington Ave,Boston,MA,02115-5882,-71.099275,42.336862000000004
166692,Massachusetts Maritime Academy,101 Academy Dr,Buzzards Bay,MA,02532-1803,-70.624084,41.739072
166708,University of Massachusetts Medical School Worcester,55 Lake Ave North,Worcester,MA,01655,-71.762144,42.278002
166823,Massasoit Community College,One Massasoit Boulevard,Brockton,MA,02302-3996,-70.989799,42.07507
166887,Middlesex Community College,591 Springs Rd,Bedford,MA,01730-9124,-71.274931,42.524328
166957,Mount Wachusett Community College,444 Green St,Gardner,MA,01440-1000,-71.984148,42.593142
167288,Massachusetts College of Liberal Arts,375 Church Street,North Adams,MA,01247-4100,-73.102817,42.691361
167312,North Shore Community College,1 Ferncroft Rd,Danvers,MA,01923-0840,-70.968044,42.590103
167376,Northern Essex Community College,100 Elliott Street,Haverhill,MA,01830-2399,-71.04904,42.796634
167525,Quincy College,1250 Hancock Street,Quincy,MA,02169,-71.003476,42.252416
167534,Quinsigamond Community College,670 West Boylston Street,Worcester,MA,01606-2092,-71.79503,42.31379
167631,Roxbury Community College,1234 Columbus Ave,Roxbury Crossing,MA,02120-3400,-71.09549,42.329249
167729,Salem State University,352 Lafayette St,Salem,MA,01970,-70.890234,42.503575
167905,Springfield Technical Community College,1 Armory Sq,Springfield,MA,01105-1296,-72.578514,42.108827
167987,University of Massachusetts-Dartmouth,285 Old Westport Rd,North Dartmouth,MA,02747-2300,-71.004552,41.62869
168263,Westfield State University,577 Western Ave,Westfield,MA,01086-1630,-72.796503,42.132698
168430,Worcester State University,486 Chandler St,Worcester,MA,01602-2597,-71.844018,42.267526
168607,Alpena Community College,665 Johnson St,Alpena,MI,49707,-83.445069,45.081647
168883,Bay de Noc Community College,2001 N Lincoln Road,Escanaba,MI,49829-2511,-87.085228,45.772586
169248,Central Michigan University,106 Warriner Hall,Mount Pleasant,MI,48859,-84.77525,43.591203
169275,Mott Community College,1401 E Court St,Flint,MI,48503-2089,-83.67243,43.019941
169521,Delta College,1961 Delta Road,University Center,MI,48710,-83.985943,43.559491
169798,Eastern Michigan University,401 Pierce Hall,Ypsilanti,MI,48197,-83.622501,42.24694
169910,Ferris State University,1201 S State St,Big Rapids,MI,49307-2251,-85.481925,43.687724
169974,Glen Oaks Community College,62249 Shimmel Rd,Centreville,MI,49032-9719,-85.496929,41.892504
169992,Gogebic Community College,E4946 Jackson Rd,Ironwood,MI,49938,-90.165592,46.471893
170055,Grand Rapids Community College,143 Bostwick Ave NE,Grand Rapids,MI,49503-3295,-85.665625,42.967076
170082,Grand Valley State University,1 Campus Dr,Allendale,MI,49401-9403,-85.889826,42.963001
170240,Henry Ford College,5101 Evergreen Rd,Dearborn,MI,48128-1495,-83.236056,42.324639
170444,Jackson College,2111 Emmons Rd,Jackson,MI,49201-8399,-84.403942,42.16483
170541,Kalamazoo Valley Community College,6767 West O Ave,Kalamazoo,MI,49003-4070,-85.682144,42.225948
170550,Kellogg Community College,450 North Ave,Battle Creek,MI,49017-3397,-85.177329,42.335638
170587,Kirtland Community College,4800 W 4 Mile Road,Grayling,MI,49738,-84.706254,44.601785
170620,Lake Michigan College,2755 East Napier Avenue,Benton Harbor,MI,49022-1899,-86.393445,42.097276
170639,Lake Superior State University,650 W Easterday Ave,Sault Ste Marie,MI,49783,-84.365573,46.492849
170657,Lansing Community College,610 N Capitol Ave,Lansing,MI,48933,-84.553315,42.737719
170790,Macomb Community College,14500 E Twelve Mile Rd,Warren,MI,48088-3896,-82.972377,42.50599
170976,University of Michigan-Ann Arbor,503 Thompson Street,Ann Arbor,MI,48109,-83.742769,42.275921
171100,Michigan State University, ,East Lansing,MI,48824-1046,-84.476111,42.73212
171128,Michigan Technological University,1400 Townsend Drive,Houghton,MI,49931-1295,-88.548092,47.11866
171137,University of Michigan-Dearborn,4901 Evergreen Rd,Dearborn,MI,48128-1491,-83.231417,42.317287
171146,University of Michigan-Flint,303 E. Kearsley Street,Flint,MI,48502-1950,-83.690276,43.01875
171155,Mid Michigan College,1375 S Clare Ave,Harrison,MI,48625-9447,-84.763715,43.969586
171225,Monroe County Community College,1555 South Raisinville Road,Monroe,MI,48161-9746,-83.470274,41.91617
171234,Montcalm Community College,2800 College Dr.,Sidney,MI,48885-9723,-85.100181,43.253191
171304,Muskegon Community College,221 S Quarterline Rd,Muskegon,MI,49442-1432,-86.196384,43.250329
171395,North Central Michigan College,1515 Howard St,Petoskey,MI,49770,-84.954183,45.361727
171456,Northern Michigan University,1401 Presque Isle Avenue,Marquette,MI,49855-5301,-87.406568,46.559751
171483,Northwestern Michigan College,1701 E Front St,Traverse City,MI,49686,-85.585517,44.765436
171535,Oakland Community College,2480 Opdyke Rd,Bloomfield Hills,MI,48304-2266,-83.244787,42.595441
171571,Oakland University,2200 North Squirrel Road,Rochester Hills,MI,48309-4401,-83.216418,42.674573
172051,Saginaw Valley State University,7400 Bay Rd,University Center,MI,48710,-83.964273,43.51176
172200,Schoolcraft College,18600 Haggerty Road,Livonia,MI,48152-2696,-83.430958,42.419279
172291,St Clair County Community College,323 Erie Street,Port Huron,MI,48061-5015,-82.428717,42.979494
172307,Southwestern Michigan College,58900 Cherry Grove Rd,Dowagiac,MI,49047-9793,-86.082715,41.965095
172617,Washtenaw Community College,4800 E Huron River Dr,Ann Arbor,MI,48105-4800,-83.66559,42.26361
172635,Wayne County Community College District,801 W. Fort Street,Detroit,MI,48226,-83.054497,42.327299
172644,Wayne State University,656 West Kirby Street,Detroit,MI,48202,-83.068998,42.358994
172671,West Shore Community College,3000 N Stiles Rd,Scottville,MI,49454-0277,-86.336122,44.008512
172699,Western Michigan University,1903 W Michigan Ave,Kalamazoo,MI,49008-5200,-85.613759,42.282194
172918,Alexandria Technical & Community College,1601 Jefferson Streeet,Alexandria,MN,56308,-95.372369,45.873107
172954,Anoka Technical College,1355 Highway 10 West,Anoka,MN,55303,-93.416087,45.216709
172963,Anoka-Ramsey Community College,11200 Mississippi Blvd NW,Coon Rapids,MN,55433-3470,-93.351697,45.172978
173063,Riverland Community College,1900 8th Ave NW,Austin,MN,55912-1473,-92.995626,43.676271
173115,Northwest Technical College,905 Grant Avenue SE,Bemidji,MN,56601-4907,-94.853974,47.452652
173124,Bemidji State University,1500 Birchmont Dr,Bemidji,MN,56601,-94.874119,47.482341
173203,Central Lakes College-Brainerd,501 West College Drive,Brainerd,MN,56401-3900,-94.214266,46.345863
173416,Dakota County Technical College,1300  145th Street East,Rosemount,MN,55068-2999,-93.07805,44.737255
173461,Lake Superior College,2101 Trinity Rd,Duluth,MN,55811-3399,-92.145151,46.78455
173559,Minnesota State Community and Technical College,1414 College Way,Fergus Falls,MN,56537-1000,-96.097321,46.289194
173638,Minnesota West Community and Technical College,1593 11th Ave,Granite Falls,MN,56241,-95.56172,44.80755
173708,Hennepin Technical College,9000 Brooklyn Blvd,Brooklyn Park,MN,55445,-93.397759,45.096534
173735,Hibbing Community College,1515 East 25th Street,Hibbing,MN,55746,-92.921698,47.422361
173799,Inver Hills Community College,2500 80th St E,Inver Grove Heights,MN,55076-3224,-93.055255,44.828599
173805,Itasca Community College,1851 East Highway 169,Grand Rapids,MN,55744-3397,-93.49555,47.241919
173911,South Central College,1920 Lee Blvd,North Mankato,MN,56003-1920,-94.047428,44.174319
173920,Minnesota State University-Mankato,South Rd and Ellis Ave,Mankato,MN,56001,-93.99945,44.146712
173993,Mesabi Range College,1001 Chestnut Street West,Virginia,MN,55792,-92.549092,47.524561
174020,Metropolitan State University,700 East Seventh Street,Saint Paul,MN,55106-5000,-93.074361,44.957256
174066,University of Minnesota-Twin Cities,100 Church Street SE,Minneapolis,MN,55455-0213,-93.235464,44.972851
174075,University of Minnesota-Crookston,2900 University Ave,Crookston,MN,56716-5001,-96.606188,47.802536
174136,Minneapolis Community and Technical College,1501 Hennepin Ave,Minneapolis,MN,55403-1779,-93.284507,44.972679
174233,University of Minnesota-Duluth,515 Darland Administration Bldg,Duluth,MN,55812,-92.084385,46.817126
174251,University of Minnesota-Morris,309 Behmler Hall,Morris,MN,56267,-95.899729,45.589775
174358,Minnesota State University Moorhead,1104 Seventh Avenue South,Moorhead,MN,56563,-96.759532,46.867153
174376,North Hennepin Community College,7411 85th Ave N,Brooklyn Park,MN,55445,-93.374536,45.106937
174428,Normandale Community College,9700 France Ave S,Bloomington,MN,55431-4399,-93.331673,44.829706
174473,Northland Community and Technical College,1101 Hwy One East,Thief River Falls,MN,56701,-96.162366,48.124969
174570,Pine Technical & Community College,900 4th St SE,Pine City,MN,55063,-92.968283,45.818667
174604,Rainy River Community College,1501 Highway 71,International Falls,MN,56649-2160,-93.431603,48.590001
174738,Rochester Community and Technical College,851 30th Ave SE,Rochester,MN,55904-4999,-92.42321,44.014488
174756,St Cloud Technical and Community College,1540 Northway Drive,Saint Cloud,MN,56303-1240,-94.175841,45.579065
174783,Saint Cloud State University,720 Fourth Ave. South,Saint Cloud,MN,56301-4498,-94.152657,45.553227
175041,Saint Paul College,235 Marshall Ave,Saint Paul,MN,55102-9808,-93.109646,44.949186
175078,Southwest Minnesota State University,1501 State St,Marshall,MN,56258-5468,-95.759548,44.45373
175157,Vermilion Community College,1900 East Camp Street,Ely,MN,55731-1918,-91.837777,47.905184
175236,Ridgewater College,2101 15th Ave NW,Willmar,MN,56201,-95.07305,45.138313
175263,Minnesota State College Southeast,1250 Homer Rd,Winona,MN,55987,-91.618318,44.024554
175272,Winona State University,175 West Mark Street,Winona,MN,55987-5838,-91.643723,44.046159
175315,Century College,3300 Century Ave N,White Bear Lake,MN,55110,-92.982105,45.041823
175342,Alcorn State University,1000 ASU Dr Ste 359,Alcorn State,MS,39096-7500,-91.142854,31.877216
175519,Coahoma Community College,3240 Friars Point Rd,Clarksdale,MS,38614,-90.568469,34.254417
175573,Copiah-Lincoln Community College,1001 Co-Lin Lane,Wesson,MS,39191,-90.400234,31.69272
175616,Delta State University,1003 W Sunflower Road,Cleveland,MS,38733,-90.735365,33.744745
175643,East Central Community College,15738 Highway 15,Decatur,MS,39327-0129,-89.113706,32.441164
175652,East Mississippi Community College,1512 Kemper Street,Scooba,MS,39358-0158,-88.483516,32.830246
175786,Hinds Community College,608 Hinds Boulevard,Raymond,MS,39154,-90.416118,32.256109
175810,Holmes Community College,#1 Hill St,Goodman,MS,39079,-89.915803,32.969985
175829,Itawamba Community College,602 W Hill Street,Fulton,MS,38843-1099,-88.412073,34.276519
175856,Jackson State University,1400 John R. Lynch Street,Jackson,MS,39217,-90.207405,32.296105
175883,Jones County Junior College,900 South Court Street,Ellisville,MS,39437,-89.200895,31.596936
175935,Meridian Community College,910 Hwy 19 N,Meridian,MS,39307-5801,-88.732823,32.367355
176008,Mississippi Delta Community College,Hwy 3 and Cherry St,Moorhead,MS,38761,-90.502053,33.444906
176017,University of Mississippi,"Oxford, Mississippi",University,MS,38677-1848,-89.537434,34.365529
176035,Mississippi University for Women,1100 College Street,Columbus,MS,39701,-88.418601,33.493305
176044,Mississippi Valley State University,14000 Highway 82 West,Itta Bena,MS,38941-1400,-90.341274,33.514142
176071,Mississippi Gulf Coast Community College,51 Main Street,Perkinston,MS,39573,-89.142952,30.780784
176080,Mississippi State University,Lee Boulevard,Mississippi State,MS,39762,-88.790139,33.454852
176169,Northeast Mississippi Community College,101 Cunningham Blvd,Booneville,MS,38829,-88.562609,34.668339
176178,Northwest Mississippi Community College,4975 Hwy 51 N,Senatobia,MS,38668-1714,-89.969525,34.625532
176239,Pearl River Community College,101 Hwy 11 N,Poplarville,MS,39470,-89.543052,30.844322
176354,Southwest Mississippi Community College,1156 College Dr,Summit,MS,39666-0000,-90.443295,31.295121
176372,University of Southern Mississippi,118 College Drive # 0001,Hattiesburg,MS,39406-0001,-89.331236,31.32661
176798,Cape Girardeau Career and Technology Center,1080 S. Silver Springs Rd.,Cape Girardeau,MO,63703-7511,-89.565366,37.274001
176965,University of Central Missouri,108 W South Street,Warrensburg,MO,64093,-93.737428,38.759111
177135,Crowder College,601 Laclede Ave,Neosho,MO,64850,-94.368315,36.814906
177250,East Central College,1964 Prairie Dell Rd,Union,MO,63084,-90.97809,38.431845
177472,Ozarks Technical Community College,1001 E. Chestnut Expressway,Springfield,MO,65802,-93.279985,37.216479
177551,Harris-Stowe State University,3026 Laclede Ave,Saint Louis,MO,63103-2136,-90.224288,38.631744
177676,Jefferson College,1000 Viking Drive,Hillsboro,MO,63050-2440,-90.558954,38.259889
177940,Lincoln University,820 Chestnut Street,Jefferson City,MO,65101,-92.166724,38.564431
177977,State Technical College of Missouri,One Technology Drive,Linn,MO,65051-9607,-91.814259,38.467699
177995,Metropolitan Community College-Kansas City,3200 Broadway,Kansas City,MO,64111-2429,-94.58966,39.068668
178217,Mineral Area College,5270 Flat River Road,Park Hills,MO,63601-1000,-90.481847,37.845199
178341,Missouri Southern State University,3950 E. Newman Road,Joplin,MO,64801-1595,-94.461689,37.095155
178387,Missouri Western State University,4525 Downs Dr,Saint Joseph,MO,64507,-94.785643,39.7575
178396,University of Missouri-Columbia,105 Jesse Hall,Columbia,MO,65211-1050,-92.328843,38.94531
178402,University of Missouri-Kansas City,5100 Rockhill Rd.,Kansas City,MO,64110,-94.582141,39.034179
178411,Missouri University of Science and Technology,300 W.13th Street,Rolla,MO,65409,-91.775583,37.953426
178420,University of Missouri-St Louis,One University Boulevard,Saint Louis,MO,63121-4400,-90.311091,38.710312
178448,Moberly Area Community College,101 College Ave,Moberly,MO,65270-1304,-92.455064,39.418607
178466,Hillyard Technical Center,3434 Faraon Street,Saint Joseph,MO,64506-5102,-94.808721,39.768022
178615,Truman State University,100 E Normal Avenue,Kirksville,MO,63501-4221,-92.581658,40.188267
178624,Northwest Missouri State University,800 University Drive,Maryville,MO,64468-6001,-94.883339,40.351692
179052,Rolla Technical Institute/Center,500 Forum Drive,Rolla,MO,65401,-91.748741,37.947448
179308,Saint Louis Community College,3221 McKelvey Road,Bridgeton,MO,63044,-90.437078,38.745678
179344,Missouri State University-West Plains,128 Garfield Avenue,West Plains,MO,65775-2715,-91.857838,36.729574
179539,State Fair Community College,3201 W 16th Street,Sedalia,MO,65301-2199,-93.268028,38.696423
179557,Southeast Missouri State University,"One University Plaza, MS2025",Cape Girardeau,MO,63701,-89.531187,37.311107
179566,Missouri State University-Springfield,901 S National Avenue,Springfield,MO,65897,-93.281281,37.199258
179645,Three Rivers College,2080 Three Rivers Blvd,Poplar Bluff,MO,63901,-90.429769,36.776571
179715,North Central Missouri College,1301 Main St,Trenton,MO,64683,-93.617353,40.078096
180081,Highlands College of Montana Tech,25 Basin Creek Rd,Butte,MT,59701,-112.509365,45.938145
180151,Dawson Community College,300 College Dr,Glendive,MT,59330,-104.725485,47.085396
180160,Chief Dull Knife College,1 College Drive,Lame Deer,MT,59043,-106.664593,45.625568
180179,Montana State University Billings,1500 University Drive,Billings,MT,59101-0298,-108.523009,45.796896
180197,Flathead Valley Community College,777 Grandview Dr,Kalispell,MT,59901,-114.327258,48.227389
180203,Aaniiih Nakoda College,269 Blackfeet Avenue Agency,Harlem,MT,59526,-108.757816,48.484196
180212,Fort Peck Community College,605 Indian Street,Poplar,MT,59255-0398,-105.193021,48.113569
180249,Great Falls College Montana State University,2100 16th Ave S,Great Falls,MT,59405,-111.269558,47.485581
180276,Helena College University of Montana,1115 N Roberts Street,Helena,MT,59601,-112.016035,46.595384
180328,Little Big Horn College,8645 South Weaver Drive,Crow Agency,MT,59022,-107.455421,45.603781
180373,Miles Community College,2715 Dickinson Street,Miles City,MT,59301-4774,-105.826524,46.40526
180416,Montana Technological University,1300 W Park St,Butte,MT,59701-8997,-112.559511,46.012868
180461,Montana State University,Montana State University,Bozeman,MT,59717,-111.048812,45.666726
180489,The University of Montana,"Missoula, Montana",Missoula,MT,59812,-113.982912,46.859312
180522,Montana State University-Northern,300 W 11th St,Havre,MT,59501,-109.687806,48.54149
180647,Salish Kootenai College,58138 US  Highway 93,Pablo,MT,59855,-114.111635,47.598592
180692,The University of Montana-Western,710 S Atlantic,Dillon,MT,59725-3598,-112.639264,45.208306
180902,Central Community College,3134 West Hwy 34,Grand Island,NE,68802-4903,-98.372549,40.889582
180948,Chadron State College,1000 Main St,Chadron,NE,69337-2690,-103.001615,42.8199
181215,University of Nebraska at Kearney,2504 9th Avenue,Kearney,NE,68849-1212,-99.098699,40.701452
181242,Purdue University Global-Lincoln,1821 K Street,Lincoln,NE,68508,-96.694181,40.808915
181303,Metropolitan Community College Area,30 & Fort Street,Omaha,NE,68111-1610,-95.957829,41.310451
181312,Mid-Plains Community College,1101 Halligan Drive,North Platte,NE,69101,-100.748417,41.110429
181394,University of Nebraska at Omaha,6001 Dodge St,Omaha,NE,68182-0225,-96.008516,41.258769
181400,Purdue University Global-Omaha,5425 North 103rd Street,Omaha,NE,68134-1002,-96.072772,41.309515
181419,Nebraska Indian Community College,1111 Hwy 75,Macy,NE,68039-0428,-96.35176,42.11677
181428,University of Nebraska Medical Center,42nd & Dewey Ave,Omaha,NE,68198-7815,-95.973966,41.256312
181464,University of Nebraska-Lincoln,14th and R St,Lincoln,NE,68588,-96.700508,40.817598
181491,Northeast Community College,801 E Benjamin,Norfolk,NE,68702-0469,-97.396578,42.048647
181534,Peru State College,600 Hoyt Street,Peru,NE,68421-0010,-95.732731,40.474689
181640,Southeast Community College Area,301 South 68th Street Place,Lincoln,NE,68510-2449,-96.62818,40.81079
181765,Nebraska College of Technical Agriculture,404 East 7th,Curtis,NE,69025-9552,-100.510409,40.635454
181783,Wayne State College,1111 Main St,Wayne,NE,68787,-97.015122,42.241556
181817,Western Nebraska Community College,1601 East 27th Street,Scottsbluff,NE,69361-1899,-103.64249,41.875705
182005,College of Southern Nevada,6375 W. Charleston Blvd.,Las Vegas,NV,89146-1164,-115.233099,36.158114
182281,University of Nevada-Las Vegas,4505 S Maryland Pky,Las Vegas,NV,89154,-115.138462,36.106047
182290,University of Nevada-Reno,North Virginia Street,Reno,NV,89557,-119.815377,39.543642
182306,Great Basin College,1500 College Parkway,Elko,NV,89801,-115.767274,40.84343
182500,Truckee Meadows Community College,7000 Dandini Blvd,Reno,NV,89512-3999,-119.796975,39.571402
182564,Western Nevada College,2201 West College Parkway,Carson City,NV,89703-7399,-119.79036,39.186158
182829,University of New Hampshire-Franklin Pierce School of Law,2 White St,Concord,NH,03301-4197,-71.545152,43.207371
183044,University of New Hampshire-Main Campus,"105 Main St., Thompson Hall",Durham,NH,03824-3547,-70.932465,43.135934
183062,Keene State College,229 Main Street,Keene,NH,03435-1506,-72.279276,42.926452
183071,University of New Hampshire at Manchester,88 Commercial Street,Manchester,NH,03101-1113,-71.468755,42.987209
183080,Plymouth State University,17 High Street,Plymouth,NH,03264-1595,-71.690164,43.759573
183099,NHTI-Concord's Community College,31 College Drive,Concord,NH,03301-7412,-71.531979,43.223621
183105,White Mountains Community College,2020 Riverside Drive,Berlin,NH,03570,-71.158535,44.503494
183114,River Valley Community College,1 College Place,Claremont,NH,03743-9707,-72.333114,43.399046
183123,Lakes Region Community College,379 Belmont Road,Laconia,NH,03246,-71.462602,43.507568
183132,Manchester Community College,1066 Front St,Manchester,NH,03102-8518,-71.483534,43.019823
183141,Nashua Community College,505 Amherst St,Nashua,NH,03063-1026,-71.523462,42.794576
183150,Great Bay Community College,320 Corporate Drive,Portsmouth,NH,03801-2879,-70.798969,43.072093
183257,Granite State College,25 Hall Street,Concord,NH,03301-3471,-71.527241,43.19291
183655,Atlantic Cape Community College,5100 Black Horse Pike,Mays Landing,NJ,08330-2699,-74.680019,39.462081
183743,Bergen Community College,400 Paramus Rd,Paramus,NJ,07652-1595,-74.088804,40.951782
183859,Brookdale Community College,765 Newman Springs Rd,Lincroft,NJ,07738-1597,-74.132746,40.324906
183877,Rowan College at Burlington County,900 College Circle,Mount Laurel,NJ,08054-1599,-74.894464,39.972205
183938,Camden County College,200 College Drive,Blackwood,NJ,08012,-75.038381,39.784874
184180,County College of Morris,214 Center Grove Rd,Randolph,NJ,07869-2086,-74.579873,40.859141
184205,Cumberland County College,3322 College Drive,Vineland,NJ,08362-1500,-75.057829,39.440537
184481,Essex County College,303 University Ave,Newark,NJ,07102,-74.178234,40.738444
184782,Rowan University,201 Mullica Hill Road,Glassboro,NJ,08028,-75.119119,39.709108
184791,Rowan College of South Jersey Gloucester Campus,1400 Tanyard Road,Sewell,NJ,08080,-75.121269,39.781339
184995,Hudson County Community College,70 Sip Avenue,Jersey City,NJ,07306,-74.062903,40.7303
185129,New Jersey City University,2039 Kennedy Blvd,Jersey City,NJ,07305,-74.08727,40.709937
185262,Kean University,1000 Morris Avenue,Union,NJ,07083,-74.233503,40.677981
185509,Mercer County Community College,1200 Old Trenton Rd,West Windsor,NJ,08550-3407,-74.650719,40.254398
185536,Middlesex County College,2600 Woodbridge Avenue,Edison,NJ,08818-3050,-74.366544,40.504728
185590,Montclair State University,1 Normal Avenue,Montclair,NJ,07043-1624,-74.198141,40.860414
185828,New Jersey Institute of Technology,University Heights,Newark,NJ,07102,-74.177113,40.741997
185873,Ocean County College,College Drive,Toms River,NJ,08754-2001,-74.16549,40.007809
186034,Passaic County Community College,One College Blvd,Paterson,NJ,07505-1179,-74.168778,40.918449
186201,Ramapo College of New Jersey,505 Ramapo Valley Rd,Mahwah,NJ,07430-1680,-74.174086,41.080942
186371,Rutgers University-Camden,406 Penn,Camden,NJ,08102,-75.12224,39.948064
186380,Rutgers University-New Brunswick,83 Somerset St,New Brunswick,NJ,08901-1281,-74.446251,40.498769
186399,Rutgers University-Newark,"249 University Avenue, Blumenthal Hall",Newark,NJ,07102,-74.175809,40.739122
186469,Salem Community College,460 Hollywood Avenue,Carneys Point,NJ,08069-2799,-75.47013,39.698756
186645,Raritan Valley Community College,118 Lamington Road,Branchburg,NJ,08876,-74.688127,40.609681
186876,Stockton University,101 Vera King Farris Drive,Galloway,NJ,08205-9441,-74.531087,39.492036
187046,Thomas Edison State University,111 W State St,Trenton,NJ,08608,-74.768562,40.220487
187134,The College of New Jersey,2000 Pennington Road,Ewing,NJ,08628-7718,-74.778791,40.268651
187198,Union County College,1033 Springfield Avenue,Cranford,NJ,07016-1528,-74.319138,40.668595
187444,William Paterson University of New Jersey,300 Pompton Rd,Wayne,NJ,07470,-74.200248,40.945255
187532,Central New Mexico Community College,525 Buena Vista Dr SE,Albuquerque,NM,87106,-106.628861,35.071878
187596,Navajo Technical University,"Lower Point Road, State Road 371",Crownpoint,NM,87313-0849,-108.149392,35.687431
187620,New Mexico State University-Dona Ana,2800 N. Sonoma Ranch Blvd.,Las Cruces,NM,88011,-106.737172,32.354486
187639,Clovis Community College,417 Schepps Blvd,Clovis,NM,88101-8381,-103.165886,34.402483
187648,Eastern New Mexico University-Main Campus,"ENMU Station 2, 1500 S Ave K",Portales,NM,88130,-103.34819,34.175592
187666,Eastern New Mexico University-Roswell Campus,52 University Blvd,Roswell,NM,88202-6000,-104.525718,33.313167
187745,Institute of American Indian and Alaska Native Culture and Arts Development,83 Avan Nu Po Road,Santa Fe,NM,87508-1300,-106.010015,35.586563
187897,New Mexico Highlands University,803 University Ave,Las Vegas,NM,87701,-105.219197,35.596233
187903,New Mexico Junior College,5317 Lovington Hwy,Hobbs,NM,88240,-103.182896,32.757808
187912,New Mexico Military Institute,101 W.  College Blvd.,Roswell,NM,88201-5173,-104.524448,33.409617
187958,University of New Mexico-Gallup Campus,705 Gurley Ave.,Gallup,NM,87301,-108.72725199999999,35.502662
187967,New Mexico Institute of Mining and Technology,801 Leroy Place,Socorro,NM,87801,-106.905211,34.067041
187976,University of New Mexico-Los Alamos Campus,4000 University Dr,Los Alamos,NM,87544,-106.319557,35.886153
187985,University of New Mexico-Main Campus,1700 Lomas Blvd NE,Albuquerque,NM,87106,-106.620155,35.083868
187994,New Mexico State University-Alamogordo,2400 North Scenic Drive,Alamogordo,NM,88310,-105.926241,32.92033
188003,New Mexico State University-Carlsbad,1500 University Drive,Carlsbad,NM,88220,-104.265536,32.442028
188021,New Mexico State University-Grants,1500 Third Street,Grants,NM,87020-2025,-107.843638,35.165965
188030,New Mexico State University-Main Campus,2850 Weddell Street,Las Cruces,NM,88003-8001,-106.752069,32.281568
188049,University of New Mexico-Valencia County Campus,280 La Entrada,Los Lunas,NM,87031-7633,-106.705371,34.728683
188058,Northern New Mexico College,921 Paseo de Onate,Espanola,NM,87532,-106.084395,36.004073
188100,San Juan College,4601 College Blvd,Farmington,NM,87402-4699,-108.169468,36.770446
188137,Santa Fe Community College,6401 Richards Ave,Santa Fe,NM,87508-4887,-105.998054,35.605871
188216,Southwestern Indian Polytechnic Institute,9169 Coors Blvd NW,Albuquerque,NM,87120-3101,-106.664475,35.176084
188225,University of New Mexico-Taos Campus,1157 County Road 110,Ranchos de Taos,NM,87557,-105.651709,36.348861
188261,Mesalands Community College,911 S Tenth Street,Tucumcari,NM,88401-3352,-103.736303,35.170332
188304,Western New Mexico University,1000 W. College Ave,Silver City,NM,88061,-108.283284,32.7767
188438,Adirondack Community College,640 Bay Rd,Queensbury,NY,12804,-73.654813,43.351839
189547,SUNY Broome Community College,907 Upper Front Street,Binghamton,NY,13901-1001,-75.908065,42.135872
189839,Cayuga County Community College,197 Franklin Street,Auburn,NY,13021-3099,-76.542867,42.943726
190053,Clinton Community College,136 Clinton Point Dr.,Plattsburgh,NY,12901,-73.439739,44.64841
190169,Columbia-Greene Community College,4400 Route 23,Hudson,NY,12534,-73.818113,42.217613
190442,SUNY Corning Community College,1 Academic Dr,Corning,NY,14830,-77.072138,42.116736
190512,CUNY Bernard M Baruch College,One Bernard Baruch Way (55 Lexington Ave at 24th St),New York,NY,10010,-73.983417,40.740238
190521,CUNY Borough of Manhattan Community College,199 Chambers St,New York,NY,10007,-74.011826,40.71879
190530,CUNY Bronx Community College,2155 University Avenue,Bronx,NY,10453,-73.912043,40.858112
190549,CUNY Brooklyn College,2900 Bedford Ave,Brooklyn,NY,11210,-73.949898,40.631517
190558,College of Staten Island CUNY,2800 Victory Blvd,Staten Island,NY,10314,-74.14849,40.601831
190567,CUNY City College,160 Convent Ave,New York,NY,10031,-73.948542,40.819846
190576,CUNY Graduate School and University Center,365 Fifth Ave,New York,NY,10016,-73.983822,40.748612
190585,CUNY Hostos Community College,500 Grand Concourse,Bronx,NY,10451,-73.926759,40.81812
190594,CUNY Hunter College,695 Park Ave,New York,NY,10065,-73.964795,40.768669
190600,CUNY John Jay College of Criminal Justice,524 W 59th St,New York,NY,10019,-73.98841,40.770351
190619,CUNY Kingsborough Community College,2001 Oriental Blvd,Brooklyn,NY,11235,-73.935812,40.577222
190628,CUNY LaGuardia Community College,31-10 Thomson Ave,Long Island City,NY,11101,-73.935057,40.7445
190637,CUNY Lehman College,250 Bedford Park Blvd West,Bronx,NY,10468,-73.895379,40.872962
190646,CUNY Medgar Evers College,1650 Bedford Ave,Brooklyn,NY,11225,-73.957076,40.666256
190655,CUNY New York City College of Technology,300 Jay St,Brooklyn,NY,11201,-73.987856,40.695483
190664,CUNY Queens College,65-30 Kissena Blvd,Queens,NY,11367,-73.816098,40.735182
190673,CUNY Queensborough Community College,222-05 56th Ave,Bayside,NY,11364-1497,-73.756656,40.755481
190682,CUNY School of Law,2 Court Square,Long Island City,NY,11101,-73.943621,40.747797
190691,CUNY York College,94-20 Guy R. Brewer Blvd,Jamaica,NY,11451,-73.796313,40.701576
190840,Dutchess Community College,53 Pendell Rd,Poughkeepsie,NY,12601-1595,-73.904652,41.724245
191083,Erie Community College,121 Ellicott St,Buffalo,NY,14203-2698,-78.872679,42.881771
191126,Fashion Institute of Technology,227 W 27th St,New York,NY,10001-5992,-73.994781,40.74731
191199,Finger Lakes Community College,3325 Marvin Sands Drive,Canandaigua,NY,14424-8395,-77.241801,42.867556
191302,Fulton-Montgomery Community College,2805 State Hwy 67,Johnstown,NY,12095-3790,-74.297492,42.983805
191339,Genesee Community College,One College Rd,Batavia,NY,14020,-78.137586,43.016584
191612,Herkimer County Community College,100 Reservoir Rd,Herkimer,NY,13350-1598,-75.007206,43.032738
191719,Hudson Valley Community College,80 Vandenburgh Ave,Troy,NY,12180,-73.683734,42.696509
191986,Jamestown Community College,525 Falconer St,Jamestown,NY,14701,-79.218967,42.1146
192022,Jefferson Community College,1220 Coffeen St,Watertown,NY,13601-1897,-75.935051,43.992827
193283,Mohawk Valley Community College,1101 Sherman Dr,Utica,NY,13501-5394,-75.219367,43.076765
193326,Monroe Community College,1000 E Henrietta Rd,Rochester,NY,14623,-77.610136,43.101036
193478,Nassau Community College,One Education Dr,Garden City,NY,11530-6793,-73.595286,40.728872
193946,Niagara County Community College,3111 Saunders Settlement Rd,Sanborn,NY,14132,-78.87579,43.147701
194028,North Country Community College,23 Santanoni Avenue,Saranac Lake,NY,12983-0089,-74.119981,44.318645
194222,Onondaga Community College,4585 West Seneca Turnpike,Syracuse,NY,13215-4585,-76.197878,43.006329
194240,Orange County Community College,115 South St,Middletown,NY,10940,-74.426028,41.438629
195058,Rockland Community College,145 College Rd,Suffern,NY,10901-3699,-74.085969,41.133929
195322,Schenectady County Community College,78 Washington Avenue,Schenectady,NY,12305,-73.950008,42.814412
195988,Sullivan County Community College,112 College Road,Loch Sheldrake,NY,12759-5151,-74.667769,41.7641
196006,SUNY College of Technology at Alfred,10 Upper College Drive,Alfred,NY,14802,-77.794631999999993,42.255262
196015,SUNY College of Technology at Canton,34 Cornell Drive,Canton,NY,13617-1098,-75.182906,44.604096
196024,SUNY College of Technology at Delhi,454 Delhi Drive,Delhi,NY,13753-1100,-74.924612,42.269859
196033,SUNY College of Agriculture and Technology at Cobleskill,State Route 7,Cobleskill,NY,12043,-74.498258,42.672534
196042,Farmingdale State College,2350 Broadhollow Road,Farmingdale,NY,11735-1021,-73.42832,40.754224
196051,SUNY Morrisville,80 Eaton Street,Morrisville,NY,13408,-75.640583,42.893962
196060,SUNY at Albany,1400 Washington Avenue,Albany,NY,12222,-73.824662,42.685489
196079,Binghamton University,4400 Vestal Parkway East,Vestal,NY,13850-6000,-75.966889,42.087868
196088,University at Buffalo,12 Capen Hall,Buffalo,NY,14260-1660,-78.789458,43.000942
196097,Stony Brook University,310 Administration Building,Stony Brook,NY,11794,-73.12046,40.91476
196103,SUNY College of Environmental Science and Forestry,One Forestry Dr.,Syracuse,NY,13210,-76.138724,43.034765
196112,SUNY Polytechnic Institute,100 Seymour Rd,Utica,NY,13502,-75.229841,43.137701
196121,SUNY College at Brockport,350 New Campus Dr,Brockport,NY,14420-2919,-77.947188,43.211926
196130,SUNY Buffalo State,1300 Elmwood Ave,Buffalo,NY,14222,-78.882125,42.933832
196149,SUNY Cortland,Miller Building,Cortland,NY,13045-0900,-76.188655,42.598022
196158,SUNY at Fredonia,280 Central Ave,Fredonia,NY,14063-1136,-79.337375,42.452236
196167,SUNY College at Geneseo,1 College Circle,Geneseo,NY,14454-1465,-77.821894,42.796645
196176,State University of New York at New Paltz,1 Hawk Drive,New Paltz,NY,12561-2443,-74.082188,41.740936
196185,SUNY Oneonta,108 Ravine Parkway,Oneonta,NY,13820-4015,-75.063632,42.468861
196194,SUNY College at Oswego,7060 State Route 104,Oswego,NY,13126,-76.540798,43.454287
196200,SUNY College at Potsdam,44 Pierrepont Ave,Potsdam,NY,13676-2294,-74.973815,44.662148
196219,SUNY at Purchase College,735 Anderson Hill Rd,Purchase,NY,10577-1400,-73.701955,41.047223
196228,SUNY College of Optometry,33 West 42nd Street,New York,NY,10036-8003,-73.982236,40.754465
196237,SUNY College at Old Westbury,223 Store Hill Rd,Old Westbury,NY,11568-0210,-73.571907,40.799021
196246,SUNY College at Plattsburgh,101 Broad Street,Plattsburgh,NY,12901-2681,-73.466536,44.69293
196255,SUNY Downstate Health Sciences University,450 Clarkson Ave,Brooklyn,NY,11203-2098,-73.945535,40.653855
196264,SUNY Empire State College,Two Union Ave,Saratoga Springs,NY,12866-4391,-73.782484,43.077283
196291,SUNY Maritime College,6 Pennyfield Avenue,Throggs Neck,NY,10465-4198,-73.795309,40.807217
196307,Upstate Medical University,750 E Adams St,Syracuse,NY,13210,-76.140009,43.041819
196565,Tompkins Cortland Community College,170 North St,Dryden,NY,13053-0139,-76.287586,42.502006
196699,Ulster County Community College,491 Cottekill Rd,Stone Ridge,NY,12484,-74.128698,41.851218
197027,United States Merchant Marine Academy,300 Steamboat Road,Kings Point,NY,11024-1634,-73.763004,40.81357
197036,United States Military Academy,646 Swift Rd (ATTN: MASG),West  Point,NY,10996-1905,-73.956603,41.390479
197294,SUNY Westchester Community College,75 Grasslands Road,Valhalla,NY,10595,-73.789669,41.068458
197814,College of the Albemarle,1208 N Road St,Elizabeth City,NC,27906-2327,-76.219765,36.324885
197850,South Piedmont Community College,680 Highway 74 West,Polkton,NC,28135,-80.211087,35.000312
197869,Appalachian State University,287 Rivers St,Boone,NC,28608,-81.680583,36.215536
197887,Asheville-Buncombe Technical Community College,340 Victoria Rd,Asheville,NC,28801-4897,-82.554826,35.570439
197966,Beaufort County Community College,5337 US Highway 264 East,Washington,NC,27889,-76.96535,35.533587
198011,Bladen Community College,7418 NC Hwy 41 West,Dublin,NC,28332,-78.731119,34.644691
198039,Blue Ridge Community College,180 West Campus Drive,Flat Rock,NC,28731-4728,-82.425544,35.30804
198084,Brunswick Community College,50 College Rd,Bolivia,NC,28422-9021,-78.22979,34.038973
198118,Caldwell Community College and Technical Institute,2855 Hickory Boulevard,Hudson,NC,28638,-81.484148,35.854604
198154,Cape Fear Community College,411 North Front Street,Wilmington,NC,28401-3910,-77.948306,34.240624
198206,Carteret Community College,3505 Arendell St,Morehead City,NC,28557-2989,-76.755538,34.723681
198233,Catawba Valley Community College,2550 Hwy 70 SE,Hickory,NC,28602-0699,-81.28792,35.699732
198251,Central Carolina Community College,1105 Kelly Dr,Sanford,NC,27330-9840,-79.143553,35.471864
198260,Central Piedmont Community College,1201 Elizabeth Avenue,Charlotte,NC,28204,-80.829796,35.217774
198321,Cleveland Community College,137 S Post Rd,Shelby,NC,28152-6224,-81.492856,35.279832999999996
198330,Coastal Carolina Community College,444 Western Blvd,Jacksonville,NC,28546-6816,-77.384785,34.771687
198367,Craven Community College,800 College Ct,New Bern,NC,28562-4900,-77.102232,35.111516
198376,Davidson County Community College,297 DCCC Road,Thomasville,NC,27360-7385,-80.181868,35.865471
198455,Durham Technical Community College,1637 Lawson Street,Durham,NC,27703-5023,-78.8817,35.974768
198464,East Carolina University,East 5th Street,Greenville,NC,27858-4353,-77.368291,35.607186
198491,Edgecombe Community College,2009 W Wilson St,Tarboro,NC,27886,-77.571786,35.879867
198507,Elizabeth City State University,1704 Weeksville Rd,Elizabeth City,NC,27909,-76.214041,36.277978
198534,Fayetteville Technical Community College,2201 Hull Rd,Fayetteville,NC,28303-0236,-78.92658,35.068851
198543,Fayetteville State University,1200 Murchison Rd,Fayetteville,NC,28301-4298,-78.891696,35.073641
198552,Forsyth Technical Community College,2100 Silas Creek Pky,Winston-Salem,NC,27103-5197,-80.272215,36.06854
198570,Gaston College,201 Hwy 321 S,Dallas,NC,28034,-81.18852,35.312048
198622,Guilford Technical Community College,601 E. Main Street,Jamestown,NC,27282,-79.92062,35.99846
198640,Halifax Community College,100 College Drive,Weldon,NC,27890,-77.617681,36.427712
198668,Haywood Community College,185 Freedlander Drive,Clyde,NC,28721-9901,-82.927918,35.525905
198710,Isothermal Community College,286 ICC Loop Road,Spindale,NC,28160-0804,-81.911857,35.336728
198729,James Sprunt Community College,133 James Sprunt Drive,Kenansville,NC,28349,-77.977639,34.946802
198774,Johnston Community College,245 College Road,Smithfield,NC,27577-2350,-78.332293,35.501418
198817,Lenoir Community College,231 Highway 58 South,Kinston,NC,28502-0188,-77.571532,35.234405
198905,Martin Community College,1161 Kehukee Pk Rd,Williamston,NC,27892-9988,-77.094913,35.836304
198914,Mayland Community College,200 Mayland Drive,Spruce Pine,NC,28777,-82.016988,35.934475
198923,McDowell Technical Community College,54 College Drive,Marion,NC,28752-8728,-81.96208,35.656254
198987,Mitchell Community College,500 W Broad Street,Statesville,NC,28677-5293,-80.894083,35.782814
199023,Montgomery Community College,1011 Page St,Troy,NC,27371,-79.870005,35.367107
199087,Nash Community College,522 N. Old Carriage Road,Rocky Mount,NC,27804,-77.898348,35.976823
199102,North Carolina A & T State University,1601 E Market  St,Greensboro,NC,27411,-79.773375,36.07282
199111,University of North Carolina at Asheville,One University Heights,Asheville,NC,28804-8510,-82.565392,35.617068
199120,University of North Carolina at Chapel Hill,103 South Bldg Cb 9100,Chapel Hill,NC,27599,-79.050969,35.911769
199139,University of North Carolina at Charlotte,9201 University City Blvd,Charlotte,NC,28223-0001,-80.730919,35.306022
199148,University of North Carolina at Greensboro,1400 Spring Garden St,Greensboro,NC,27402-6170,-79.809414,36.068236
199157,North Carolina Central University,1801 Fayetteville Street,Durham,NC,27707,-78.898602,35.974237
199184,University of North Carolina School of the Arts,1533 South Main St.,Winston Salem,NC,27127-2738,-80.235672,36.076183
199193,North Carolina State University at Raleigh,2101 Hillsborough Street,Raleigh,NC,27695-7001,-78.674517,35.785111
199218,University of North Carolina Wilmington,601 South College Road,Wilmington,NC,28403-5963,-77.875527,34.225223
199263,Pamlico Community College,5049 Hwy 306 South,Grantsboro,NC,28529,-76.83372,35.068398
199281,University of North Carolina at Pembroke,One University Drive,Pembroke,NC,28372-1510,-79.200347,34.688313
199324,Piedmont Community College,1715 College Dr,Roxboro,NC,27573,-78.980607,36.431674
199333,Pitt Community College,1986 Pitt Tech Road,Winterville,NC,28590,-77.407203,35.550591
199421,Randolph Community College,629 Industrial Park Ave,Asheboro,NC,27205,-79.828538,35.672814
199449,Richmond Community College,1042 W Hamlet Ave,Hamlet,NC,28345-1189,-79.70964,34.905252
199467,Roanoke-Chowan Community College,109 Community College Rd,Ahoskie,NC,27910-9522,-77.023662,36.324827
199476,Robeson Community College,5160 Fayetteville Road,Lumberton,NC,28360,-79.00664,34.675194
199485,Rockingham Community College,215 Wrenn Memorial Road,Wentworth,NC,27375-0038,-79.758353,36.388682
199494,Rowan-Cabarrus Community College,"1333 Jake Alexander Blvd, South",Salisbury,NC,28146,-80.48181,35.639388
199625,Sampson Community College,Highway 24 West,Clinton,NC,28328-0318,-78.361136,34.99086
199634,Sandhills Community College,3395 Airport Rd,Pinehurst,NC,28374,-79.40635,35.220086
199722,Southeastern Community College,4564 Chadbourn Hwy,Whiteville,NC,28472-5422,-78.783365,34.331749
199731,Southwestern Community College,447 College Drive,Sylva,NC,28779,-83.207129,35.348575
199740,Stanly Community College,141 College Drive,Albemarle,NC,28001,-80.236303,35.339895
199768,Surry Community College,630 S. Main St.,Dobson,NC,27017-8432,-80.716834,36.384334
199786,Alamance Community College,1247 Jimmie Kerr Road,Graham,NC,27253-8000,-79.357657,36.066683
199795,Tri-County Community College,21 Campus Circle,Murphy,NC,28906,-83.966476,35.067021
199838,Vance-Granville Community College,200 Community College Road,Henderson,NC,27537,-78.487651,36.323887
199856,Wake Technical Community College,9101 Fayetteville Road,Raleigh,NC,27603-5696,-78.706126,35.650151
199892,Wayne Community College,3000 Wayne Memorial Dr,Goldsboro,NC,27534-8002,-77.945873,35.403079
199908,Western Piedmont Community College,1001 Burkemont Ave,Morganton,NC,28655-4511,-81.687345,35.722876
199926,Wilkes Community College,1328 South Collegiate Dr,Wilkesboro,NC,28697,-81.182994,36.136617
199953,Wilson Community College,902 Herring Ave,Wilson,NC,27893-3310,-77.895663,35.730114
199999,Winston-Salem State University,601 Martin Luther King Jr Dr,Winston-Salem,NC,27110-0001,-80.225033,36.089554
200004,Western Carolina University,Highway 107,Cullowhee,NC,28723-9646,-83.186258,35.308979
200022,Bismarck State College,1500 Edwards Ave.,Bismarck,ND,58506-5587,-100.816534,46.821459
200059,Dickinson State University,291 Campus Drive,Dickinson,ND,58601-4896,-102.799679,46.882917
200086,Nueta Hidatsa Sahnish College,301 College Drive,New Town,ND,58763,-102.472814,47.983311
200192,Lake Region State College,1801 College Dr N,Devils Lake,ND,58301-1598,-98.869034,48.127948
200208,Cankdeska Cikana Community College,214 1st Ave,Fort Totten,ND,58335,-98.990801,47.978122
200226,Mayville State University,330 Third Street NE,Mayville,ND,58257-1299,-97.322554,47.505415
200253,Minot State University,500 University Ave W,Minot,ND,58707,-101.29861,48.246961
200280,University of North Dakota,"264 Centennial Drive, Stop 8193",Grand Forks,ND,58202-8193,-97.071738,47.921654
200305,North Dakota State College of Science,800 N 6th St,Wahpeton,ND,58076-0002,-96.607379,46.272158
200314,Dakota College at Bottineau,105 Simrall Blvd,Bottineau,ND,58318-1198,-100.441103,48.832505
200332,North Dakota State University-Main Campus,1301  12th Avenue North,Fargo,ND,58108-6050,-96.800838,46.893127
200341,Williston State College,1410 University Avenue,Williston,ND,58801,-103.613066,48.158603
200466,Sitting Bull College,9299 Hwy 24,Fort Yates,ND,58538-9721,-100.674735,46.085288
200572,Valley City State University,101 College St SW,Valley City,ND,58072,-98.00389,46.918517
200697,Air Force Institute of Technology-Graduate School of Engineering & Management,2950 Hobson Way,Wright-Patterson AFB,OH,45433-7765,-84.082618,39.782221
200800,University of Akron Main Campus,302 Buchtel Common,Akron,OH,44325-4702,-81.511679,41.078551
200846,University of Akron Wayne College,1901 Smucker Rd,Orrville,OH,44667,-81.789979,40.861519
201283,Belmont College,68094 Hammond Road,St Clairsville,OH,43950,-80.964901,40.07695
201432,Bowling Green State University-Firelands,One University Drive,Huron,OH,44839-9791,-82.594156,41.397521
201441,Bowling Green State University-Main Campus,220 McFall Ctr,Bowling Green,OH,43403,-83.640896,41.375513
201672,Central Ohio Technical College,1179 University Drive,Newark,OH,43055-1767,-82.447441,40.069314
201690,Central State University,1400 Brush Row Rd,Wilberforce,OH,45384-1004,-83.880186,39.715787
201885,University of Cincinnati-Main Campus,2624 Clifton Avenue,Cincinnati,OH,45221-0063,-84.51428,39.131159
201928,Cincinnati State Technical and Community College,3520 Central Parkway,Cincinnati,OH,45223-2690,-84.536936,39.149915
201946,University of Cincinnati-Clermont College,4200 Clermont College Dr,Batavia,OH,45103,-84.19437,39.080645
201955,University of Cincinnati-Blue Ash College,9555 Plainfield Rd,Blue Ash,OH,45236-1096,-84.399956,39.234333
201973,Clark State Community College,570 E Leffel Ln,Springfield,OH,45501-0570,-83.799788,39.896411
202134,Cleveland State University,2121 Euclid Avenue,Cleveland,OH,44115-2214,-81.674355,41.502281
202222,Columbus State Community College,550 E Spring St,Columbus,OH,43215,-82.98766,39.96887
202356,Cuyahoga Community College District,700 Carnegie Ave,Cleveland,OH,44115-2878,-81.683533,41.494906
202648,Edison State Community College,1973 Edison Dr,Piqua,OH,45356-9239,-84.212385,40.157699
203155,Hocking College,3301 Hocking Parkway,Nelsonville,OH,45764,-82.220791,39.441954
203331,Eastern Gateway Community College,4000 Sunset Blvd,Steubenville,OH,43952-3598,-80.672337,40.376056
203447,Kent State University at Ashtabula,3300 Lake Road West,Ashtabula,OH,44004,-80.830377,41.888296
203456,Kent State University at East Liverpool,400 E 4th St,East Liverpool,OH,43920,-80.576702,40.616966
203465,Kent State University at Stark,6000 Frank Ave NW,Canton,OH,44720-7599,-81.43731,40.868568
203474,Kent State University at Trumbull,4314 Mahoning Ave N.W.,Warren,OH,44483,-80.836232999999993,41.278748
203483,Kent State University at Tuscarawas,330 University Dr N.E.,New Philadelphia,OH,44663-9403,-81.407707,40.467736
203492,Kent State University at Salem,2491 State Route 45 South,Salem,OH,44460,-80.835458,40.86408
203517,Kent State University at Kent,"Executive Office, 2nd Floor Library",Kent,OH,44242-0001,-81.342533,41.146653
203526,Kent State University at Geauga,14111 Claridon-Troy Rd,Burton,OH,44021,-81.143085,41.483727
203599,Lakeland Community College,7700 Clocktower Drive,Kirtland,OH,44094-5198,-81.364723,41.637463
203614,O C Collins Career Center,11627 State Rte 243,Chesapeake,OH,45619-0000,-82.473516,38.491898
203678,James A Rhodes State College,4240 Campus Dr,Lima,OH,45804,-84.026319,40.738347
203748,Lorain County Community College,1005 North Abbe Rd,Elyria,OH,44035-1691,-82.073549,41.413293
203881,Marion Technical College,1467 Mount Vernon Ave,Marion,OH,43302-5694,-83.089156,40.577017
204006,Miami University-Hamilton,1601 University Blvd,Hamilton,OH,45011,-84.563385,39.377448
204015,Miami University-Middletown,4200 E University Blvd,Middletown,OH,45042,-84.35724,39.523776
204024,Miami University-Oxford,501 East High St,Oxford,OH,45056,-84.732954,39.507757
204255,Zane State College,1555 Newark Rd,Zanesville,OH,43701-2626,-82.031198,39.96241
204422,North Central State College,2441 Kenwood Circle,Mansfield,OH,44901-0698,-82.581582,40.798777
204440,Northwest State Community College,22600 State Route 34,Archbold,OH,43502-9542,-84.297855,41.450596
204477,Northeast Ohio Medical University,4209 State Route 44,Rootstown,OH,44272-0095,-81.245302,41.102919
204662,Ohio State University Agricultural Technical Institute,1328 Dover Rd,Wooster,OH,44691-4000,-81.922936000000007,40.775194
204671,Ohio State University-Lima Campus,4240 Campus Dr,Lima,OH,45804,-84.02384,40.738521
204680,Ohio State University-Mansfield Campus,1760 University Drive,Mansfield,OH,44906,-82.580194,40.796536
204699,Ohio State University-Marion Campus,1461 Mount Vernon Ave,Marion,OH,43302-5695,-83.090597,40.577779
204705,Ohio State University-Newark Campus,1179 University Dr,Newark,OH,43055,-82.447441,40.069314
204796,Ohio State University-Main Campus,190 N. Oval Mall,Columbus,OH,43210,-83.014853,39.999324
204802,Ohio University-Eastern Campus,45425 National Rd W,Saint Clairsville,OH,43950,-80.976073,40.073392
204820,Ohio University-Chillicothe Campus,101 University Drive,Chillicothe,OH,45601-0629,-83.002175,39.329404
204839,Ohio University-Southern Campus,1804 Liberty Ave,Ironton,OH,45638,-82.666876,38.524781
204848,Ohio University-Lancaster Campus,1570 Granville Pike,Lancaster,OH,43130-1037,-82.586069,39.738752
204857,Ohio University-Main Campus,020 Chubb Hall,Athens,OH,45701-2979,-82.100985,39.326798
204866,Ohio University-Zanesville Campus,1425 Newark Rd,Zanesville,OH,43701,-82.031063,39.96098
204945,Owens Community College,30335 Oregon Rd,Perrysburg,OH,43551,-83.538634,41.587998
205443,Shawnee State University,940  Second  St,Portsmouth,OH,45662,-82.993769,38.730867
205470,Sinclair Community College,444 W. Third St.,Dayton,OH,45402-1460,-84.200628,39.757598
205841,Stark State College,6200 Frank Ave NW,North Canton,OH,44720,-81.439017,40.870597
205966,Southern State Community College,100 Hobart Drive,Hillsboro,OH,45133-9406,-83.614085,39.236924
206011,Terra State Community College,2830 Napoleon Rd,Fremont,OH,43420-9670,-83.157799,41.354111
206084,University of Toledo,2801 W Bancroft,Toledo,OH,43606-3390,-83.614714,41.660572
206446,Washington State Community College,710 Colegate Dr,Marietta,OH,45750,-81.43392,39.430824
206604,Wright State University-Main Campus,3640 Colonel Glenn Highway,Dayton,OH,45435-0001,-84.064881,39.780634
206613,Wright State University-Lake Campus,7600 Lake Campus Drive,Celina,OH,45822-2952,-84.509194,40.546074
206695,Youngstown State University,One University Plaza,Youngstown,OH,44555-0001,-80.64659,41.104928
206914,Cameron University,2800 West Gore Blvd,Lawton,OK,73505-6377,-98.434163,34.606487
206923,Carl Albert State College,1507 S McKenna,Poteau,OK,74953-5208,-94.633986,35.039173
206941,University of Central Oklahoma,100 N University Dr,Edmond,OK,73034,-97.471508,35.6552
206996,Connors State College,700 College Road,Warner,OK,74469,-95.319541,35.492873
207041,East Central University,1100 E. 14th Street,Ada,OK,74820-6999,-96.663849,34.771934
207050,Eastern Oklahoma State College,1301 W Main St,Wilburton,OK,74578-4999,-95.328995,34.914079
207069,Redlands Community College,1300 S Country Club Rd,El Reno,OK,73036-5304,-97.974592,35.518475
207209,Langston University,102 Page Hall,Langston,OK,73050,-97.260317,35.943982
207236,Murray State College,One Murray Campus,Tishomingo,OK,73460,-96.677906,34.222949
207263,Northeastern State University,600 N Grand,Tahlequah,OK,74464-2399,-94.967229,35.919939
207281,Northern Oklahoma College,1220 E Grand Ave,Tonkawa,OK,74653,-97.295887,36.678649
207290,Northeastern Oklahoma A&M College,200 I St NE,Miami,OK,74354,-94.867248,36.877255
207306,Northwestern Oklahoma State University,709 Oklahoma Blvd,Alva,OK,73717-2799,-98.667673,36.796658
207315,Oklahoma State University Center for Health Sciences,1111 W 17th St,Tulsa,OK,74107-1898,-96.005702,36.137977
207342,University of Oklahoma-Health Sciences Center,1105 Stonewall Avenue,Oklahoma City,OK,73117-1221,-97.496289,35.47928
207351,Oklahoma Panhandle State University,323 Eagle Ave,Goodwell,OK,73939-0430,-101.638488,36.594518
207388,Oklahoma State University-Main Campus,107 Whitehurst,Stillwater,OK,74078-1015,-97.069743,36.123085
207397,Oklahoma State University-Oklahoma City,900 N Portland,Oklahoma City,OK,73107-6195,-97.581959,35.474969
207449,Oklahoma City Community College,7777 S May Ave,Oklahoma City,OK,73159-9987,-97.570109,35.387699
207500,University of Oklahoma-Norman Campus,660 Parrington Oval,Norman,OK,73019-3072,-97.444211,35.209407
207564,Oklahoma State University Institute of Technology,1801 E 4th St,Okmulgee,OK,74447-3901,-95.940373,35.626934
207661,Rogers State University,1701 W Will Rogers Blvd,Claremore,OK,74017-3252,-95.635718,36.321437
207670,Rose State College,6420 S E 15th,Midwest City,OK,73110-2799,-97.414113,35.44372
207722,University of Science and Arts of Oklahoma,17th Street and Grand Avenue,Chickasha,OK,73018-5322,-97.95641,35.031392
207740,Seminole State College,2701 Boren Blvd,Seminole,OK,74868-1901,-96.704908,35.249515
207847,Southeastern Oklahoma State University,425 W University Blvd,Durant,OK,74701-3347,-96.376864,34.006808
207865,Southwestern Oklahoma State University,100 Campus Dr,Weatherford,OK,73096-3001,-98.707768,35.535281
207935,Tulsa Community College,6111 E Skelly Dr,Tulsa,OK,74135-6198,-95.90825,36.106788
208035,Western Oklahoma State College,2801 N Main St,Altus,OK,73521-1397,-99.33699,34.669018
208275,Blue Mountain Community College,2411 NW Carden Ave,Pendleton,OR,97801,-118.816944,45.677313
208318,Central Oregon Community College,2600 NW College Way,Bend,OR,97703,-121.348585,44.071401
208390,Chemeketa Community College,4000 Lancaster Dr NE,Salem,OR,97305,-122.978076,44.978655
208406,Clackamas Community College,19600 Molalla Ave,Oregon City,OR,97045-8980,-122.574272,45.323185
208415,Clatsop Community College,1651 Lexington Avenue,Astoria,OR,97103,-123.823339,46.183107
208646,Eastern Oregon University,One University Blvd,La Grande,OR,97850,-118.092495,45.319795
209038,Lane Community College,4000 E 30th Ave,Eugene,OR,97405-0640,-123.032644,44.009325
209074,Linn-Benton Community College,6500 Pacific Blvd SW,Albany,OR,97321,-123.11403,44.587663
209250,Mt Hood Community College,26000 SE Stark St,Gresham,OR,97030,-122.396972,45.514862
209490,Oregon Health & Science University,3181 SW Sam Jackson Park Rd,Portland,OR,97239-3098,-122.686096,45.498772
209506,Oregon Institute of Technology,3201 Campus Drive,Klamath Falls,OR,97601-8801,-121.785177,42.257152
209542,Oregon State University,1500 SW Jefferson Avenue,Corvallis,OR,97331,-123.274723,44.56395
209551,University of Oregon,110 Johnson Hall,Eugene,OR,97403,-123.075792,44.045146
209746,Portland Community College,12000 SW 49th Avenue,Portland,OR,97219-7132,-122.730876,45.438154
209807,Portland State University,724 SW Harrison,Portland,OR,97201,-122.686289,45.511601
209940,Rogue Community College,3345 Redwood Hwy,Grants Pass,OR,97527-9291,-123.39326,42.412159
210146,Southern Oregon University,1250 Siskiyou Blvd,Ashland,OR,97520,-122.695081,42.185077
210155,Southwestern Oregon Community College,1988 Newmark Ave,Coos Bay,OR,97420-2193,-124.25224,43.395327
210234,Treasure Valley Community College,650 College Blvd,Ontario,OR,97914,-116.974487,44.020811
210270,Umpqua Community College,1140 Umpqua College Rd.,Roseburg,OR,97470-0226,-123.332475,43.289317
210429,Western Oregon University,345 North Monmouth Ave,Monmouth,OR,97361-1394,-123.238309,44.852235
210605,Community College of Allegheny County,800 Allegheny Ave,Pittsburgh,PA,15233-1895,-80.018453,40.450908
211079,Community College of Beaver County,1 Campus Drive,Monaca,PA,15061-2588,-80.305876,40.655601
211158,Bloomsburg University of Pennsylvania,400 E Second St,Bloomsburg,PA,17815,-76.447844,41.00782
211307,Bucks County Community College,275 Swamp Rd,Newtown,PA,18940-4106,-74.965841,40.239102
211343,Butler County Community College,107 College Drive,Butler,PA,16002,-79.911433,40.829364
211361,California University of Pennsylvania,250 University Ave,California,PA,15419-1394,-79.88679,40.064964
211608,Cheyney University of Pennsylvania,1837 University Circle,Cheyney,PA,19319-0200,-75.529262,39.932274
211644,Clarion University of Pennsylvania,840 Wood Street,Clarion,PA,16214,-79.377501,41.207805
211927,Delaware County Community College,901 S Media Line Rd,Media,PA,19063-1094,-75.39308,39.966724
212018,Pennsylvania State University-Dickinson Law,150 South College Street,Carlisle,PA,17013-2861,-77.197794,40.199443
212115,East Stroudsburg University of Pennsylvania,200 Prospect Street,East Stroudsburg,PA,18301-2999,-75.173905,40.99599
212160,Edinboro University of Pennsylvania,219 Meadville Street,Edinboro,PA,16444-0001,-80.121318,41.870717
212878,Harrisburg Area Community College,1 HACC Dr.,Harrisburg,PA,17110-2999,-76.886408,40.296777
213020,Indiana University of Pennsylvania-Main Campus,1011 South Dr 201 Sutton Hall,Indiana,PA,15705-1098,-79.159332,40.617531
213349,Kutztown University of Pennsylvania,15200 Kutztown Rd,Kutztown,PA,19530-0730,-75.783933,40.513561
213525,Lehigh Carbon Community College,4525 Education Park Dr,Schnecksville,PA,18078-2598,-75.610715,40.66474
213598,Lincoln University,1570 Baltimore Pike,Lincoln University,PA,19352-0999,-75.926458,39.807723
213613,Lock Haven University,401 North Fairview Street,Lock Haven,PA,17745-2390,-77.460108,41.141517
213659,Luzerne County Community College,1333 South Prospect Street,Nanticoke,PA,18634-3899,-75.991095,41.194728
213783,Mansfield University of Pennsylvania,5 Swan Street,Mansfield,PA,16933,-77.073901,41.807467
214041,Millersville University of Pennsylvania,"1 South George Street, Lyle Hall",Millersville,PA,17551-0302,-76.357381,40.000337
214111,Montgomery County Community College,340 Dekalb Pike,Blue Bell,PA,19422-0796,-75.276093,40.175609
214379,Northampton County Area Community College,3835 Green Pond Rd,Bethlehem,PA,18020-7599,-75.32351,40.67253
214591,Pennsylvania State University-Penn State Erie-Behrend College,4701 College Drive,Erie,PA,16563-0001,-79.983773,42.119433
214607,Pennsylvania State University-Penn State Great Valley,30 East Swedesford Road,Malvern,PA,19355-1488,-75.522545,40.052256
214616,Pennsylvania State University-College of Medicine,500 University Drive,Hershey,PA,17033-2360,-76.67408,40.264245
214625,Pennsylvania State University-Penn State New Kensington,3550 Seventh Street Road,New Kensington,PA,15068-1765,-79.697232,40.551159
214634,Pennsylvania State University-Penn State Shenango,147 Shenango Avenue,Sharon,PA,16146-1537,-80.508764,41.235053
214643,Pennsylvania State University-Penn State Wilkes-Barre,Old Route 115,Lehman,PA,18627-0217,-76.016599,41.306003
214652,Pennsylvania State University-Penn State Scranton,120 Ridge View Drive,Dunmore,PA,18512-1602,-75.620583,41.440258
214670,Pennsylvania State University-Penn State Lehigh Valley,2809 Saucon Valley Road,Center Valley,PA,18034-8447,-75.402507,40.559208
214689,Pennsylvania State University-Penn State Altoona,3000 Ivyside Park,Altoona,PA,16601-3777,-78.408247,40.54092
214698,Pennsylvania State University-Penn State Beaver,100 University Drive,Monaca,PA,15061-2764,-80.296235,40.678254
214704,Pennsylvania State University-Penn State Berks,Tulpehocken Road,Reading,PA,19610-1016,-75.972141,40.357987
214713,Pennsylvania State University-Penn State Harrisburg,777 West Harrisburg Pike,Middletown,PA,17057-4846,-76.7423,40.203766
214731,Pennsylvania State University-Penn State Brandywine,25 Yearsley Mill Road,Media,PA,19063-5522,-75.446983,39.926381
214740,Pennsylvania State University-Penn State DuBois,1 College Place,DuBois,PA,15801-2549,-78.751784,41.126941
214759,Pennsylvania State University-Penn State Fayette- Eberly,2201 University Drive,Lemont Furnace,PA,15456-1025,-79.657769,39.947217
214768,Pennsylvania State University-Penn State Hazleton,76 University Drive,Hazleton,PA,18202-8025,-76.031061,40.983958
214777,Pennsylvania State University-Main Campus,201 Old Main,University Park,PA,16802-1503,-77.862848,40.7965
214786,Pennsylvania State University-Penn State Greater Allegheny,4000 University Drive,McKeesport,PA,15132-7644,-79.827447,40.345582
214795,Pennsylvania State University-Penn State Mont Alto,1 Campus Drive,Mont Alto,PA,17237-9700,-77.542355,39.842047
214801,Pennsylvania State University-Penn State Abington,1600 Woodland Road,Abington,PA,19001-3918,-75.109083,40.11683
214810,Pennsylvania State University-Penn State Schuylkill,200 University Drive,Schuylkill Haven,PA,17972-2202,-76.166326,40.640499
214829,Pennsylvania State University-Penn State York,1031 Edgecomb Avenue,York,PA,17403-3326,-76.702835,39.952327
215239,Community College of Philadelphia,1700 Spring Garden St,Philadelphia,PA,19130-3991,-75.165604,39.962458
215266,University of Pittsburgh-Bradford,300 Campus Drive,Bradford,PA,16701,-78.673701,41.943415
215275,University of Pittsburgh-Greensburg,150 Finoli Drive,Greensburg,PA,15601-5860,-79.532676,40.276447
215284,University of Pittsburgh-Johnstown,450 Schoolhouse Road,Johnstown,PA,15904,-78.834163,40.265957
215293,University of Pittsburgh-Pittsburgh Campus,4200 Fifth Avenue,Pittsburgh,PA,15260,-79.953254,40.444387999999996
215309,University of Pittsburgh-Titusville,504 East Main Street,Titusville,PA,16354,-79.664156,41.628697
215585,Reading Area Community College,10 S Second St,Reading,PA,19602,-75.935086,40.334861
216010,Shippensburg University of Pennsylvania,1871 Old Main Drive,Shippensburg,PA,17257-2299,-77.522335,40.057933
216038,Slippery Rock University of Pennsylvania,1 Morrow Way,Slippery Rock,PA,16057-1383,-80.045965,41.062719
216296,Thaddeus Stevens College of Technology,750 E King St,Lancaster,PA,17602-3198,-76.288718,40.037951
216339,Temple University,1801 North Broad Street,Philadelphia,PA,19122-6096,-75.156859,39.980546
216764,West Chester University of Pennsylvania,University Avenue and High Street,West Chester,PA,19383,-75.59812,39.953398
216825,Westmoreland County Community College,145 Pavilion Lane,Youngwood,PA,15697-1895,-79.564897,40.234321
217420,Rhode Island College,600 Mount Pleasant Ave,Providence,RI,02908,-71.46556,41.842415
217475,Community College of Rhode Island,400 East Ave,Warwick,RI,02886-1807,-71.481509,41.712817
217484,University of Rhode Island,"Green Hall, 35 Campus Avenue",Kingston,RI,02881,-71.527356,41.484691
217615,Aiken Technical College,2276 Jefferson Davis Highway,Graniteville,SC,29829,-81.841666,33.533833
217712,Technical College of the Lowcountry,921 Ribaut Road,Beaufort,SC,29901-1288,-80.689468,32.420197
217819,College of Charleston,66 George St,Charleston,SC,29424-0001,-79.939794,32.784225
217837,Northeastern Technical College,1201 Chesterfield Hwy.,Cheraw,SC,29520,-79.939245,34.698248
217864,Citadel Military College of South Carolina,171 Moultrie St,Charleston,SC,29409,-79.958775,32.797183
217882,Clemson University,201 Sikes Hall,Clemson,SC,29634,-82.835114,34.679381
217989,Denmark Technical College,1126 Solomon Blatt Blvd,Denmark,SC,29042,-81.123629,33.313355
218025,Florence-Darlington Technical College,2715 W. Lucas Street,Florence,SC,29501-0548,-79.81469,34.243882
218061,Francis Marion University,4822 East Palmetto Street,Florence,SC,29506,-79.652854,34.189777
218113,Greenville Technical College,506 S Pleasantburg Dr,Greenville,SC,29606,-82.371178,34.826212
218140,Horry-Georgetown Technical College,2050 Highway 501 East,Conway,SC,29526,-79.003611,33.79614
218229,Lander University,320 Stanley Avenue,Greenwood,SC,29649-2099,-82.164736,34.199892
218335,Medical University of South Carolina,179 Ashley Ave,Charleston,SC,29425,-79.947158,32.784363
218353,Midlands Technical College,1260 Lexington Drive,West Columbia,SC,29170-2176,-81.115761,33.949325
218487,Orangeburg Calhoun Technical College,3250 Saint Matthews Rd,Orangeburg,SC,29118-8299,-80.82927,33.54485
218520,Piedmont Technical College,620 North Emerald Road,Greenwood,SC,29646,-82.120635,34.207415
218645,University of South Carolina Aiken,471 University Pkwy,Aiken,SC,29801,-81.767612,33.572704
218654,University of South Carolina Beaufort,1 University Boulevard,Bluffton,SC,29909,-80.973595,32.303308
218663,University of South Carolina-Columbia,Columbia-Campus,Columbia,SC,29208,-81.026935,33.996788
218672,University of South Carolina-Lancaster,476 Hubbard Drive,Lancaster,SC,29720-0889,-80.787069,34.736282
218681,University of South Carolina-Salkehatchie,465 James Brandt Blvd,Allendale,SC,29810-0617,-81.301838,33.014312
218690,University of South Carolina-Sumter,200 Miller Rd,Sumter,SC,29150-2498,-80.373459,33.934698
218706,University of South Carolina-Union,309 East Academy St,Union,SC,29379-0729,-81.621042,34.717771
218724,Coastal Carolina University,103 Tom Trout Drive,Conway,SC,29526,-79.011767,33.794995
218733,South Carolina State University,300 College St NE,Orangeburg,SC,29117-0001,-80.848722,33.497968
218742,University of South Carolina-Upstate,800 University Way,Spartanburg,SC,29303-4999,-81.970583,34.996403
218830,Spartanburg Community College,107 Community College Drive,Spartanburg,SC,29303,-81.989811,34.974587
218858,Central Carolina Technical College,506 N Guignard Dr,Sumter,SC,29150-2499,-80.37101,33.933342
218885,Tri-County Technical College,7900 U.S. Hwy 76,Pendleton,SC,29670,-82.792015,34.641914
218894,Trident Technical College,7000 Rivers Avenue,Charleston,SC,29423-8067,-80.031276,32.928767
218955,Williamsburg Technical College,601 Martin Luther King Jr Ave,Kingstree,SC,29556-4197,-79.817984,33.657085
218964,Winthrop University,701 Oakland Ave,Rock Hill,SC,29733,-81.031404,34.941515
218991,York Technical College,452 S Anderson Rd,Rock Hill,SC,29730,-80.995273,34.934416
219046,Black Hills State University,1200 University St,Spearfish,SD,57799-9500,-103.870966,44.494889
219082,Dakota State University,820 N Washington Ave,Madison,SD,57042-1799,-97.113358,44.013014
219143,Lake Area Technical College,1201 Arrow Avenue,Watertown,SD,57201-0730,-97.095229,44.901714
219189,Mitchell Technical Institute,1800 E. Spruce Street,Mitchell,SD,57301,-98.002505,43.688663
219259,Northern State University,1200 S Jay St,Aberdeen,SD,57401-7198,-98.484728,45.450829
219277,Oglala Lakota College,490 Piya Wiconi Road,Kyle,SD,57752-0490,-102.240331,43.366813
219347,South Dakota School of Mines and Technology,501 E Saint Joseph St,Rapid City,SD,57701-3995,-103.205753,44.075439
219356,South Dakota State University,1015 Campanile Avenue,Brookings,SD,57007-1898,-96.782139,44.317485
219374,Sinte Gleska University,"E. Highway 18,  101 Antelope Lake Circle",Mission,SD,57555-0105,-100.622549,43.298878
219408,Sisseton Wahpeton College,12572 BIA Rd 700,Sisseton,SD,57262,-97.060835,45.562731
219426,Southeast Technical Institute,2320 N Career Ave,Sioux Falls,SD,57107-1301,-96.780241,43.570446
219471,University of South Dakota,414 E Clark St,Vermillion,SD,57069-2390,-96.925283,42.786019
219480,Western Dakota Technical Institute,800 Mickelson Dr,Rapid City,SD,57703-4018,-103.179501,44.076648
219596,Tennessee College of Applied Technology-Athens,1635 Technology Way,Athens,TN,37371-0848,-84.630484,35.442944
219602,Austin Peay State University,601 College St,Clarksville,TN,37044,-87.354081,36.533319
219824,Chattanooga State Community College,4501 Amnicola Hwy,Chattanooga,TN,37406-1097,-85.237389,35.100202
219879,Cleveland State Community College,3535 Adkisson Drive,Cleveland,TN,37312,-84.879284,35.200103
219888,Columbia State Community College,1665 Hampshire Pike,Columbia,TN,38401,-87.101917,35.616757
219921,Tennessee College of Applied Technology-Covington,1600 Hwy 51 South,Covington,TN,38019,-89.659976,35.545225
219994,Tennessee College of Applied Technology-Dickson,740 Hwy 46,Dickson,TN,37055,-87.366455,36.050549
220057,Dyersburg State Community College,1510 Lake Rd,Dyersburg,TN,38024-2411,-89.390791,36.047565
220075,East Tennessee State University,1276 Gilbreath Drive,Johnson City,TN,37614,-82.366954,36.301643
220127,Tennessee College of Applied Technology-Elizabethton,426 Highway 91,Elizabethton,TN,37643,-82.178198,36.366033
220251,Tennessee College of Applied Technology-Harriman,1745 Harriman Highway,Harriman,TN,37748-5849,-84.517871,35.966107
220279,Tennessee College of Applied Technology-Hartsville,716 McMurry Blvd East,Hartsville,TN,37074-2028,-86.14366,36.387191
220321,Tennessee College of Applied Technology-Hohenwald,813 West Main,Hohenwald,TN,38462-2201,-87.573757,35.551687
220394,Tennessee College of Applied Technology-Jacksboro,265 Elkins Rd,Jacksboro,TN,37757,-84.208918,36.3175
220400,Jackson State Community College,2046 North Pky,Jackson,TN,38301-3797,-88.780005,35.645571
220640,Tennessee College of Applied Technology-Livingston,740 Hi Tech Dr,Livingston,TN,38570,-85.317248,36.39594
220756,Tennessee College of Applied Technology-McKenzie,16940 Highland Dr,McKenzie,TN,38201,-88.492615,36.137048
220853,Tennessee College of Applied Technology-Memphis,550 Alabama Ave,Memphis,TN,38105-3604,-90.039188,35.150262
220862,University of Memphis,Southern Avenue,Memphis,TN,38152,-89.938068,35.118878
220978,Middle Tennessee State University,1301 East Main Street,Murfreesboro,TN,37132,-86.360618,35.848005
221050,Tennessee College of Applied Technology-Morristown,821 W Louise Ave,Morristown,TN,37813-2094,-83.299503,36.204643
221096,Motlow State Community College,6015 Ledford Mill Road,Tullahoma,TN,37388,-86.299184,35.365903
221102,Tennessee College of Applied Technology-Murfreesboro,1303 Old Fort Pky,Murfreesboro,TN,37129-3311,-86.41026,35.845661
221184,Nashville State Community College,120 White Bridge Rd,Nashville,TN,37209-4515,-86.857342,36.134857
221236,Tennessee College of Applied Technology-Newbern,340 Washington St,Newbern,TN,38059,-89.257582,36.120067
221281,Tennessee College of Applied Technology-Paris,312 S Wilson Street,Paris,TN,38242,-88.296432,36.296408
221333,Tennessee College of Applied Technology-Pulaski,1233 E College St,Pulaski,TN,38478-0614,-87.007818,35.191308
221388,Tennessee College of Applied Technology-Ripley,127 Industrial Drive,Ripley,TN,38063,-89.519264,35.779827
221397,Roane State Community College,276 Patton Lane,Harriman,TN,37748,-84.620051,35.880911
221430,Tennessee College of Applied Technology-Crump,3070 Hwy. 64 West,Crump,TN,38327,-88.319153,35.221452
221485,Southwest Tennessee Community College,737 Union Avenue,Memphis,TN,38103,-90.036723,35.138532
221494,Tennessee College of Applied Technology-Shelbyville,1405 Madison St,Shelbyville,TN,37160-3629,-86.421097,35.485655
221582,Tennessee College of Applied Technology-Oneida-Huntsville,355 Scott High Drive,Huntsville,TN,37756-4149,-84.528273,36.408177
221591,Tennessee College of Applied Technology-Crossville,910 Miller Avenue,Crossville,TN,38555,-85.039137,35.946609
221607,Tennessee College of Applied Technology-McMinnville,241 Vo Tech Dr,McMinnville,TN,37110,-85.74531,35.70137
221616,Tennessee College of Applied Technology-Jackson,2468 Technology Center Drive,Jackson,TN,38301,-88.919805,35.606795
221625,Tennessee College of Applied Technology-Knoxville,1100 Liberty Street,Knoxville,TN,37919,-83.964151,35.957
221634,Tennessee College of Applied Technology-Whiteville,1685 Highway 64,Whiteville,TN,38075-0489,-89.159449,35.319574
221643,Pellissippi State Community College,10915 Hardin Valley Road,Knoxville,TN,37933-0990,-84.166504,35.948303
221740,The University of Tennessee-Chattanooga,615 McCallie Ave,Chattanooga,TN,37403-2598,-85.300247,35.047519
221759,The University of Tennessee-Knoxville,527 Andy Holt Tower,Knoxville,TN,37996,-83.925852,35.952082
221768,The University of Tennessee-Martin,554 University Street,Martin,TN,38238,-88.864211,36.340338
221838,Tennessee State University,3500 John A. Merritt Blvd,Nashville,TN,37209-1561,-86.828275,36.166321
221847,Tennessee Technological University,1 William L. Jones Drive,Cookeville,TN,38505-0001,-85.504039,36.174754
221908,Northeast State Community College,2425 Hwy 75,Blountville,TN,37617-0246,-82.408885,36.484961
222053,Volunteer State Community College,1480 Nashville Pike,Gallatin,TN,37066-3188,-86.497127,36.362518
222062,Walters State Community College,500 South Davy Crockett Parkway,Morristown,TN,37813-6899,-83.262503,36.213179
222567,Alvin Community College,3110 Mustang Rd,Alvin,TX,77511-4898,-95.240671,29.396244
222576,Amarillo College,2011 S. Washington,Amarillo,TX,79109,-101.846988,35.187839
222822,Angelina College,3500 South First,Lufkin,TX,75902-1768,-94.731625,31.287444
222831,Angelo State University,2601 W. Avenue N,San Angelo,TX,76909,-100.465051,31.440914
222992,Austin Community College District,5930 Middle Fiskville Rd,Austin,TX,78752,-97.712505,30.322744
223320,Coastal Bend College,3800 Charco Rd,Beeville,TX,78102,-97.755896,28.435194
223427,Blinn College,902 College Ave,Brenham,TX,77833-4098,-96.40852,30.160457
223506,Brazosport College,500 College Dr,Lake Jackson,TX,77566-3199,-95.40934,29.048604
223524,Brookhaven College,3939 Valley View Ln,Farmers Branch,TX,75244-4997,-96.850152,32.928231
223773,Cedar Valley College,3030 North Dallas Ave,Lancaster,TX,75134-3799,-96.763413,32.62568
223816,Central Texas College,6200 West Central Texas Expressway,Killeen,TX,76549-4199,-97.810827,31.120516
223898,Cisco College,101 College Heights,Cisco,TX,76437,-98.985206,32.401132
223922,Clarendon College,1122 College Drive,Clarendon,TX,79226,-100.902421,34.944558
224110,North Central Texas College,1525 W California Street,Gainesville,TX,76240-4699,-97.1658,33.6188
224147,Texas A & M University-Corpus Christi,6300 Ocean Dr.,Corpus Christi,TX,78412-5503,-97.32395,27.713723
224350,Del Mar College,101 Baldwin Blvd.,Corpus Christi,TX,78404-3897,-97.40762,27.763619
224545,Texas A&M University-Texarkana,7101 University Avenue,Texarkana,TX,75503,-94.103617,33.490482
224554,Texas A & M University-Commerce,2600 South Neal Street,Commerce,TX,75428-3011,-95.908451,33.243745
224572,Eastfield College,3737 Motley Dr,Mesquite,TX,75150-2099,-96.659462,32.815673
224615,El Centro College,801 Main Street,Dallas,TX,75202-3604,-96.805353,32.779811
224642,El Paso Community College,9050 Viscount Blvd,El Paso,TX,79925-6507,-106.373616,31.773359
224891,Frank Phillips College,1301 W. Roosevelt St.,Borger,TX,79008-5118,-101.406005,35.657778
224961,Galveston College,4015 Ave Q,Galveston,TX,77550-7496,-94.807686,29.284735
225070,Grayson College,6101 Grayson Drive,Denison,TX,75020-8299,-96.633891,33.70574
225308,Trinity Valley Community College,100 Cardinal Drive,Athens,TX,75751,-95.858513,32.196596
225371,Hill College,112 Lamar Dr,Hillsboro,TX,76645,-97.088332,32.010928
225414,University of Houston-Clear Lake,2700 Bay Area Blvd,Houston,TX,77058-1002,-95.098129,29.582523
225423,Houston Community College,3100 Main Street,Houston,TX,77002,-95.377319,29.742114
225432,University of Houston-Downtown,1 Main Street,Houston,TX,77002-1014,-95.359338,29.7661
225502,University of Houston-Victoria,3007 N. Ben Wilson,Victoria,TX,77901,-96.976334,28.816248
225511,University of Houston,212 E. Cullen Building,Houston,TX,77204-2018,-95.343537,29.720393
225520,Howard College,1001 Birdwell Lane,Big Spring,TX,79720,-101.450104,32.252292
226019,Kilgore College,1100 Broadway,Kilgore,TX,75662-3299,-94.871468,32.377821
226091,Lamar University,4400 MLK Blvd,Beaumont,TX,77705,-94.072244,30.042738
226107,Lamar State College-Orange,410 Front St,Orange,TX,77630,-93.732235,30.0922
226116,Lamar State College-Port Arthur,1500 Proctor St,Port Arthur,TX,77640,-93.925886,29.880385
226134,Laredo College,West End Washington St,Laredo,TX,78040-4395,-99.520772,27.506477
226152,Texas A & M International University,5201 University Blvd,Laredo,TX,78041-1900,-99.436043,27.571172
226204,Lee College,511 S Whiting,Baytown,TX,77520,-94.978184,29.732505
226408,College of the Mainland,1200 Amburn Road,Texas City,TX,77591-2499,-94.999602,29.39581
226578,McLennan Community College,1400 College Dr,Waco,TX,76708,-97.171228,31.58947
226806,Midland College,3600 N Garfield,Midland,TX,79705,-102.106153,32.029646
226833,Midwestern State University,3410 Taft Blvd,Wichita Falls,TX,76308-2099,-98.519386,33.874809
226930,Mountain View College,4849 West Illinois Ave.,Dallas,TX,75211-6599,-96.903565,32.726735
227146,Navarro College,3200 W 7th Avenue,Corsicana,TX,75110,-96.498731,32.076061
227182,Lone Star College System,5000 Research Forest Drive,The Woodlands,TX,77381-4399,-95.488103,30.18737
227191,North Lake College,5001 North MacArthur Blvd.,Irving,TX,75038-3899,-96.967098,32.871872
227216,University of North Texas,1501 W.Chestnut Ave.,Denton,TX,76203-1277,-97.148422,33.211178
227225,Northeast Texas Community College,2886 FM 1735,Mount Pleasant,TX,75455,-94.881855,33.104931
227304,Odessa College,201 W University Blvd,Odessa,TX,79764,-102.383477,31.866812
227368,The University of Texas Rio Grande Valley,1201 W University Dr,Edinburg,TX,78539-2999,-98.173567,26.306759
227377,Texas Southmost College,80 Fort Brown,Brownsville,TX,78520,-97.492241,25.899628
227386,Panola College,1109 W Panola Street,Carthage,TX,75633-2397,-94.356355,32.156214
227401,Paris Junior College,2400 Clarksville St,Paris,TX,75460,-95.529177,33.650929
227526,Prairie View A & M University,FM 1098 Road & University Drive,Prairie View,TX,77446,-95.989475,30.092425
227687,Ranger College,1100 College Circle,Ranger,TX,76470,-98.685215,32.456773
227766,Richland College,12800 Abrams Rd.,Dallas,TX,75243-2199,-96.730498,32.922135
227854,St Philip's College,1801 Martin Luther King Dr,San Antonio,TX,78203-2098,-98.453285,29.41508
227881,Sam Houston State University,1806 Ave J,Huntsville,TX,77340,-95.546205,30.714738
227924,San Antonio College,"1819 N. Main Ave.,",San Antonio,TX,78212-3941,-98.497647,29.44634
227979,San Jacinto Community College,8060 Spencer Hwy,Pasadena,TX,77505,-95.114677,29.660032
228158,South Plains College,1401 S. College Ave,Levelland,TX,79336,-102.365075,33.575904
228316,Southwest Texas Junior College,2401 Garner Field Rd,Uvalde,TX,78801-6297,-99.741237,29.219671
228431,Stephen F Austin State University,"2008 Alumni Drive, Rusk 206",Nacogdoches,TX,75961,-94.64908,31.621056
228459,Texas State University,601 University Dr,San Marcos,TX,78666,-97.943029,29.888885
228501,Sul Ross State University,HWY 90 East,Alpine,TX,79832,-103.651469,30.363139
228529,Tarleton State University,1333 W. Washington,Stephenville,TX,76401-0000,-98.214866,32.214988
228547,Tarrant County College District,1500 Houston St,Fort Worth,TX,76102-6524,-97.327941,32.747495
228608,Temple College,2600 S 1st St,Temple,TX,76504-7435,-97.350471,31.070715
228635,University of Texas Southwestern Medical Center,5323 Harry Hines Blvd,Dallas,TX,75390-9096,-96.841156,32.812307
228644,The University of Texas Health Science Center at San Antonio,7703 Floyd Curl Dr,San Antonio,TX,78229-3900,-98.575655,29.508107
228653,The University of Texas Medical Branch at Galveston,301 University Blvd,Galveston,TX,77555-0129,-94.775956,29.310758
228699,Texarkana College,2500 N Robison Rd,Texarkana,TX,75599,-94.078,33.441868
228705,Texas A & M University-Kingsville,955 University Blvd,Kingsville,TX,78363,-97.882387,27.525168
228723,Texas A & M University-College Station,"JKW Administration Building, Suite 200",College Station,TX,77843-1248,-96.336475,30.618726
228769,The University of Texas at Arlington,701 S. Nedderman Dr.,Arlington,TX,76013,-97.11296,32.729718
228778,The University of Texas at Austin,110 Inner Campus Drive,Austin,TX,78705,-97.738273,30.282825
228787,The University of Texas at Dallas,800 West Campbell  Road,Richardson,TX,75080-3021,-96.749702,32.984673
228796,The University of Texas at El Paso,500 W. University Ave,El Paso,TX,79968-0691,-106.504098,31.77015
228802,The University of Texas at Tyler,3900 University Blvd,Tyler,TX,75799-6699,-95.254337,32.315772
228909,University of North Texas Health Science Center,3500 Camp Bowie Blvd,Fort Worth,TX,76107-2699,-97.369138,32.749907
229018,The University of Texas of the Permian Basin,4901 E University,Odessa,TX,79762-0001,-102.329634,31.889509
229027,The University of Texas at San Antonio,One UTSA Circle,San Antonio,TX,78249-1644,-98.620657,29.583709
229063,Texas Southern University,3100 Cleburne St,Houston,TX,77004,-95.361113,29.721046
229115,Texas Tech University,Broadway and University Avenue,Lubbock,TX,79409-5005,-101.874783,33.583448
229179,Texas Woman's University,304 Administration Dr,Denton,TX,76204,-97.127842,33.226211
229300,The University of Texas Health Science Center at Houston,7000 Fannin,Houston,TX,77030,-95.403183,29.702873
229337,Texas Tech University Health Sciences Center,3601 4th Street,Lubbock,TX,79430,-101.891915,33.589284
229355,Tyler Junior College,1400 East Fifth Street,Tyler,TX,75701,-95.284122,32.33601
229504,Vernon College,4400 College Dr.,Vernon,TX,76384-4092,-99.319094,34.159298
229540,Victoria College,2200 E Red River,Victoria,TX,77901,-96.979226,28.816446
229799,Weatherford College,225 College Park Drive,Weatherford,TX,76086-5699,-97.792629,32.74133
229814,West Texas A & M University,2501 4th Ave,Canyon,TX,79016-0001,-101.914736,34.982789
229832,Western Texas College,6200 College Ave,Snyder,TX,79549,-100.914945,32.678458
229841,Wharton County Junior College,911 Boling Hwy,Wharton,TX,77488,-96.085815,29.3238
230010,Bridgerland Technical College,1301 North 600 West,Logan,UT,84321,-111.850619,41.756188
230171,Dixie State University,225 S University Avenue,Saint George,UT,84770-3876,-113.565903,37.102769
230597,Snow College,150 E College Ave,Ephraim,UT,84627,-111.58296,39.360177
230603,Southern Utah University,351 West University Blvd,Cedar City,UT,84720,-113.070146,37.674617
230728,Utah State University,Old Main Hill,Logan,UT,84322-1400,-111.81391,41.740748
230737,Utah Valley University,800 W University Parkway,Orem,UT,84058-5999,-111.716456,40.281078
230746,Salt Lake Community College,4600 S Redwood Rd,Salt Lake City,UT,84123,-111.942809,40.671575
230764,University of Utah,"201 Presidents Circle, ROOM 201",Salt Lake City,UT,84112-9008,-111.846044,40.762484
230782,Weber State University,3850 Dixon Parkway Dr. Dept. 1031,Ogden,UT,84408-1031,-111.944845,41.192591
230834,Castleton University,62 Alumni Dr,Castleton,VT,05735,-73.180842,43.608397
230861,Community College of Vermont,660 Elm Street,Montpelier,VT,05602,-72.573774,44.280811
230913,Northern Vermont University,337 College Hill,Johnson,VT,05656-9464,-72.671154,44.641736
231165,Vermont Technical College,124 Admin Drive,Randolph,VT,05061,-72.604498,43.939623
231174,University of Vermont,85 S Prospect St,Burlington,VT,05405-0160,-73.196646,44.477325
231536,Blue Ridge Community College,1 College Lane,Weyers Cave,VA,24486-0080,-78.937471,38.279075
231624,William & Mary,200 Richmond Road,Williamsburg,VA,23187-8795,-76.708214,37.269489
231697,Central Virginia Community College,3506 Wards Rd,Lynchburg,VA,24502-2498,-79.184238,37.358809
231712,Christopher Newport University,1 Avenue of the Arts,Newport News,VA,23606-3072,-76.494364,37.062495
231837,Radford University-Carilion,101 Elm Avenue SE,Roanoke,VA,24013,-79.939574,37.265985
231873,Dabney S Lancaster Community College,1000 Dabney Drive,Clifton Forge,VA,24422-1000,-79.852536,37.812275
231882,Danville Community College,1008 S Main St,Danville,VA,24541-4004,-79.408803,36.565286
231970,Eastern Virginia Medical School,700w. Olney,Norfolk,VA,23507,-76.300694,36.861232
232052,Eastern Shore Community College,29300 Lankford Hwy,Melfa,VA,23410,-75.750791,37.640453
232186,George Mason University,4400 University Dr,Fairfax,VA,22030-4444,-77.307428,38.829976
232195,Germanna Community College,2130 Germanna Hwy,Locust Grove,VA,22508-2102,-77.78012,38.375532
232414,J Sargeant Reynolds Community College,1651 East Parham Road,Richmond,VA,23228-2327,-77.473918,37.636837
232423,James Madison University,800 South Main Street,Harrisonburg,VA,22807,-78.870484,38.436311
232450,John Tyler Community College,13101 Jefferson Davis Hwy,Chester,VA,23831-5316,-77.407919,37.346254
232566,Longwood University,201 High St,Farmville,VA,23909,-78.39575,37.301137
232575,Lord Fairfax Community College,173 Skirmisher Lane,Middletown,VA,22645,-78.267336,39.036001
232681,University of Mary Washington,1301 College Ave,Fredericksburg,VA,22401-5300,-77.476055,38.302492
232788,Mountain Empire Community College,3441 Mountain Empire Road,Big Stone Gap,VA,24219,-82.758277,36.854421
232867,New River Community College,5251 College Drive,Dublin,VA,24084-3660,-80.69605,37.105239
232937,Norfolk State University,700 Park Avenue,Norfolk,VA,23504-8000,-76.261375,36.848429
232946,Northern Virginia Community College,4001 Wakefield Chapel Rd,Annandale,VA,22003-3796,-77.236718,38.833361
232982,Old Dominion University,5115 Hampton Blvd,Norfolk,VA,23529,-76.30666,36.886418
233019,Patrick Henry Community College,645 Patriot Avenue,Martinsville,VA,24112,-79.871133,36.737893
233037,Paul D Camp Community College,100 N College Dr,Franklin,VA,23851,-76.93757,36.674527
233116,Piedmont Virginia Community College,501 College Drive,Charlottesville,VA,22902-7589,-78.483707,38.006895
233277,Radford University,801 East Main St.,Radford,VA,24142,-80.549728,37.136907
233310,Rappahannock Community College,12745 College Drive,Glenns,VA,23149-2616,-76.623913,37.564425
233338,Richard Bland College,11301 Johnson Rd.,South Prince George,VA,23805-7100,-77.399932,37.156972
233639,Southside Virginia Community College,109 Campus Drive,Alberta,VA,23821,-77.917962,36.839066
233648,Southwest Virginia Community College,"369 College Road       US Rt. 19, 6 Miles S. Claypool Hill",Cedar Bluff,VA,24609,-81.796682,37.006196
233754,Thomas Nelson Community College,99 Thomas Nelson Drive,Hampton,VA,23666,-76.420046,37.063821
233772,Tidewater Community College,121 College Place,Norfolk,VA,23510,-76.289904,36.8501
233897,The University of Virginia's College at Wise,1 College Avenue,Wise,VA,24293-4400,-82.559656,36.970602
233903,Virginia Highlands Community College,100 VHCC Drive,Abingdon,VA,24212-0828,-82.001118,36.698866
233921,Virginia Polytechnic Institute and State University,"210 Burruss Hall, 800 Drillfield Dr.",Blacksburg,VA,24061-0131,-80.423675,37.229012
233949,Virginia Western Community College,3094 Colonial Ave,Roanoke,VA,24015,-79.973011,37.245029
234030,Virginia Commonwealth University,910 W Franklin St,Richmond,VA,23284-2512,-77.452697,37.54962
234076,University of Virginia-Main Campus,1827 University Avenue,Charlottesville,VA,22903-2628,-78.503428,38.035665
234085,Virginia Military Institute,VMI Parade,Lexington,VA,24450-0304,-79.437067,37.7896
234155,Virginia State University,1 Hayden Drive,Petersburg,VA,23806,-77.419026,37.234692
234377,Wytheville Community College,1000 E Main Street,Wytheville,VA,24382-3308,-81.071181,36.95731
234669,Bellevue College,3000 Landerholm Cir SE,Bellevue,WA,98007-6484,-122.150118,47.584014
234696,Bellingham Technical College,3028 Lindbergh Ave,Bellingham,WA,98225-1599,-122.51216,48.766189
234711,Big Bend Community College,7662 Chanute St NE,Moses Lake,WA,98837-3299,-119.325678,47.183651
234827,Central Washington University,400 East University Way,Ellensburg,WA,98926-7501,-120.538368,47.002687
234845,Centralia College,600 Centralia College Blvd.,Centralia,WA,98531-4099,-122.960591,46.715017
234933,Clark College,1933 Fort Vancouver Way,Vancouver,WA,98663-3598,-122.651257,45.636133
234951,Clover Park Technical College,4500 Steilacoom Blvd SW,Lakewood,WA,98499-4004,-122.497873,47.176084
234979,Columbia Basin College,2600 N 20th Ave,Pasco,WA,99301,-119.12103,46.25216
235097,Eastern Washington University,526 5th Street,Cheney,WA,99004-2496,-117.583808,47.490667
235103,Edmonds Community College,20000 68th Ave W,Lynnwood,WA,98036-5912,-122.327598,47.816376
235149,Everett Community College,2000 Tower Street,Everett,WA,98201,-122.204736,48.006626
235167,The Evergreen State College,2700 Evergreen Pkwy NW,Olympia,WA,98505-0001,-122.977492,47.07382
235237,Pierce College-Fort Steilacoom,9401 Farwest Dr SW,Lakewood,WA,98498-1999,-122.570935,47.172082
235334,Grays Harbor College,1620 Edward P Smith Drive,Aberdeen,WA,98520-7599,-123.803068,46.953881
235343,Green River College,12401 SE 320th St,Auburn,WA,98092-3622,-122.175819,47.313648
235431,Highline College,2400 S 240th St,Des Moines,WA,98198-9800,-122.303064,47.388231
235671,Bates Technical College,1101 S Yakima Ave,Tacoma,WA,98405,-122.44683,47.251743
235699,Lake Washington Institute of Technology,11605 132nd Ave NE,Kirkland,WA,98034-8506,-122.167131,47.705077
235750,Lower Columbia College,1600 Maple Street,Longview,WA,98632-0310,-122.935928,46.14214
236072,North Seattle College,9600 College Way North,Seattle,WA,98103-3599,-122.333584,47.698408
236188,Olympic College,1600 Chester Ave,Bremerton,WA,98337-1699,-122.635113,47.574769
236258,Peninsula College,1502 E Lauridsen Blvd,Port Angeles,WA,98362,-123.412865,48.101295
236382,Renton Technical College,3000 NE Fourth St,Renton,WA,98056-4123,-122.176303,47.489206
236504,South Seattle College,6000 16th Ave SW,Seattle,WA,98106-1499,-122.352672,47.5475
236513,Seattle Central College,1701 Broadway Avenue,Seattle,WA,98122,-122.321231,47.616748
236610,Shoreline Community College,16101 Greenwood Ave N,Shoreline,WA,98133-5696,-122.358626,47.747402
236638,Skagit Valley College,2405 E. College Way,Mount Vernon,WA,98273,-122.30894,48.437194
236656,South Puget Sound Community College,2011 Mottman Rd SW,Olympia,WA,98512-6292,-122.929578,47.023698
236692,Spokane Community College,1810 North Greene Street,Spokane,WA,99217-5399,-117.360065,47.674034
236708,Spokane Falls Community College,3410 W Fort George Wright Dr,Spokane,WA,99224-5288,-117.463538,47.676741
236753,Tacoma Community College,6501 S 19th St,Tacoma,WA,98466-6100,-122.524793,47.244622
236887,Walla Walla Community College,500 Tausick Way,Walla Walla,WA,99362-9267,-118.276505,46.078557000000004
236939,Washington State University,French Administration Building,Pullman,WA,99164-5910,-117.158168,46.730448
236948,University of Washington-Seattle Campus,1400 NE Campus Parkway,Seattle,WA,98195-4550,-122.30514,47.65538
236975,Wenatchee Valley College,1300 Fifth St,Wenatchee,WA,98801-1799,-120.337198,47.431234
237011,Western Washington University,516 High Street,Bellingham,WA,98225-9008,-122.485734,48.737812
237039,Whatcom Community College,237 W Kellogg Rd,Bellingham,WA,98226,-122.493253,48.7939
237109,Yakima Valley College,South 16th Ave. & Nob Hill Blvd.,Yakima,WA,98907-2520,-120.528525,46.586098
237215,Bluefield State College,219 Rock Street,Bluefield,WV,24701-2198,-81.239037,37.265732
237330,Concord University,1000 Vermillion Street,Athens,WV,24712,-81.006696,37.423723
237367,Fairmont State University,1201 Locust Ave,Fairmont,WV,26554-2470,-80.162433,39.483079
237385,Glenville State College,200 High Street,Glenville,WV,26351-1292,-80.834295,38.93547
237525,Marshall University,1 John Marshall Dr,Huntington,WV,25755,-82.428964,38.422482
237543,Mercer County Technical Education Center,1397 Stafford Dr,Princeton,WV,24740,-81.104647,37.360024
237686,West Virginia University at Parkersburg,300 Campus Drive,Parkersburg,WV,26104,-81.506192,39.216379
237701,Potomac State College of West Virginia University,101 Fort Ave,Keyser,WV,26726,-78.981441,39.438323
237792,Shepherd University,301 North King St,Shepherdstown,WV,25443,-77.804101,39.433071
237817,Southern West Virginia Community and Technical College,Dempsey Branch Road,Mount Gay,WV,25637,-82.023014,37.851756
237844,Fred W Eberle Technical Center,208 Morton Ave,Buckhannon,WV,26201,-80.225278,39.001908
237880,West Virginia School of Osteopathic Medicine,400 Lee Street North,Lewisburg,WV,24901,-80.43782,37.804273
237899,West Virginia State University,Rte 25,Institute,WV,25112-1000,-81.765034,38.380541
237932,West Liberty University,208 University Drive,West Liberty,WV,26074,-80.602256,40.164417
237950,West Virginia University Institute of Technology,512 South Kanawha Street,Beckley,WV,25801,-81.184072,37.775924
238014,West Virginia Northern Community College,1704 Market St.,Wheeling,WV,26003-3699,-80.721263,40.063318
238032,West Virginia University,PO Box 6201,Morgantown,WV,26506,-79.954391,39.634371
238263,Madison Area Technical College,1701 Wright Street,Madison,WI,53704-2599,-89.327921,43.12183
238397,Blackhawk Technical College,6004 South County Road G,Janesville,WI,53547-5009,-89.016254,42.593159
238722,Fox Valley Technical College,1825 N Bluemound Dr,Appleton,WI,54912-2277,-88.45893,44.283174
238759,Gateway Technical College,3520 30th Ave,Kenosha,WI,53144-1690,-87.846695,42.605677
239008,Lakeshore Technical College,1290 North Avenue,Cleveland,WI,53015-1414,-87.75454,43.924774
239220,Mid-State Technical College,500 32nd St N,Wisconsin Rapids,WI,54494,-89.783785,44.391091
239248,Milwaukee Area Technical College,700 W State St,Milwaukee,WI,53233-1443,-87.920818,43.04359
239372,Moraine Park Technical College,235 N National Avenue,Fond du Lac,WI,54936-1940,-88.417656,43.785224
239442,Nicolet Area Technical College,5364 College Drive,Rhinelander,WI,54501-0518,-89.425055,45.609542
239460,Northcentral Technical College,1000 Campus Dr,Wausau,WI,54401-1899,-89.646369000000007,44.986458
239488,Northeast Wisconsin Technical College,2740 W Mason St,Green Bay,WI,54307-9042,-88.105675,44.526467
239910,Southwest Wisconsin Technical College,1800 Bronson Blvd,Fennimore,WI,53809-9778,-90.637714,42.976238
240116,Chippewa Valley Technical College,620 W Clairemont Ave,Eau Claire,WI,54701-6162,-91.505675,44.794867000000004
240125,Waukesha County Technical College,800 Main Street,Pewaukee,WI,53072-4601,-88.256292,43.071444
240170,Western Technical College,400 Seventh St. North,La Crosse,WI,54601,-91.246191,43.815309
240189,University of Wisconsin-Whitewater,800 W Main St,Whitewater,WI,53190-1790,-88.742368,42.835563
240198,Wisconsin Indianhead Technical College,505 Pine Ridge Drive,Shell Lake,WI,54871-8727,-91.916484,45.747831
240268,University of Wisconsin-Eau Claire,105 Garfield Ave,Eau Claire,WI,54701,-91.501906,44.798284
240277,University of Wisconsin-Green Bay,2420 Nicolet Dr,Green Bay,WI,54311-7001,-87.919973,44.532298
240329,University of Wisconsin-La Crosse,1725 State St,La Crosse,WI,54601-9959,-91.23186,43.81568
240365,University of Wisconsin-Oshkosh,800 Algoma Blvd,Oshkosh,WI,54901,-88.549369,44.026206
240374,University of Wisconsin-Parkside,900 Wood Rd,Kenosha,WI,53144,-87.855231,42.647718
240417,University of Wisconsin-Stout,712 S Broadway St,Menomonie,WI,54751,-91.926653,44.873187
240426,University of Wisconsin-Superior,1605 Catlin Ave,Superior,WI,54880-4500,-92.091007,46.717629
240444,University of Wisconsin-Madison,500 Lincoln Dr,Madison,WI,53706-1380,-89.404098,43.075409
240453,University of Wisconsin-Milwaukee,2200 E Kenwood Blvd,Milwaukee,WI,53211,-87.880488,43.076848
240462,University of Wisconsin-Platteville,1 University Plaza,Platteville,WI,53818-3099,-90.48622,42.733451
240471,University of Wisconsin-River Falls,410 S 3rd St,River Falls,WI,54022-5001,-92.622641,44.8534
240480,University of Wisconsin-Stevens Point,2100 Main St,Stevens Point,WI,54481-3897,-89.570934,44.529582
240505,Casper College,125 College Drive,Casper,WY,82601-4699,-106.326712,42.832788
240514,Central Wyoming College,2660 Peck Avenue,Riverton,WY,82501,-108.426738,43.030556
240596,Eastern Wyoming College,3200 West C St,Torrington,WY,82240-1699,-104.190823,42.079354
240620,Laramie County Community College,1400 E College Dr,Cheyenne,WY,82007-3299,-104.778789,41.104288
240657,Northwest College,231 W 6th St,Powell,WY,82435-1898,-108.761853,44.760656
240666,Northern Wyoming Community College District,1 Whitney Way,Sheridan,WY,82801,-106.941105,44.763926
240693,Western Wyoming Community College,2500 College Dr,Rock Springs,WY,82901,-109.237126,41.590964
240727,University of Wyoming,Corner of Ninth and Ivinson,Laramie,WY,82071,-105.57931,41.311773
240736,American Samoa Community College,P.O. Box 2609,PagoPago,AS,96799-2609,-170.742774,-14.322636
240745,Guam Community College,1 Sesame Street,Mangilao,GU,96913,144.808944,13.440649
240754,University of Guam,"303 University Drive, UOG Station",Mangilao,GU,96923,144.803978,13.433047
240790,Northern Marianas College,As Terlaje Campus,Saipan,MP,96950-1250,145.721733,15.152247
241720,Colegio Universitario de San Juan,180 Jose Oliver St Tres Monjitas  Ind. Park,San Juan,PR,00918,-66.066529,18.428528
241766,Conservatory of Music of Puerto Rico,951 Ponce de Leon Avenue,San Juan,PR,00907-3373,-66.078811,18.454016
241951,Escuela de Artes Plasticas y Diseno de Puerto Rico,Barrio Ballaja Campo Del Morro,San Juan,PR,00902-1112,-66.121348,18.46778
242042,Instituto Tecnologico de Puerto Rico-Recinto de Manati,State Road 2  Km.47.3,Manati,PR,00674-1091,-66.472476,18.432962
242556,Instituto Tecnologico de Puerto Rico-Recinto de Guayama,"Urb. Vives, Final Calle Paseo #2",Guayama,PR,00784-0000,-66.118728,17.977897
242565,Instituto Tecnologico de Puerto Rico-Recinto de Ponce,4820 Candido Hoyos Urb. Perla Del Sur,Ponce,PR,00717-0306,-66.629804,17.999381
242583,Instituto Tecnologico de Puerto Rico-Recinto de San Juan,Calle Alegria Final Urb las Virtudes,San Juan,PR,00924,-66.016003,18.411097
243106,University of Puerto Rico-Aguadilla,Belt St. Ramey Base,Aguadilla,PR,00604-6150,-67.13793,18.498652
243115,University of Puerto Rico-Arecibo,Finca las Dunas Carr 653 Ruta 129 Km 8,Arecibo,PR,00614-4010,-66.74114,18.469199
243133,University of Puerto Rico-Bayamon,Road 174 #170 Minillas Industrial Park,Bayamon,PR,00959,-66.143541,18.371398
243142,University of Puerto Rico-Carolina,Carretera 887 Bo San Anton,Carolina,PR,00984-4800,-65.990165,18.392069
243151,University of Puerto Rico-Cayey,205 Antonio R. Barcelo Ave.,Cayey,PR,00737-2230,-66.162066,18.11882
243179,University of Puerto Rico-Humacao,Call Box 860,Humacao,PR,00792,-65.838602,18.146589
243188,University of Puerto Rico-Utuado,Carr. # 10 Km. 52.2,Utuado,PR,00641,-66.721667,18.254577
243197,University of Puerto Rico-Mayaguez,259 Boulevard Alfonso Valdez,Mayaguez,PR,00681,-67.139172,18.211142
243203,University of Puerto Rico-Medical Sciences,"Rio Piedras Medical Center, Americo Miranda Avenue",San Juan,PR,00936-5067,-66.074894,18.396548
243212,University of Puerto Rico-Ponce,2151 Santiago de los Caballeros Avenue,Ponce,PR,00716-9996,-66.606215,17.993314
243221,University of Puerto Rico-Rio Piedras,39 Ponce de Leon  Ave,San Juan,PR,00931-0000,-66.050009,18.402826
243638,College of Micronesia-FSM,Kolonia,Pohnpei,FM,96941,158.158189,6.909759
243647,Palau Community College,9th Madalaii Hamlet,Koror,PW,96940,134.473744,7.343177
243665,University of the Virgin Islands,2 John Brewers Bay,Charlotte Amalie,VI,00802-9990,-64.972866,18.344193
243780,Purdue University-Main Campus,Hovde Hall of Administration,West Lafayette,IN,47907-2040,-86.914435,40.428206
244437,Georgia State University-Perimeter College,33 Gilmer St.,Atlanta,GA,30303-3083,-84.385712,33.753426
244446,Georgia Piedmont Technical College,495 N Indian Creek Dr,Clarkston,GA,30021-2397,-84.234504,33.789898
245625,Warren County Community College,475 Route 57 W,Washington,NJ,07882-4343,-75.018309,40.744812
246354,Palo Alto College,1400 W Villaret Blvd,San Antonio,TX,78224-2499,-98.543468,29.322955
246813,Athens Technical College,800 U.S. Hwy 29 North,Athens,GA,30601,-83.339598,33.990183
247603,Sussex County Community College,One College Hill Road,Newton,NJ,07860,-74.758079,41.067633
247834,Collin County Community College District,3452 Spur 399,McKinney,TX,75069,-96.63894,33.16241
247940,Owensboro Community and Technical College,4800 New Hartford Rd,Owensboro,KY,42303,-87.082861,37.717355
248606,Moore Norman Technology Center,4701 12th Avenue NW,Norman,OK,73069-8399,-97.457319,35.274434
248925,Tennessee College of Applied Technology Nashville,100 White Bridge Rd,Nashville,TN,37209-4515,-86.856335,36.132649
251260,Southern Union State Community College,750 Roberts St,Wadley,AL,36276,-85.572382,33.128785
260372,Lac Courte Oreilles Ojibwe College,13466 W Trepania Rd,Hayward,WI,54843,-91.365002,45.942252
260901,Purdue University Global-Davenport,"1801 East Kimberly Road, Suite 1",Davenport,IA,52807-2095,-90.550682,41.555024
260910,Purdue University Global-Cedar Falls,7009 Nordic Drive,Cedar Falls,IA,50613,-92.448419,42.474593
262031,St Charles Community College,4601 Mid Rivers Mall Dr,Cottleville,MO,63376-0975,-90.641105,38.759703
262129,New College of Florida,5800 Bay Shore Road,Sarasota,FL,34243-2109,-82.55858,27.384925
363165,Metro Technology Centers,1900 Springlake Drive,Oklahoma City,OK,73111-5240,-97.478182,35.512549
363633,Luna Community College,336 Luna Drive,Las Vegas,NM,87701,-105.250865,35.616303
363721,University of the District of Columbia-David A Clarke School of Law,4340 Connecticut Ave NW,Washington,DC,20008,-77.065221,38.94621
364016,Paradise Valley Community College,18401 N 32nd St,Phoenix,AZ,85032,-112.009865,33.652135
364025,Chandler-Gilbert Community College,2626 E Pecos Rd,Chandler,AZ,85225-2499,-111.795922,33.293897
364548,Great Plains Technology Center,4500 W Lee Blvd,Lawton,OK,73505-8399,-98.450321,34.592907
364575,Roane-Jackson Technical Center,9450 Spencer Rd,Leroy,WV,25252-9700,-81.561142,38.82254
365213,Autry Technology Center,1201 W Willow,Enid,OK,73703-2506,-97.89719,36.419122
365480,Meridian Technology Center,1312 S Sangre Rd,Stillwater,OK,74074-1899,-97.108414,36.106981
366252,Pennsylvania College of Technology,One College Ave,Williamsport,PA,17701-5799,-77.023665,41.234145
366340,Stone Child College,8294 Upper Box Elder Road,Box Elder,MT,59521-9796,-109.870182,48.289808
366395,Suffolk County Community College,533 College Rd,Selden,NY,11784-2899,-73.056165,40.848963
366401,Las Positas College,3000 Campus Hill Drive,Livermore,CA,94551-7650,-121.80058,37.710873
366465,Ogeechee Technical College,One Joseph E. Kennedy Blvd,Statesboro,GA,30458,-81.818517,32.395767
366711,California State University-San Marcos,333 S Twin Oaks Valley Rd,San Marcos,CA,92096-0001,-117.159013,33.130569
367024,Purdue University Global-Des Moines,4655 North West 121 Street,Urbandale,IA,50323-5702,-93.778426,41.645171
367459,NorthWest Arkansas Community College,One College Drive,Bentonville,AR,72712-5091,-94.17289,36.357704
367875,Brewster Technical College,2222 N Tampa St,Tampa,FL,33602-2196,-82.461722,27.96373
368364,Southwest Technology Center,711 W. Tamarack,Altus,OK,73521,-99.341161,34.668194
368911,Southeastern Technical College,3001 E First St,Vidalia,GA,30474,-82.365827,32.20393
369419,Erwin Technical College,2010 E. Hillsborough Avenue,Tampa,FL,33610-8299,-82.435933,27.997242
369668,Central Pennsylvania Institute of Science and Technology,540 N Harrison Rd,Pleasant Gap,PA,16823,-77.740423,40.882223
371690,Downey Adult School,12340 Woodruff Ave,Downey,CA,90241,-118.115727,33.91965
375407,Madison Adult Career Center,600 Esley Ln,Mansfield,OH,44905,-82.460912,40.774328
375683,Gordon Cooper Technology Center,1 John C Bruton Blvd,Shawnee,OK,74804,-96.908013,35.380321
376695,College of the Marshall Islands,Oceanside Uliga - PO Box 1258,Majuro,MH,96960,171.378129,7.102688
377555,University of Washington-Bothell Campus,18115 Campus Way NE,Bothell,WA,98011-8246,-122.191293,47.759773
377564,University of Washington-Tacoma Campus,1900 Commerce St,Tacoma,WA,98402-3100,-122.438541,47.244594
380359,Bay Mills Community College,12214 W Lakeshore Dr,Brimley,MI,49715,-84.607089,46.454584
380368,Fond du Lac Tribal and Community College,2101 14th St,Cloquet,MN,55720-2342,-92.451326,46.690069
380377,Northwest Indian College,2522 Kwina Rd,Bellingham,WA,98226-9217,-122.614656,48.794131
382911,Southwest Collegiate Institute for the Deaf,3200 Ave C,Big Spring,TX,79720-7298,-101.50294,32.226498
383084,Hacienda La Puente Adult Education,14101 E. Nelson Ave,La Puente,CA,91746-0002,-117.979559,34.044112
383190,Hawaii Community College,1175 Manono Street,Hilo,HI,96720-5096,-155.069653,19.704756
383330,Sandusky Career Center,2130A Hayes Ave,Sandusky,OH,44870,-82.71206,41.43483
383996,Eastern New Mexico University Ruidoso Branch Community College,709 Mechem Dr,Ruidoso,NM,88345,-105.677273,33.346376
384333,Estrella Mountain Community College,3000 N Dysart Rd,Avondale,AZ,85392-1000,-112.343158,33.480722
384342,Heartland Community College,1500 West Raab Road,Normal,IL,61761-9446,-89.014776,40.53301
395362,Copper Mountain Community College,6162 Rotary Way,Joshua Tree,CA,92252,-116.213939,34.140464
399212,Santiago Canyon College,8045 E Chapman,Orange,CA,92869-4512,-117.766762,33.795449
403469,Frontier Community College,2 Frontier Drive,Fairfield,IL,62837,-88.392194,38.380271
403478,Lincoln Trail College,11220 State Hwy 1,Robinson,IL,62454,-87.689001,39.01958
403487,Wabash Valley College,2200 College Drive,Mount Carmel,IL,62863,-87.778448,38.42889
404426,Coconino Community College,2800 S. Lone Tree Rd.,Flagstaff,AZ,86005-2701,-111.645631,35.171328
405872,Carroll Community College,1601 Washington Rd,Westminster,MD,21157,-76.991113,39.531805
407009,Arizona State University-West,4701 W Thunderbird Road,Glendale,AZ,85306,-112.160021,33.60726
407832,Warren County Career Center,3525 North State Route 48,Lebanon,OH,45036-1099,-84.202969,39.488772
409315,South Texas College,3201 W Pecan,McAllen,TX,78502-9701,-98.253634,26.217591
409698,California State University-Monterey Bay,100 Campus Center,Seaside,CA,93955-8001,-121.796178,36.652397
413626,Leech Lake Tribal College,6945 Littlewolf Road NW,Cass Lake,MN,56633,-94.651563,47.395686
413802,East San Gabriel Valley Regional Occupational Program,1501 W Del Norte St.,West Covina,CA,91790,-117.937116,34.076805
414911,Pennsylvania Highlands Community College,101 Community College Way,Johnstown,PA,15904-2949,-78.837175,40.26408
416801,The University of Texas MD Anderson Cancer Center,1515 Holcombe Blvd.,Houston,TX,77030-4009,-95.396804,29.707016
417248,CT Aero Tech School,500 Lindbergh Drive,Hartford,CT,06114,-72.652599,41.735077
417275,Stratford School for Aviation Maintenance Technicians,200 Great Meadow Road,Stratford,CT,06615,-73.130761,41.161259
418296,Indian Capital Technology Center-Muskogee,2403 N 41st St E,Muskogee,OK,74403-1889,-95.311895,35.774921
418533,Lancaster County Career and Technology Center,1730 Hans Herr Dr,Willow Street,PA,17584,-76.266186,39.984811
419226,Marion Technical College,1014 SW 7th Rd,Ocala,FL,34471-3172,-82.147877,29.178271
420398,Northwest Vista College,3535 N. Ellison Drive,San Antonio,TX,78251,-98.70513,29.471308
420431,Oconee Fall Line Technical College,1189 Deepstep Rd,Sandersville,GA,31082,-82.839621,32.996687
420440,York County Community College,112 College Drive,Wells,ME,04090,-70.590783,43.306797
420468,Western Suffolk BOCES,152 Laurel Hill Rd,Northport,NY,11768,-73.343689,40.877083
420538,Arkansas State University-Mountain Home,1600 South College Street,Mountain Home,AR,72653,-92.388581,36.320466
420556,Columbia Gorge Community College,400 E Scenic Dr,The Dalles,OR,97058,-121.190197,45.590724
420574,Arizona State University-Polytechnic,7001 E Williams Field Road,Mesa,AZ,85212,-111.677225,33.307142
420723,Tillamook Bay Community College,4301 Third St.,Tillamook,OR,97141,-123.813624,45.456603
423652,Oregon Coast Community College,400 SE College Way,Newport,OR,97366,-124.046973,44.603136
427991,Osceola Technical College,501 Simpson Rd,Kissimmee,FL,34744,-81.349696,28.298648
428392,Klamath Community College,7390 South Sixth Street,Klamath Falls,OR,97603-7121,-121.698855,42.195028
430795,Carver Career Center,4799 Midland Dr,Charleston,WV,25306-6397,-81.562988,38.289708
433068,Okaloosa Technical College,1976 Lewis Turner Blvd,Fort Walton Beach,FL,32547,-86.614844,30.46866
433174,Carolinas College of Health Sciences,1200 Blythe Blvd,Charlotte,NC,28203-2861,-80.838535,35.200295
433660,Florida Gulf Coast University,10501 Fgcu Blvd S,Fort Myers,FL,33965-6565,-81.7726,26.463638
434016,Little Priest Tribal College,601 E. College Drive,Winnebago,NE,68071-0270,-96.467881,42.234983
434061,South Louisiana Community College,1101 Bertrand Drive,Lafayette,LA,70506-4109,-92.050933,30.218616
434584,Ilisagvik College,Narl Facility,Barrow,AK,99723,-156.679486,71.324702
434672,Community College of Baltimore County,7201 Rossville Blvd.,Baltimore,MD,21237,-76.48211,39.352647
435000,Louisiana State University Health Sciences Center-Shreveport,1501 Kings Hwy,Shreveport,LA,71103,-93.761018000000007,32.480683
436304,River Parishes Community College,925 West Edenborne Parkway,Gonzales,LA,70737,-90.930804,30.191006
436818,University of Connecticut-Waterbury Campus,99 East Main Street,Waterbury,CT,06702,-73.039242,41.555617
436827,University of Connecticut-Avery Point,1084 Shennecossett Rd,Groton,CT,06340-6097,-72.065336,41.316419
436836,University of Connecticut-Stamford,One University Place,Stamford,CT,06901-2315,-73.542206,41.056081
437103,Baton Rouge Community College,201 Community College Drive,Baton Rouge,LA,70806,-91.137935,30.448276
438708,Eastern West Virginia Community and Technical College,316 Eastern Drive,Moorefield,WV,26836-0000,-78.932546,39.075562
439145,Pierce College-Puyallup,9401 Farwest Dr SW,Lakewood,WA,98498-1999,-122.272365,47.156328
439190,Cascadia College,18345 Campus Way NE,Bothell,WA,98011-8205,-122.191572,47.760915
440402,Arkansas State University-Newport,7648 Victory Blvd,Newport,AR,72112,-91.188846,35.638722
440828,Oregon State University-Cascades Campus,1500 SW Chandler Avenue,Bend,OR,97702,-121.333703,44.042795
440916,Southern University Law Center, ,Baton Rouge,LA,70813,-91.194417,30.523898
441070,Saginaw Chippewa Tribal College,2274 Enterprise Dr,Mount Pleasant,MI,48858,-84.732485,43.607105
441760,Lamar Institute of Technology,855 E Lavaca,Beaumont,TX,77705,-94.077126,30.047885
441900,Nevada State College,1125 Nevada State Drive,Henderson,NV,89002,-114.938044,35.982345
441937,California State University-Channel Islands,One University Dr,Camarillo,CA,93012,-119.04356,34.162949
442781,Tohono O'odham Community College,"Highway 86, Mile Post 125.5",Sells,AZ,85634-3129,-111.715445,31.989869
443492,Pierpont Community and Technical College,1201 Locust Ave,Fairmont,WV,26554,-80.162447,39.483057
444219,Folsom Lake College,10 College Parkway,Folsom,CA,95630,-121.127486,38.661372
444954,Mountwest Community and Technical College,One Mountwest Way,Huntington,WV,25701,-82.458186,38.392635
445188,University of California-Merced,5200 North Lake Road,Merced,CA,95343-5603,-120.424944,37.366237
446774,Blue Ridge Community and Technical College,13650 Apple Harvest Drive,Martinsburg,WV,25403,-78.001918,39.43529
447582,New River Community and Technical College,280 University Drive,Beaver,WV,25813-8987,-81.136085,37.76767
447689,Georgia Gwinnett College,1000 University Center Lane,Lawrenceville,GA,30043,-84.00459,33.979409
448594,West Hills College-Lemoore,555 College Avenue,Lemoore,CA,93245,-119.823866,36.292431
448840,University of South Florida-St Petersburg,140 Seventh Ave S.,St. Petersburg,FL,33701-9807,-82.636136,27.763872
448886,Arizona State University-Downtown Phoenix,411 N Central Ave,Phoenix,AZ,85004,-112.07347,33.452914
451671,University of South Florida-Sarasota-Manatee,8350 N Tamiami Trail,Sarasota,FL,34243-2049,-82.562725,27.39158
452106,Escuela De Troqueleria Y Herramentaje,150 Rd 174 Urb Industrial Minillas,Bayamon,PR,00959,-66.143939,18.374732
455114,College of Western Idaho,5500 East Opportunity Drive,Nampa,ID,83687,-116.507314,43.614106
455512,Woodland Community College,2300 E Gibson Rd,Woodland,CA,95776,-121.73533,38.660392
456959,University of Minnesota-Rochester,"111 South Broadway, Suite 300",Rochester,MN,55904,-92.463471,44.022339
457387,Immokalee Technical College,508 N 9th St,Immokalee,FL,34142,-81.425148,26.426526
459082,Virginia Polytechnic Institute & State University,2 Riverside Circle,Roanoke,VA,24016-4950,-79.942599,37.257489
459329,Fred K Marchman Technical College,7825 Campus Dr.,New Port Richey,FL,34653,-82.691779,28.271196
459949,Texas A&M University-San Antonio,One University Way,San Antonio,TX,78224,-98.52417,29.304762
460394,Moreno Valley College,16130 Lasselle St,Moreno Valley,CA,92551,-117.20271,33.88744
460464,Norco College,2001 Third St,Norco,CA,92860,-117.570212,33.917387
461245,Flagler Technical Institute,5400 E. Highway 100,Palm Coast,FL,32164,-81.211337,29.47629
461315,Keweenaw Bay Ojibwa Community College,111 Beartown Road,Baraga,MI,49908-0000,-88.507761,46.782535
463056,University of Connecticut-Hartford Campus,10 Prospect Street,Hartford,CT,06103,-72.672175,41.762673
475565,CUNY Stella and Charles Guttman Community College,50 West 40th Street,New York,NY,10018-2602,-73.984131,40.75281
476975,Colorado State University-Global Campus,585 Salida Way,Aurora,CO,80011-0000,-104.786742,39.724849
479956,Pennsylvania State University-World Campus,128 Outreach Building,University Park,PA,16802-1503,-77.841594,40.832783
480064,Purdue University Global-Augusta,14 Marketplace Drive,Augusta,ME,04330,-69.789786,44.340912
480967,College of the Muscogee Nation,2170 Raven Circle,Okmulgee,OK,74447-0917,-95.936439,35.635288
482149,Augusta University,1120 15th St,Augusta,GA,30912,-81.989071,33.47037
482158,Middle Georgia State University,100 University Parkway,Macon,GA,31206,-83.732058,32.808092
482680,University of North Georgia,82 College Circle,Dahlonega,GA,30597,-83.985694,34.530219
482699,South Georgia State College,100 W College Park Dr,Douglas,GA,31533,-82.855231,31.495903
482936,Florida Polytechnic University,4700 Research Way,Lakeland,FL,33805-8531,-81.845995,28.150149
483036,Texas A&M University-Central Texas,1001 Leadership Place,Killeen,TX,76549,-97.775182,31.053407
483045,Central Georgia Technical College,80 Cohen Walker Drive,Warner Robins,GA,31088,-83.66765,32.545341
483124,Arizona State University-Skysong,1475 N Scottsdale Rd,Scottsdale,AZ,85257,-111.923861,33.463786
483212,Louisiana Delta Community College,7500 Millhaven Rd,Monroe,LA,71203,-92.032664,32.49637
484233,Tri-Community Adult Education,231 Stephanie Drive,Covina,CA,91722-3925,-117.887096,34.104391
484473,University of Florida-Online,341 Tigert Hall  300 SW 13th St,Gainesville,FL,32611,-82.339848,29.649413
484905,University of North Texas at Dallas,7300 University Hills Drive,Dallas,TX,75241,-96.803446,32.659588
484932,BridgeValley Community & Technical College,2001 Union Carbide Dr,South  Charleston,WV,25136,-81.6983,38.353846
485111,Georgia Military College,201 E Greene St,Milledgeville,GA,31061,-83.224211,33.07944
485458,Coastal Pines Technical College,1701 Carswell Ave,Waycross,GA,31503,-82.3821,31.212781
485537,University of Texas Health Science Center at Tyler,11937 US Highway 271,Tyler,TX,75708-3154,-95.213526,32.425963
486840,Kennesaw State University,1000 Chastain Rd,Kennesaw,GA,30144,-84.583052,34.038807
487010,The University of Tennessee Health Science Center, ,Memphis,TN,38163,-90.033138,35.140231
487162,Southern Regional Technical College,15689 US Hwy 19 North,Thomasville,GA,31792,-83.9514,30.863799
487296,University of Arizona-Sierra Vista,1140 North Colombo Avenue,Sierra Vista,AZ,85635,-110.245117,31.567832
487320,Texas State Technical College,3801 Campus Drive,Waco,TX,76705,-97.08471,31.639295
488730,Northeast Lakeview College,1201 Kitty Hawk Rd,Universal City,TX,78145,-98.323246,29.545802
488800,Teachers College of San Joaquin,2857 Transworld Dr.,Stockton,CA,95206,-121.229911,37.90797
488934,Tulsa Technology Center,3420 S Memorial Drive,Tulsa,OK,74145,-95.887481,36.113428
489201,Clovis Community College,10309 North Willow Avenue,Fresno,CA,93730,-119.731261,36.88686
489779,Purdue University Global,"9000 Keystone Crossing, Suite 800",Indianapolis,IN,46240-0000,-86.109501,39.91844
489788,Purdue University Global-Milwaukee,201 W. Wisconsin Avenue,Milwaukee,WI,53203-2303,-87.913354,43.038608
490090,Gadsden Technical Institute,201 Martin Luther King Jr Boulevard,Quincy,FL,32351-4415,-84.578905,30.577656
490771,Purdue University Global-St. Louis,1807 Park 270 Drive Suite 105,St. Louis,MO,63146-4021,-90.449121,38.690763
490805,Purdue University Northwest,2200 169th Street,Hammond,IN,46323,-87.474236,41.584324
491288,University of Wisconsin-Milwaukee Flex,2200 E Kenwood Blvd,Milwaukee,WI,53201,-87.880488,43.076848
491297,University of Wisconsin-Parkside Flex,900 Wood Rd,Kenosha,WI,53141,-87.855007,42.645603
491303,University of Wisconsin Colleges Flex,"5602 Reseach Park Blvd., Suite 303",Madison,WI,53719,-89.477124,43.056602
491844,Red Lake Nation College,15480 Migizi Drive,Red Lake,MN,56671-0000,-95.009828,47.880085
492689,Texas Tech University Health Sciences Center-El Paso,5001 El Paso Drive,El Paso,TX,79905-2827,-106.43122,31.771891
493725,University of Arkansas System eVersity,2402 North University Avenue,Little Rock,AR,72207-3608,-92.343582,34.775996
